Zip_code;Zip_name;Municipality_name;Municipality_code;NUTS3_name;NUTS3_code
100;Helsinki Keskusta - Etu-Töölö;Helsinki;91;Uusimaa;1
120;Punavuori;Helsinki;91;Uusimaa;1
130;Kaartinkaupunki;Helsinki;91;Uusimaa;1
140;Kaivopuisto - Ullanlinna;Helsinki;91;Uusimaa;1
150;Eira - Hernesaari;Helsinki;91;Uusimaa;1
160;Katajanokka;Helsinki;91;Uusimaa;1
170;Kruununhaka;Helsinki;91;Uusimaa;1
180;Kamppi - Ruoholahti;Helsinki;91;Uusimaa;1
190;Suomenlinna;Helsinki;91;Uusimaa;1
200;Lauttasaari;Helsinki;91;Uusimaa;1
210;Vattuniemi;Helsinki;91;Uusimaa;1
220;Jätkäsaari;Helsinki;91;Uusimaa;1
230;Ilmala;Helsinki;91;Uusimaa;1
240;Länsi-Pasila;Helsinki;91;Uusimaa;1
250;Taka-Töölö;Helsinki;91;Uusimaa;1
260;Keski-Töölö;Helsinki;91;Uusimaa;1
270;Pohjois-Meilahti;Helsinki;91;Uusimaa;1
280;Ruskeasuo;Helsinki;91;Uusimaa;1
290;Meilahden sairaala-alue;Helsinki;91;Uusimaa;1
300;Pikku Huopalahti;Helsinki;91;Uusimaa;1
310;Kivihaka;Helsinki;91;Uusimaa;1
320;Etelä-Haaga;Helsinki;91;Uusimaa;1
330;Munkkiniemi;Helsinki;91;Uusimaa;1
340;Kuusisaari-Lehtisaari;Helsinki;91;Uusimaa;1
350;Munkkivuori-Niemenmäki;Helsinki;91;Uusimaa;1
360;Pajamäki;Helsinki;91;Uusimaa;1
370;Reimarla;Helsinki;91;Uusimaa;1
380;Pitäjänmäen teollisuusalue;Helsinki;91;Uusimaa;1
390;Konala;Helsinki;91;Uusimaa;1
400;Pohjois-Haaga;Helsinki;91;Uusimaa;1
410;Malminkartano;Helsinki;91;Uusimaa;1
420;Kannelmäki;Helsinki;91;Uusimaa;1
430;Maununneva;Helsinki;91;Uusimaa;1
440;Lassila;Helsinki;91;Uusimaa;1
500;Sörnäinen;Helsinki;91;Uusimaa;1
510;Etu-Vallila - Alppila;Helsinki;91;Uusimaa;1
520;Itä-Pasila;Helsinki;91;Uusimaa;1
530;Kallio;Helsinki;91;Uusimaa;1
540;Kalasatama;Helsinki;91;Uusimaa;1
550;Vallila;Helsinki;91;Uusimaa;1
560;Toukola-Vanhakaupunki;Helsinki;91;Uusimaa;1
570;Kulosaari;Helsinki;91;Uusimaa;1
580;Verkkosaari;Helsinki;91;Uusimaa;1
590;Kaitalahti;Helsinki;91;Uusimaa;1
600;Koskela-Helsinki;Helsinki;91;Uusimaa;1
610;Käpylä;Helsinki;91;Uusimaa;1
620;Metsälä-Etelä-Oulunkylä;Helsinki;91;Uusimaa;1
630;Maunula-Suursuo;Helsinki;91;Uusimaa;1
640;Oulunkylä-Patola;Helsinki;91;Uusimaa;1
650;Veräjämäki;Helsinki;91;Uusimaa;1
660;Länsi-Pakila;Helsinki;91;Uusimaa;1
670;Paloheinä;Helsinki;91;Uusimaa;1
680;Itä-Pakila;Helsinki;91;Uusimaa;1
690;Tuomarinkylä-Torpparinmäki;Helsinki;91;Uusimaa;1
700;Malmi;Helsinki;91;Uusimaa;1
710;Pihlajamäki;Helsinki;91;Uusimaa;1
720;Pukinmäki-Savela;Helsinki;91;Uusimaa;1
730;Tapanila;Helsinki;91;Uusimaa;1
740;Siltamäki;Helsinki;91;Uusimaa;1
750;Puistola;Helsinki;91;Uusimaa;1
760;Suurmetsä;Helsinki;91;Uusimaa;1
770;Jakomäki - Alppikylä;Helsinki;91;Uusimaa;1
780;Tapaninvainio;Helsinki;91;Uusimaa;1
790;Viikki;Helsinki;91;Uusimaa;1
800;Länsi-Herttoniemi;Helsinki;91;Uusimaa;1
810;Herttoniemi;Helsinki;91;Uusimaa;1
820;Roihuvuori;Helsinki;91;Uusimaa;1
830;Tammisalo;Helsinki;91;Uusimaa;1
840;Laajasalo;Helsinki;91;Uusimaa;1
850;Jollas;Helsinki;91;Uusimaa;1
860;Santahamina;Helsinki;91;Uusimaa;1
870;Etelä-Laajasalo;Helsinki;91;Uusimaa;1
880;Roihupellon teollisuusalue;Helsinki;91;Uusimaa;1
890;Östersundom;Helsinki;91;Uusimaa;1
900;Puotinharju;Helsinki;91;Uusimaa;1
910;Puotila;Helsinki;91;Uusimaa;1
920;Myllypuro;Helsinki;91;Uusimaa;1
930;Itäkeskus-Marjaniemi;Helsinki;91;Uusimaa;1
940;Kontula - Vesala;Helsinki;91;Uusimaa;1
950;Vartioharju;Helsinki;91;Uusimaa;1
960;Pohjois-Vuosaari;Helsinki;91;Uusimaa;1
970;Mellunmäki;Helsinki;91;Uusimaa;1
980;Etelä-Vuosaari;Helsinki;91;Uusimaa;1
990;Aurinkolahti;Helsinki;91;Uusimaa;1
1120;Västerskog;Sipoo;753;Uusimaa;1
1150;Söderkulla;Sipoo;753;Uusimaa;1
1180;Kalkkiranta;Porvoo;638;Uusimaa;1
1190;Box;Sipoo;753;Uusimaa;1
1200;Hakunila;Vantaa;92;Uusimaa;1
1230;Vaarala;Vantaa;92;Uusimaa;1
1260;Itä-Hakkila;Vantaa;92;Uusimaa;1
1280;Länsimäki;Vantaa;92;Uusimaa;1
1300;Tikkurila;Vantaa;92;Uusimaa;1
1340;Leinelä;Vantaa;92;Uusimaa;1
1350;Hiekkaharju;Vantaa;92;Uusimaa;1
1360;Koivukylä-Havukoski;Vantaa;92;Uusimaa;1
1370;Jokiniemi;Vantaa;92;Uusimaa;1
1380;Kuusikko-Hakkila;Vantaa;92;Uusimaa;1
1390;Ruskeasanta-Ilola;Vantaa;92;Uusimaa;1
1400;Rekola;Vantaa;92;Uusimaa;1
1420;Päiväkumpu;Vantaa;92;Uusimaa;1
1450;Korso;Vantaa;92;Uusimaa;1
1480;Mikkola;Vantaa;92;Uusimaa;1
1490;Nikinmäki;Vantaa;92;Uusimaa;1
1510;Kirkonkylä-Veromäki;Vantaa;92;Uusimaa;1
1520;Tammisto;Vantaa;92;Uusimaa;1
1530;Veromiehenkylä;Vantaa;92;Uusimaa;1
1600;Myyrmäki;Vantaa;92;Uusimaa;1
1610;Kaivoksela;Vantaa;92;Uusimaa;1
1620;Martinlaakso;Vantaa;92;Uusimaa;1
1630;Hämeenkylä;Vantaa;92;Uusimaa;1
1640;Hämevaara;Vantaa;92;Uusimaa;1
1650;Vapaala;Vantaa;92;Uusimaa;1
1660;Varisto;Vantaa;92;Uusimaa;1
1670;Vantaanlaakso;Vantaa;92;Uusimaa;1
1680;Askisto;Vantaa;92;Uusimaa;1
1690;Ylästö;Vantaa;92;Uusimaa;1
1700;Kivistö;Vantaa;92;Uusimaa;1
1710;Pähkinärinne;Vantaa;92;Uusimaa;1
1720;Petikko;Vantaa;92;Uusimaa;1
1730;Vantaanpuisto;Vantaa;92;Uusimaa;1
1740;Tuupakan teollisuusalue;Vantaa;92;Uusimaa;1
1750;Keimola;Vantaa;92;Uusimaa;1
1760;Seutula;Vantaa;92;Uusimaa;1
1770;Martinlaakson teollisuusalue;Vantaa;92;Uusimaa;1
1800;Klaukkala Keskus;Nurmijärvi;543;Uusimaa;1
1810;Luhtajoki;Nurmijärvi;543;Uusimaa;1
1820;Haikala;Nurmijärvi;543;Uusimaa;1
1830;Lepsämä;Nurmijärvi;543;Uusimaa;1
1840;Klaukkala;Nurmijärvi;543;Uusimaa;1
1860;Perttula;Nurmijärvi;543;Uusimaa;1
1900;Nurmijärvi Keskus;Nurmijärvi;543;Uusimaa;1
1940;Palojoki;Nurmijärvi;543;Uusimaa;1
2100;Tapiola;Espoo;49;Uusimaa;1
2110;Otsolahti;Espoo;49;Uusimaa;1
2120;Länsikorkee-Suvikumpu;Espoo;49;Uusimaa;1
2130;Pohjois-Tapiola;Espoo;49;Uusimaa;1
2140;Laajalahti;Espoo;49;Uusimaa;1
2150;Otaniemi;Espoo;49;Uusimaa;1
2160;Westend;Espoo;49;Uusimaa;1
2170;Haukilahti;Espoo;49;Uusimaa;1
2180;Mankkaa;Espoo;49;Uusimaa;1
2200;Niittykumpu;Espoo;49;Uusimaa;1
2210;Olari;Espoo;49;Uusimaa;1
2230;Matinkylä;Espoo;49;Uusimaa;1
2240;Friisilä;Espoo;49;Uusimaa;1
2250;Henttaa;Espoo;49;Uusimaa;1
2260;Kaitaa;Espoo;49;Uusimaa;1
2270;Finnoo-Eestinmalmi;Espoo;49;Uusimaa;1
2280;Malminmäki-Eestinlaakso;Espoo;49;Uusimaa;1
2290;Puolarmetsän sairaala;Espoo;49;Uusimaa;1
2300;Nöykkiönpuro;Espoo;49;Uusimaa;1
2320;Espoonlahti;Espoo;49;Uusimaa;1
2330;Saunalahti-Kattilalaakso;Espoo;49;Uusimaa;1
2340;Latokaski;Espoo;49;Uusimaa;1
2360;Soukka;Espoo;49;Uusimaa;1
2380;Suvisaaristo;Espoo;49;Uusimaa;1
2390;Sarvvik;Kirkkonummi;257;Uusimaa;1
2400;Kirkkonummi Keskus;Kirkkonummi;257;Uusimaa;1
2410;Gesterby;Kirkkonummi;257;Uusimaa;1
2420;Jorvas;Kirkkonummi;257;Uusimaa;1
2430;Masala;Kirkkonummi;257;Uusimaa;1
2440;Luoma;Kirkkonummi;257;Uusimaa;1
2450;Sundsberg;Kirkkonummi;257;Uusimaa;1
2460;Kantvik;Kirkkonummi;257;Uusimaa;1
2470;Upinniemi;Kirkkonummi;257;Uusimaa;1
2480;Porkkala;Kirkkonummi;257;Uusimaa;1
2490;Pikkala;Siuntio;755;Uusimaa;1
2510;Oitmäki;Kirkkonummi;257;Uusimaa;1
2520;Lapinkylä;Kirkkonummi;257;Uusimaa;1
2540;Kylmälä;Kirkkonummi;257;Uusimaa;1
2550;Evitskog;Kirkkonummi;257;Uusimaa;1
2570;Siuntio Kirkonkylä;Siuntio;755;Uusimaa;1
2580;Siuntio Asemanseutu;Siuntio;755;Uusimaa;1
2590;Lappers;Siuntio;755;Uusimaa;1
2600;Etelä-Leppävaara;Espoo;49;Uusimaa;1
2610;Kilo;Espoo;49;Uusimaa;1
2620;Karakallio;Espoo;49;Uusimaa;1
2630;Nihtisilta;Espoo;49;Uusimaa;1
2650;Pohjois-Leppävaara;Espoo;49;Uusimaa;1
2660;Lintuvaara;Espoo;49;Uusimaa;1
2680;Uusmäki;Espoo;49;Uusimaa;1
2700;Kauniainen;Kauniainen;235;Uusimaa;1
2710;Viherlaakso;Espoo;49;Uusimaa;1
2720;Lähderanta;Espoo;49;Uusimaa;1
2730;Jupperi;Espoo;49;Uusimaa;1
2740;Bemböle-Pakankylä;Espoo;49;Uusimaa;1
2750;Sepänkylä-Kuurinniitty;Espoo;49;Uusimaa;1
2760;Tuomarila-Suvela;Espoo;49;Uusimaa;1
2770;Espoon Keskus;Espoo;49;Uusimaa;1
2780;Kauklahti;Espoo;49;Uusimaa;1
2810;Gumböle-Karhusuo;Espoo;49;Uusimaa;1
2820;Nupuri-Nuuksio;Espoo;49;Uusimaa;1
2860;Siikajärvi;Espoo;49;Uusimaa;1
2880;Veikkola;Kirkkonummi;257;Uusimaa;1
2920;Niipperi;Espoo;49;Uusimaa;1
2940;Lippajärvi-Järvenperä;Espoo;49;Uusimaa;1
2970;Kalajärvi;Espoo;49;Uusimaa;1
2980;Lakisto;Espoo;49;Uusimaa;1
3100;Nummela;Vihti;927;Uusimaa;1
3150;Huhmari;Vihti;927;Uusimaa;1
3220;Tervalampi;Vihti;927;Uusimaa;1
3250;Ojakkala;Vihti;927;Uusimaa;1
3300;Otalampi;Vihti;927;Uusimaa;1
3320;Selki;Vihti;927;Uusimaa;1
3400;Vihti Kirkonkylä;Vihti;927;Uusimaa;1
3430;Jokikunta;Vihti;927;Uusimaa;1
3600;Karkkila Keskus;Karkkila;224;Uusimaa;1
3620;Polari;Karkkila;224;Uusimaa;1
3710;Uusitalo;Karkkila;224;Uusimaa;1
3790;Vihtijärvi;Vihti;927;Uusimaa;1
3810;Ikkala;Lohja;444;Uusimaa;1
3850;Pusula;Lohja;444;Uusimaa;1
3870;Hyönölä;Lohja;444;Uusimaa;1
4130;Sipoo;Sipoo;753;Uusimaa;1
4150;Martinkylä;Sipoo;753;Uusimaa;1
4170;Paippinen;Sipoo;753;Uusimaa;1
4200;Kerava Keskus;Kerava;245;Uusimaa;1
4220;Ahjo-Kaskela;Kerava;245;Uusimaa;1
4230;Pihkaniitty;Kerava;245;Uusimaa;1
4240;Talma;Sipoo;753;Uusimaa;1
4250;Alikerava;Kerava;245;Uusimaa;1
4260;Savio;Kerava;245;Uusimaa;1
4300;Hyrylä;Tuusula;858;Uusimaa;1
4310;Tuusula Keskus;Tuusula;858;Uusimaa;1
4320;Riihikallio;Tuusula;858;Uusimaa;1
4330;Lahela;Tuusula;858;Uusimaa;1
4340;Mattila;Tuusula;858;Uusimaa;1
4350;Nahkela;Tuusula;858;Uusimaa;1
4360;Ruotsinkylä-Kiilinmäki;Tuusula;858;Uusimaa;1
4370;Rusutjärvi;Tuusula;858;Uusimaa;1
4380;Tuomala;Tuusula;858;Uusimaa;1
4390;Jäniksenlinna;Tuusula;858;Uusimaa;1
4400;Loutti;Järvenpää;186;Uusimaa;1
4410;Järvenpää Keskus;Järvenpää;186;Uusimaa;1
4420;Kyrölä;Järvenpää;186;Uusimaa;1
4430;Kinnari-Mikonkorpi;Järvenpää;186;Uusimaa;1
4440;Jamppa;Järvenpää;186;Uusimaa;1
4460;Nummenkylä;Järvenpää;186;Uusimaa;1
4480;Haarajoki;Mäntsälä;505;Uusimaa;1
4500;Kellokoski;Tuusula;858;Uusimaa;1
4530;Ohkola;Mäntsälä;505;Uusimaa;1
4600;Mäntsälä Keskus;Mäntsälä;505;Uusimaa;1
4620;Kaunismäki;Mäntsälä;505;Uusimaa;1
4630;Sääksjärvi;Mäntsälä;505;Uusimaa;1
4660;Numminen;Mäntsälä;505;Uusimaa;1
4680;Hirvihaara;Mäntsälä;505;Uusimaa;1
4740;Sälinkää;Mäntsälä;505;Uusimaa;1
4770;Sahakylä;Mäntsälä;505;Uusimaa;1
4820;Kaukalampi;Mäntsälä;505;Uusimaa;1
4840;Hautjärvi;Mäntsälä;505;Uusimaa;1
4920;Saarentaus;Mäntsälä;505;Uusimaa;1
4940;Levanto;Mäntsälä;505;Uusimaa;1
5100;Röykkä;Nurmijärvi;543;Uusimaa;1
5200;Rajamäki;Nurmijärvi;543;Uusimaa;1
5250;Kiljava;Nurmijärvi;543;Uusimaa;1
5400;Jokela;Tuusula;858;Uusimaa;1
5430;Nuppulinna;Tuusula;858;Uusimaa;1
5440;Hyvinkää;Hyvinkää;106;Uusimaa;1
5450;Nukari;Nurmijärvi;543;Uusimaa;1
5460;Hakalanmäki-Hakala;Hyvinkää;106;Uusimaa;1
5470;Palopuro;Hyvinkää;106;Uusimaa;1
5510;Päivärinta;Hyvinkää;106;Uusimaa;1
5620;Noppo;Hyvinkää;106;Uusimaa;1
5720;Kytäjä;Hyvinkää;106;Uusimaa;1
5800;Hyvinkää Keskus;Hyvinkää;106;Uusimaa;1
5810;Martti;Hyvinkää;106;Uusimaa;1
5820;Mustamännistö;Hyvinkää;106;Uusimaa;1
5830;Kirjavatolppa-Kruununpuisto;Hyvinkää;106;Uusimaa;1
5840;Hyvinkäänkylä-Vehkoja;Hyvinkää;106;Uusimaa;1
5850;Hyvinkää, sairaala-alue;Hyvinkää;106;Uusimaa;1
5860;Talvisilta;Hyvinkää;106;Uusimaa;1
5880;Paavola-Vaivero;Hyvinkää;106;Uusimaa;1
5900;Vieremä;Hyvinkää;106;Uusimaa;1
5950;Ridasjärvi;Hyvinkää;106;Uusimaa;1
6100;Porvoo Keskus;Porvoo;638;Uusimaa;1
6150;Kevätkumpu;Porvoo;638;Uusimaa;1
6200;Porvoo itäinen;Porvoo;638;Uusimaa;1
6400;Gammelbacka;Porvoo;638;Uusimaa;1
6450;Eestinmäki-Ernestas;Porvoo;638;Uusimaa;1
6500;Saksala-Suomenkylä;Porvoo;638;Uusimaa;1
6530;Kerkkoo;Porvoo;638;Uusimaa;1
6650;Hamari;Porvoo;638;Uusimaa;1
6750;Tolkkinen;Porvoo;638;Uusimaa;1
6830;Kulloonkylä;Porvoo;638;Uusimaa;1
6850;Kulloo;Porvoo;638;Uusimaa;1
6880;Kärrby;Sipoo;753;Uusimaa;1
6950;Emäsalo;Porvoo;638;Uusimaa;1
7110;Hinthaara;Porvoo;638;Uusimaa;1
7130;Anttila;Porvoo;638;Uusimaa;1
7150;Laukkoski;Pornainen;611;Uusimaa;1
7170;Keski-Pornainen;Pornainen;611;Uusimaa;1
7190;Halkia;Pornainen;611;Uusimaa;1
7220;Kaarenkylä;Porvoo;638;Uusimaa;1
7230;Askola;Askola;18;Uusimaa;1
7280;Ilola;Porvoo;638;Uusimaa;1
7310;Sannainen;Porvoo;638;Uusimaa;1
7320;Jakari-Sannäs;Porvoo;638;Uusimaa;1
7350;Gäddrag;Porvoo;638;Uusimaa;1
7360;Tirmo;Porvoo;638;Uusimaa;1
7370;Pellinki;Porvoo;638;Uusimaa;1
7390;Suurpellinki;Porvoo;638;Uusimaa;1
7410;Kråkö;Porvoo;638;Uusimaa;1
7450;Voolahti;Porvoo;638;Uusimaa;1
7500;Askola Kirkonkylä;Askola;18;Uusimaa;1
7510;Askola;Askola;18;Uusimaa;1
7530;Askola;Askola;18;Uusimaa;1
7550;Torpinkylä;Pukkila;616;Uusimaa;1
7560;Pukkila Keskus;Pukkila;616;Uusimaa;1
7565;Kantele;Pukkila;616;Uusimaa;1
7580;Askola;Askola;18;Uusimaa;1
7590;Askola;Askola;18;Uusimaa;1
7600;Myrskylä Keskus;Myrskylä;504;Uusimaa;1
7680;Askola;Askola;18;Uusimaa;1
7690;Kankkila;Myrskylä;504;Uusimaa;1
7700;Koskenkylän saha-alue;Loviisa;434;Uusimaa;1
7720;Malmgård;Loviisa;434;Uusimaa;1
7740;Gammelby;Loviisa;434;Uusimaa;1
7750;Isnäs;Loviisa;434;Uusimaa;1
7780;Härkäpää;Loviisa;434;Uusimaa;1
7800;Lapinjärvi Keskus;Lapinjärvi;407;Uusimaa;1
7810;Ingermaninkylä;Lapinjärvi;407;Uusimaa;1
7820;Porlammi;Lapinjärvi;407;Uusimaa;1
7830;Pukaro;Lapinjärvi;407;Uusimaa;1
7840;Lindkoski;Lapinjärvi;407;Uusimaa;1
7850;Heikinkylä;Lapinjärvi;407;Uusimaa;1
7870;Skinnarby;Loviisa;434;Uusimaa;1
7880;Liljendal Keskus;Loviisa;434;Uusimaa;1
7890;Mickelspiltom;Loviisa;434;Uusimaa;1
7900;Loviisa Keskus;Loviisa;434;Uusimaa;1
7910;Valko;Loviisa;434;Uusimaa;1
7920;Etelä-Harju;Loviisa;434;Uusimaa;1
7930;Pernaja Kirkonkylä;Loviisa;434;Uusimaa;1
7940;Määrlahti;Loviisa;434;Uusimaa;1
7945;Kuggom;Loviisa;434;Uusimaa;1
7955;Tesjoki;Loviisa;434;Uusimaa;1
7960;Ahvenkoski;Loviisa;434;Uusimaa;1
7970;Ruotsinpyhtää Keskus;Loviisa;434;Uusimaa;1
7980;Kuninkaankylä;Loviisa;434;Uusimaa;1
7990;Ruotsinkylä-Koskisto;Loviisa;434;Uusimaa;1
8100;Lohja Keskus;Lohja;444;Uusimaa;1
8150;Keskilohja;Lohja;444;Uusimaa;1
8200;Ojamo;Lohja;444;Uusimaa;1
8350;Routio;Lohja;444;Uusimaa;1
8360;Kisakallio;Lohja;444;Uusimaa;1
8450;Hormajärvi;Lohja;444;Uusimaa;1
8480;Karstu;Lohja;444;Uusimaa;1
8500;Ventelä-Millola;Lohja;444;Uusimaa;1
8680;Muijala;Lohja;444;Uusimaa;1
8700;Virkkala;Lohja;444;Uusimaa;1
8800;Kirkniemi;Lohja;444;Uusimaa;1
9120;Karjalohja;Lohja;444;Uusimaa;1
9220;Sammatti;Lohja;444;Uusimaa;1
9430;Saukkola;Lohja;444;Uusimaa;1
9520;Millola;Lohja;444;Uusimaa;1
9630;Koisjärvi;Lohja;444;Uusimaa;1
9810;Nummi-Oinola;Lohja;444;Uusimaa;1
9930;Leppäkorpi;Lohja;444;Uusimaa;1
10120;Tähtelä;Inkoo;149;Uusimaa;1
10140;Päivölä;Inkoo;149;Uusimaa;1
10160;Degerby;Inkoo;149;Uusimaa;1
10210;Inkoo Keskus;Inkoo;149;Uusimaa;1
10230;Inkoo Asemanseutu;Inkoo;149;Uusimaa;1
10250;Fagervik;Inkoo;149;Uusimaa;1
10270;Barösund;Inkoo;149;Uusimaa;1
10300;Karjaa Keskus;Raasepori;710;Uusimaa;1
10320;Bäljars;Raasepori;710;Uusimaa;1
10330;Pinjainen;Raasepori;710;Uusimaa;1
10350;Meltolan sairaala-alue;Raasepori;710;Uusimaa;1
10360;Mustio;Raasepori;710;Uusimaa;1
10380;Kaunislahti;Raasepori;710;Uusimaa;1
10410;Åminnefors;Raasepori;710;Uusimaa;1
10420;Pohjankuru;Raasepori;710;Uusimaa;1
10440;Bollsta;Raasepori;710;Uusimaa;1
10470;Fiskari;Raasepori;710;Uusimaa;1
10480;Antskog;Raasepori;710;Uusimaa;1
10520;Tenhola Kirkonkylä;Raasepori;710;Uusimaa;1
10570;Bromarv;Raasepori;710;Uusimaa;1
10600;Tammisaari Keskus;Raasepori;710;Uusimaa;1
10620;Tammisaari;Raasepori;710;Uusimaa;1
10640;Dragsvik;Raasepori;710;Uusimaa;1
10650;Flyet;Raasepori;710;Uusimaa;1
10660;Trollböle;Raasepori;710;Uusimaa;1
10680;Skogby;Raasepori;710;Uusimaa;1
10710;Snappertuna;Raasepori;710;Uusimaa;1
10820;Lappohja;Hanko;78;Uusimaa;1
10900;Hanko Keskus;Hanko;78;Uusimaa;1
10940;Hangonkylä;Hanko;78;Uusimaa;1
10960;Hanko Pohjoinen;Hanko;78;Uusimaa;1
11100;Riihimäki Keskus;Riihimäki;694;Kanta-Häme;5
11120;Pohjois-Riihimäki;Riihimäki;694;Kanta-Häme;5
11130;Peltosaari-Patastenmäki;Riihimäki;694;Kanta-Häme;5
11310;Taka-Kasarmi;Riihimäki;694;Kanta-Häme;5
11710;Herajoki;Riihimäki;694;Kanta-Häme;5
11910;Lasi-Kumela;Janakkala;165;Kanta-Häme;5
12100;Oitti;Hausjärvi;86;Kanta-Häme;5
12130;Mommila;Hausjärvi;86;Kanta-Häme;5
12170;Hietoinen;Hausjärvi;86;Kanta-Häme;5
12210;Hausjärvi kk;Hausjärvi;86;Kanta-Häme;5
12240;Hikiä;Hausjärvi;86;Kanta-Häme;5
12310;Ryttylä;Hausjärvi;86;Kanta-Häme;5
12350;Turkhauta;Hausjärvi;86;Kanta-Häme;5
12380;Leppäkoski;Janakkala;165;Kanta-Häme;5
12400;Tervakoski;Janakkala;165;Kanta-Häme;5
12450;Vähikkälä;Janakkala;165;Kanta-Häme;5
12520;Kormu;Loppi;433;Kanta-Häme;5
12540;Launonen;Loppi;433;Kanta-Häme;5
12600;Läyliäinen;Loppi;433;Kanta-Häme;5
12630;Sajaniemi;Loppi;433;Kanta-Häme;5
12640;Joentaka;Loppi;433;Kanta-Häme;5
12700;Loppi kk;Loppi;433;Kanta-Häme;5
12750;Pilpala;Loppi;433;Kanta-Häme;5
12820;Räyskälä;Loppi;433;Kanta-Häme;5
12920;Topeno;Loppi;433;Kanta-Häme;5
12950;Vojakkala-Eerolankulma;Loppi;433;Kanta-Häme;5
13100;Hämeenlinna Keskus;Hämeenlinna;109;Kanta-Häme;5
13110;Kantola;Hämeenlinna;109;Kanta-Häme;5
13130;Kauriala;Hämeenlinna;109;Kanta-Häme;5
13200;Keinusaari;Hämeenlinna;109;Kanta-Häme;5
13210;Hätilä;Hämeenlinna;109;Kanta-Häme;5
13220;Sairio;Hämeenlinna;109;Kanta-Häme;5
13250;Katuma;Hämeenlinna;109;Kanta-Häme;5
13270;Ruununmylly;Hämeenlinna;109;Kanta-Häme;5
13300;Käikälä;Hämeenlinna;109;Kanta-Häme;5
13330;Harviala;Janakkala;165;Kanta-Häme;5
13430;Hattelmala;Hämeenlinna;109;Kanta-Häme;5
13500;Jukola;Hämeenlinna;109;Kanta-Häme;5
13530;Hämeenlinna sairaala-alue;Hämeenlinna;109;Kanta-Häme;5
13600;Ojoinen;Hämeenlinna;109;Kanta-Häme;5
13700;Parolannummi;Hattula;82;Kanta-Häme;5
13720;Parola;Hattula;82;Kanta-Häme;5
13800;Katinala;Hattula;82;Kanta-Häme;5
13880;Rahkoila;Hattula;82;Kanta-Häme;5
13900;Pekola;Hattula;82;Kanta-Häme;5
14140;Jokimaa;Janakkala;165;Kanta-Häme;5
14200;Turenki;Janakkala;165;Kanta-Häme;5
14240;Väli-Janakkala;Janakkala;165;Kanta-Häme;5
14300;Renko kk;Hämeenlinna;109;Kanta-Häme;5
14430;Vuohiniemi;Hattula;82;Kanta-Häme;5
14450;Rimmilä;Hämeenlinna;109;Kanta-Häme;5
14500;Iittala;Hämeenlinna;109;Kanta-Häme;5
14530;Leteensuo;Hattula;82;Kanta-Häme;5
14610;Lepaa;Hattula;82;Kanta-Häme;5
14620;Tyrväntö;Hattula;82;Kanta-Häme;5
14680;Alvettula;Hämeenlinna;109;Kanta-Häme;5
14690;Torvoila;Hämeenlinna;109;Kanta-Häme;5
14700;Hauho kk;Hämeenlinna;109;Kanta-Häme;5
14770;Eteläinen;Hämeenlinna;109;Kanta-Häme;5
14810;Pohjoinen;Hämeenlinna;109;Kanta-Häme;5
14820;Syrjäntaka;Hämeenlinna;109;Kanta-Häme;5
14840;Sairiala;Hämeenlinna;109;Kanta-Häme;5
14870;Juttila;Hämeenlinna;109;Kanta-Häme;5
14930;Sappee;Hämeenlinna;109;Kanta-Häme;5
14960;Puutikkala;Pälkäne;635;Pirkanmaa;6
14980;Kuohijoki;Pälkäne;635;Pirkanmaa;6
15100;Lahti Asemanseutu;Lahti;398;Päijät-Häme;7
15110;Keski-Lahti;Lahti;398;Päijät-Häme;7
15140;Kartano-Paavola;Lahti;398;Päijät-Häme;7
15150;Möysä;Lahti;398;Päijät-Häme;7
15160;Kolava;Lahti;398;Päijät-Häme;7
15170;Tenava-Tonttila;Lahti;398;Päijät-Häme;7
15200;Kiveriö;Lahti;398;Päijät-Häme;7
15210;Kivistönmäki;Lahti;398;Päijät-Häme;7
15230;Kytölä;Lahti;398;Päijät-Häme;7
15240;Mukkula;Lahti;398;Päijät-Häme;7
15270;Kukkila;Hollola;98;Päijät-Häme;7
15300;Myllypohja-Koiskala;Lahti;398;Päijät-Häme;7
15320;Ahtiala;Lahti;398;Päijät-Häme;7
15340;Kunnas-Hiekkanummi;Lahti;398;Päijät-Häme;7
15460;Mäkelä;Lahti;398;Päijät-Häme;7
15500;Liipola;Lahti;398;Päijät-Häme;7
15520;Saksala;Lahti;398;Päijät-Häme;7
15540;Villähde;Lahti;398;Päijät-Häme;7
15550;Rakokivi;Lahti;398;Päijät-Häme;7
15560;Nastola kk;Lahti;398;Päijät-Häme;7
15580;Ruuhijärvi;Lahti;398;Päijät-Häme;7
15610;Laune-Nikkilä;Lahti;398;Päijät-Häme;7
15680;Renkomäki-Ämmälä;Lahti;398;Päijät-Häme;7
15700;Hennala-Jokimaa;Hollola;98;Päijät-Häme;7
15800;Kärpänen;Lahti;398;Päijät-Häme;7
15810;Kasakkamäki;Lahti;398;Päijät-Häme;7
15820;Okeroinen;Hollola;98;Päijät-Häme;7
15830;Metsäkangas;Lahti;398;Päijät-Häme;7
15840;Riihelä;Lahti;398;Päijät-Häme;7
15850;Likolampi;Lahti;398;Päijät-Häme;7
15860;Kartano;Hollola;98;Päijät-Häme;7
15870;Salpakangas;Hollola;98;Päijät-Häme;7
15880;Soramäki;Hollola;98;Päijät-Häme;7
15900;Jalkaranta;Lahti;398;Päijät-Häme;7
15950;Kiikkula;Lahti;398;Päijät-Häme;7
15980;Messilä;Hollola;98;Päijät-Häme;7
16100;Uusikylä;Lahti;398;Päijät-Häme;7
16160;Okkeri;Lahti;398;Päijät-Häme;7
16200;Artjärvi Keskus;Orimattila;560;Päijät-Häme;7
16230;Artjärvi Kirkonkylä;Orimattila;560;Päijät-Häme;7
16260;Hietana;Orimattila;560;Päijät-Häme;7
16270;Villikkala;Orimattila;560;Päijät-Häme;7
16280;Kuivanto;Orimattila;560;Päijät-Häme;7
16300;Orimattila Keskus;Orimattila;560;Päijät-Häme;7
16310;Virenoja;Orimattila;560;Päijät-Häme;7
16320;Pennala;Orimattila;560;Päijät-Häme;7
16330;Heinämaa;Orimattila;560;Päijät-Häme;7
16350;Niinikoski;Orimattila;560;Päijät-Häme;7
16390;Pakaa;Orimattila;560;Päijät-Häme;7
16450;Mallusjoki;Orimattila;560;Päijät-Häme;7
16500;Herrala;Hollola;98;Päijät-Häme;7
16510;Luhtikylä;Orimattila;560;Päijät-Häme;7
16540;Mertie;Kärkölä;316;Päijät-Häme;7
16600;Järvelä;Kärkölä;316;Päijät-Häme;7
16610;Kärkölä kk;Kärkölä;316;Päijät-Häme;7
16630;Tennilä;Hollola;98;Päijät-Häme;7
16670;Lappila;Kärkölä;316;Päijät-Häme;7
16710;Hollola kk;Hollola;98;Päijät-Häme;7
16730;Kutajärvi;Hollola;98;Päijät-Häme;7
16790;Manskivi;Hollola;98;Päijät-Häme;7
16800;Hämeenkoski;Hollola;98;Päijät-Häme;7
16900;Lammi kk;Hämeenlinna;109;Kanta-Häme;5
16960;Iso-Evo;Hämeenlinna;109;Kanta-Häme;5
16970;Evo;Hämeenlinna;109;Kanta-Häme;5
17110;Sipilä;Hollola;98;Päijät-Häme;7
17120;Paimela;Hollola;98;Päijät-Häme;7
17130;Vesivehmaa;Asikkala;16;Päijät-Häme;7
17150;Urajärvi;Asikkala;16;Päijät-Häme;7
17200;Vääksy Keskus;Asikkala;16;Päijät-Häme;7
17220;Pietilä;Asikkala;16;Päijät-Häme;7
17240;Kalkkinen;Asikkala;16;Päijät-Häme;7
17320;Asikkala;Asikkala;16;Päijät-Häme;7
17410;Viitaila;Asikkala;16;Päijät-Häme;7
17430;Kurhila;Asikkala;16;Päijät-Häme;7
17440;Vähimaa;Asikkala;16;Päijät-Häme;7
17450;Iso-Äiniö-Vähimaa;Asikkala;16;Päijät-Häme;7
17470;Maakeski;Padasjoki;576;Päijät-Häme;7
17500;Padasjoki Keskus;Padasjoki;576;Päijät-Häme;7
17510;Nyystölä;Padasjoki;576;Päijät-Häme;7
17530;Arrakoski;Padasjoki;576;Päijät-Häme;7
17610;Auttoinen;Padasjoki;576;Päijät-Häme;7
17630;Vesijako;Padasjoki;576;Päijät-Häme;7
17710;Torittu;Padasjoki;576;Päijät-Häme;7
17740;Kasiniemi-Torittu;Padasjoki;576;Päijät-Häme;7
17780;Harmoinen;Kuhmoinen;291;Keski-Suomi;13
17800;Kuhmoinen Keskus;Kuhmoinen;291;Keski-Suomi;13
17840;Harjunsalmi;Kuhmoinen;291;Keski-Suomi;13
17850;Pihlajakoski;Kuhmoinen;291;Keski-Suomi;13
17870;Ruolahti;Kuhmoinen;291;Keski-Suomi;13
17930;Päijälä;Kuhmoinen;291;Keski-Suomi;13
17950;Kylämä;Kuhmoinen;291;Keski-Suomi;13
17970;Puukkoinen;Kuhmoinen;291;Keski-Suomi;13
18100;Heinola Keskus;Heinola;111;Päijät-Häme;7
18120;Reumasairaala-alue;Heinola;111;Päijät-Häme;7
18130;Tommola-Sahanniemi;Heinola;111;Päijät-Häme;7
18150;Jyränkö;Heinola;111;Päijät-Häme;7
18200;Kaakonlampi-Pyhätön;Heinola;111;Päijät-Häme;7
18300;Heinola kk;Heinola;111;Päijät-Häme;7
18600;Myllyoja;Heinola;111;Päijät-Häme;7
19110;Vierumäki taajama;Heinola;111;Päijät-Häme;7
19120;Vierumäki urheiluopisto;Heinola;111;Päijät-Häme;7
19160;Huutotöyry;Iitti;142;Kymenlaakso;8
19210;Lusi;Heinola;111;Päijät-Häme;7
19230;Onkiniemi;Sysmä;781;Päijät-Häme;7
19250;Syrjäkoski;Heinola;111;Päijät-Häme;7
19260;Paaso-Syrjäkoski;Heinola;111;Päijät-Häme;7
19310;Karilanmaa;Sysmä;781;Päijät-Häme;7
19320;Nikkaroinen;Sysmä;781;Päijät-Häme;7
19370;Nuoramoinen;Sysmä;781;Päijät-Häme;7
19410;Kuortti;Pertunmaa;588;Etelä-Savo;10
19420;Mansikkamäki;Pertunmaa;588;Etelä-Savo;10
19430;Pertunmaa Keskus;Pertunmaa;588;Etelä-Savo;10
19460;Ruorasmäki;Pertunmaa;588;Etelä-Savo;10
19470;Lihavanpää-Hartosenpää;Pertunmaa;588;Etelä-Savo;10
19480;Hartosenpää;Pertunmaa;588;Etelä-Savo;10
19510;Lepsala;Hartola;81;Päijät-Häme;7
19540;Koitti-Lepsala;Hartola;81;Päijät-Häme;7
19600;Hartola Keskus;Hartola;81;Päijät-Häme;7
19610;Murakka;Hartola;81;Päijät-Häme;7
19620;Pohela;Hartola;81;Päijät-Häme;7
19630;Kalhonkylä;Hartola;81;Päijät-Häme;7
19650;Joutsa Keskus;Joutsa;172;Keski-Suomi;13
19670;Mieskonmäki;Joutsa;172;Keski-Suomi;13
19700;Sysmä Keskus;Sysmä;781;Päijät-Häme;7
19730;Särkilampi;Sysmä;781;Päijät-Häme;7
19740;Liikola;Sysmä;781;Päijät-Häme;7
19770;Valittula;Sysmä;781;Päijät-Häme;7
19850;Putkijärvi-Siltasuo;Hartola;81;Päijät-Häme;7
19910;Tammijärvi;Luhanka;435;Keski-Suomi;13
19920;Pappinen;Joutsa;172;Keski-Suomi;13
19950;Luhanka;Luhanka;435;Keski-Suomi;13
20100;Turku Keskus;Turku;853;Varsinais-Suomi;2
20200;Iso-Heikkilä;Turku;853;Varsinais-Suomi;2
20210;Pahaniemi;Turku;853;Varsinais-Suomi;2
20240;Pansio-Perno;Turku;853;Varsinais-Suomi;2
20250;Pitkämäki-Muhkuri;Turku;853;Varsinais-Suomi;2
20300;Pohjola-Kastu;Turku;853;Varsinais-Suomi;2
20320;Kuninkoja-Mälikkälä;Turku;853;Varsinais-Suomi;2
20360;Kärsämäki-Urusvuori-Halinen;Turku;853;Varsinais-Suomi;2
20380;Räntämäki-Saramäki;Turku;853;Varsinais-Suomi;2
20400;Moisio;Turku;853;Varsinais-Suomi;2
20460;Jäkärlä;Turku;853;Varsinais-Suomi;2
20500;Vesilinna;Turku;853;Varsinais-Suomi;2
20520;Kupittaa;Turku;853;Varsinais-Suomi;2
20540;Nummi-Ylioppilaskylä;Turku;853;Varsinais-Suomi;2
20610;Varissuo;Turku;853;Varsinais-Suomi;2
20660;Littoinen;Kaarina;202;Varsinais-Suomi;2
20700;Vartiovuori-Samppalinna;Turku;853;Varsinais-Suomi;2
20720;Vasaramäki;Turku;853;Varsinais-Suomi;2
20730;Skanssi;Turku;853;Varsinais-Suomi;2
20740;Ilpoinen-Harittu;Turku;853;Varsinais-Suomi;2
20750;Huhkola-Lauste-Vaala;Turku;853;Varsinais-Suomi;2
20760;Piispanristi;Kaarina;202;Varsinais-Suomi;2
20780;Kaarina Keskus;Kaarina;202;Varsinais-Suomi;2
20800;Ammattikorkeakoulu;Turku;853;Varsinais-Suomi;2
20810;Martti-Korppolaismäki;Turku;853;Varsinais-Suomi;2
20880;Uittamo;Turku;853;Varsinais-Suomi;2
20900;Moikoinen-Pikisaari;Turku;853;Varsinais-Suomi;2
20960;Kakskerta;Turku;853;Varsinais-Suomi;2
21100;Naantali Keskus;Naantali;529;Varsinais-Suomi;2
21110;Taimo-Nuhjala-Lietsala;Naantali;529;Varsinais-Suomi;2
21120;Viherjäinen;Raisio;680;Varsinais-Suomi;2
21130;Poikko;Naantali;529;Varsinais-Suomi;2
21140;Rymättylä Keskus;Naantali;529;Varsinais-Suomi;2
21150;Röölä;Naantali;529;Varsinais-Suomi;2
21160;Merimasku;Naantali;529;Varsinais-Suomi;2
21180;Livonsaari;Naantali;529;Varsinais-Suomi;2
21195;Velkua;Naantali;529;Varsinais-Suomi;2
21200;Raisio Keskus;Raisio;680;Varsinais-Suomi;2
21210;Hakinmäki;Raisio;680;Varsinais-Suomi;2
21220;Somersoja;Raisio;680;Varsinais-Suomi;2
21230;Lemu;Masku;481;Varsinais-Suomi;2
21240;Askainen Keskus;Masku;481;Varsinais-Suomi;2
21250;Masku;Masku;481;Varsinais-Suomi;2
21260;Ihala;Raisio;680;Varsinais-Suomi;2
21270;Nousiainen;Nousiainen;538;Varsinais-Suomi;2
21280;Kuloinen;Raisio;680;Varsinais-Suomi;2
21290;Rusko;Rusko;704;Varsinais-Suomi;2
21310;Vahto;Rusko;704;Varsinais-Suomi;2
21330;Paattinen;Turku;853;Varsinais-Suomi;2
21340;Tortinmäki;Turku;853;Varsinais-Suomi;2
21350;Ilmarinen;Lieto;423;Varsinais-Suomi;2
21360;Lieto Asemanseutu;Lieto;423;Varsinais-Suomi;2
21370;Aura kk.;Aura;19;Varsinais-Suomi;2
21380;Aura Keskus;Aura;19;Varsinais-Suomi;2
21410;Vanhalinna;Lieto;423;Varsinais-Suomi;2
21420;Lieto Keskus;Lieto;423;Varsinais-Suomi;2
21430;Yliskulma;Lieto;423;Varsinais-Suomi;2
21450;Tarvasjoki Keskus;Lieto;423;Varsinais-Suomi;2
21480;Prunkila;Marttila;480;Varsinais-Suomi;2
21490;Marttila;Marttila;480;Varsinais-Suomi;2
21500;Piikkiö;Kaarina;202;Varsinais-Suomi;2
21510;Hevonpää;Paimio;577;Varsinais-Suomi;2
21520;Naskarla;Paimio;577;Varsinais-Suomi;2
21530;Paimio Keskus;Paimio;577;Varsinais-Suomi;2
21540;Preitilä;Paimio;577;Varsinais-Suomi;2
21555;Taatila;Paimio;577;Varsinais-Suomi;2
21560;Ollila;Marttila;480;Varsinais-Suomi;2
21570;Sauvo Keskus;Sauvo;738;Varsinais-Suomi;2
21590;Karuna;Sauvo;738;Varsinais-Suomi;2
21600;Parainen Keskus;Parainen;445;Varsinais-Suomi;2
21610;Kirjala;Parainen;445;Varsinais-Suomi;2
21620;Kuusisto;Kaarina;202;Varsinais-Suomi;2
21630;Lielahti;Parainen;445;Varsinais-Suomi;2
21650;Lillandet;Parainen;445;Varsinais-Suomi;2
21660;Nauvo Keskus;Parainen;445;Varsinais-Suomi;2
21670;Mattnäs-Nötö;Parainen;445;Varsinais-Suomi;2
21680;Nötö;Parainen;445;Varsinais-Suomi;2
21710;Korppoo Keskus-Utö;Parainen;445;Varsinais-Suomi;2
21720;Korpoström;Parainen;445;Varsinais-Suomi;2
21740;Utö;Parainen;445;Varsinais-Suomi;2
21750;Norrskata;Parainen;445;Varsinais-Suomi;2
21760;Houtskär Keskus;Parainen;445;Varsinais-Suomi;2
21770;Mossala;Parainen;445;Varsinais-Suomi;2
21800;Kyrö;Pöytyä;636;Varsinais-Suomi;2
21820;Kumila;Pöytyä;636;Varsinais-Suomi;2
21840;Karinainen;Pöytyä;636;Varsinais-Suomi;2
21860;Auvainen;Pöytyä;636;Varsinais-Suomi;2
21870;Riihikoski;Pöytyä;636;Varsinais-Suomi;2
21880;Pöytyä;Pöytyä;636;Varsinais-Suomi;2
21890;Haveri;Pöytyä;636;Varsinais-Suomi;2
21900;Yläne Keskus;Pöytyä;636;Varsinais-Suomi;2
21930;Uusikartano;Pöytyä;636;Varsinais-Suomi;2
22100;Maarianhamina;Maarianhamina;478;Ahvenanmaa;21
22120;Möckelö;Jomala;170;Ahvenanmaa;21
22130;Gottby;Jomala;170;Ahvenanmaa;21
22140;Önningby;Jomala;170;Ahvenanmaa;21
22150;Jomala Centrum;Jomala;170;Ahvenanmaa;21
22160;Järsö;Lemland;417;Ahvenanmaa;21
22220;Emkarby;Finström;60;Ahvenanmaa;21
22240;Hammarland;Hammarland;76;Ahvenanmaa;21
22270;Storby;Eckerö;43;Ahvenanmaa;21
22310;Pålsböle;Finström;60;Ahvenanmaa;21
22320;Ödkarby;Saltvik;736;Ahvenanmaa;21
22330;Tjudö;Finström;60;Ahvenanmaa;21
22340;Geta;Geta;65;Ahvenanmaa;21
22410;Godby;Finström;60;Ahvenanmaa;21
22430;Saltvik;Saltvik;736;Ahvenanmaa;21
22520;Tosarby;Sund;771;Ahvenanmaa;21
22530;Sund;Sund;771;Ahvenanmaa;21
22550;Vårdö;Vårdö;941;Ahvenanmaa;21
22610;Lemland;Lemland;417;Ahvenanmaa;21
22630;Lumparland;Lumparland;438;Ahvenanmaa;21
22710;Ålands Degerby;Föglö;62;Ahvenanmaa;21
22720;Sottunga;Sottunga;766;Ahvenanmaa;21
22730;Kökar;Kökar;318;Ahvenanmaa;21
22810;Seglinge;Kumlinge;295;Ahvenanmaa;21
22820;Kumlinge;Kumlinge;295;Ahvenanmaa;21
22830;Enklinge;Kumlinge;295;Ahvenanmaa;21
22840;Lappo;Brändö;35;Ahvenanmaa;21
22910;Torsholma;Brändö;35;Ahvenanmaa;21
22920;Brändö-Åland;Brändö;35;Ahvenanmaa;21
22930;Fiskö;Brändö;35;Ahvenanmaa;21
22940;Åva;Brändö;35;Ahvenanmaa;21
22950;Jurmo;Brändö;35;Ahvenanmaa;21
23100;Mynämäki Keskus;Mynämäki;503;Varsinais-Suomi;2
23120;Mietoinen Keskus;Mynämäki;503;Varsinais-Suomi;2
23140;Hietamäki;Mynämäki;503;Varsinais-Suomi;2
23200;Vinkkilä;Vehmaa;918;Varsinais-Suomi;2
23210;Vehmaa;Vehmaa;918;Varsinais-Suomi;2
23260;Rautila;Vehmaa;918;Varsinais-Suomi;2
23310;Taivassalo;Taivassalo;833;Varsinais-Suomi;2
23360;Kustavi;Kustavi;304;Varsinais-Suomi;2
23390;Iniö;Parainen;445;Varsinais-Suomi;2
23450;Lokalahti;Uusikaupunki;895;Varsinais-Suomi;2
23500;Uusikaupunki Keskus;Uusikaupunki;895;Varsinais-Suomi;2
23600;Kalanti Keskus;Uusikaupunki;895;Varsinais-Suomi;2
23660;Kalanti Asemanseutu;Uusikaupunki;895;Varsinais-Suomi;2
23800;Laitila Keskus;Laitila;400;Varsinais-Suomi;2
23840;Soukainen;Laitila;400;Varsinais-Suomi;2
23880;Suontaka;Laitila;400;Varsinais-Suomi;2
23930;Pyhämaa;Uusikaupunki;895;Varsinais-Suomi;2
23950;Pyhäranta;Pyhäranta;631;Varsinais-Suomi;2
23960;Santtio;Pyhäranta;631;Varsinais-Suomi;2
24100;Salo Keskus;Salo;734;Varsinais-Suomi;2
24130;Ylhäisi;Salo;734;Varsinais-Suomi;2
24240;Rappula;Salo;734;Varsinais-Suomi;2
24260;Ollikkala;Salo;734;Varsinais-Suomi;2
24280;Tupuri-Hähkänä;Salo;734;Varsinais-Suomi;2
24800;Halikko Keskus;Salo;734;Varsinais-Suomi;2
24910;Halikko Asemanseutu;Salo;734;Varsinais-Suomi;2
25110;Kruusila;Salo;734;Varsinais-Suomi;2
25130;Muurla;Salo;734;Varsinais-Suomi;2
25160;Tuohittu;Salo;734;Varsinais-Suomi;2
25170;Kotalato;Salo;734;Varsinais-Suomi;2
25180;Romsila;Salo;734;Varsinais-Suomi;2
25190;Inkere;Salo;734;Varsinais-Suomi;2
25210;Vartsala;Salo;734;Varsinais-Suomi;2
25230;Angelniemi;Salo;734;Varsinais-Suomi;2
25240;Hajala;Salo;734;Varsinais-Suomi;2
25250;Märynummi;Salo;734;Varsinais-Suomi;2
25260;Vaskio;Salo;734;Varsinais-Suomi;2
25320;Raatala;Salo;734;Varsinais-Suomi;2
25330;Kuusjoki Keskus;Salo;734;Varsinais-Suomi;2
25340;Kanunki;Salo;734;Varsinais-Suomi;2
25360;Pertteli Keskus;Salo;734;Varsinais-Suomi;2
25370;Hiisi;Salo;734;Varsinais-Suomi;2
25380;Rekijoki;Salo;734;Varsinais-Suomi;2
25390;Kiikala Keskus;Salo;734;Varsinais-Suomi;2
25410;Suomusjärvi Keskus;Salo;734;Varsinais-Suomi;2
25420;Lahnajärvi;Salo;734;Varsinais-Suomi;2
25430;Kettula;Salo;734;Varsinais-Suomi;2
25460;Toija;Salo;734;Varsinais-Suomi;2
25470;Kisko kk;Salo;734;Varsinais-Suomi;2
25500;Perniö Keskus;Salo;734;Varsinais-Suomi;2
25520;Perniö Asemanseutu;Salo;734;Varsinais-Suomi;2
25540;Knaapila;Salo;734;Varsinais-Suomi;2
25550;Aijala;Salo;734;Varsinais-Suomi;2
25560;Koski Asemanseutu;Salo;734;Varsinais-Suomi;2
25570;Teijo-Mathildedal;Salo;734;Varsinais-Suomi;2
25610;Ylönkylä;Salo;734;Varsinais-Suomi;2
25630;Finby;Salo;734;Varsinais-Suomi;2
25640;Förby;Salo;734;Varsinais-Suomi;2
25650;Strömma;Kemiönsaari;322;Varsinais-Suomi;2
25660;Mathildedal;Salo;734;Varsinais-Suomi;2
25700;Kemiö Keskus;Kemiönsaari;322;Varsinais-Suomi;2
25710;Vreta-Vestlax;Kemiönsaari;322;Varsinais-Suomi;2
25730;Mjösund;Kemiönsaari;322;Varsinais-Suomi;2
25760;Kiila;Kemiönsaari;322;Varsinais-Suomi;2
25810;Mark;Kemiönsaari;322;Varsinais-Suomi;2
25820;Vestlax;Kemiönsaari;322;Varsinais-Suomi;2
25830;Västanfjärd Keskus;Kemiönsaari;322;Varsinais-Suomi;2
25840;Nivelax;Kemiönsaari;322;Varsinais-Suomi;2
25860;Björkboda;Kemiönsaari;322;Varsinais-Suomi;2
25870;Dragsfjärd;Kemiönsaari;322;Varsinais-Suomi;2
25900;Taalintehdas;Kemiönsaari;322;Varsinais-Suomi;2
25910;Vänoxa;Kemiönsaari;322;Varsinais-Suomi;2
25930;Kasnäs;Kemiönsaari;322;Varsinais-Suomi;2
25940;Hiittinen;Kemiönsaari;322;Varsinais-Suomi;2
25950;Rosala-Kasnäs-Hitis;Kemiönsaari;322;Varsinais-Suomi;2
25960;Högsåra;Kemiönsaari;322;Varsinais-Suomi;2
26100;Rauma Keskus;Rauma;684;Satakunta;4
26200;Merirauma-Kappelinluhta;Rauma;684;Satakunta;4
26410;Kaaro;Rauma;684;Satakunta;4
26510;Uotila;Rauma;684;Satakunta;4
26560;Kolla;Rauma;684;Satakunta;4
26660;Paroalho;Rauma;684;Satakunta;4
26720;Monnanummi;Rauma;684;Satakunta;4
26740;Vasarainen;Rauma;684;Satakunta;4
26820;Sampaanala;Rauma;684;Satakunta;4
26840;Kortela;Rauma;684;Satakunta;4
26910;Unaja;Rauma;684;Satakunta;4
26930;Vermuntila;Rauma;684;Satakunta;4
26950;Voiluoto;Rauma;684;Satakunta;4
27100;Eurajoki Keskus;Eurajoki;51;Satakunta;4
27110;Irjanne;Eurajoki;51;Satakunta;4
27130;Eurajoki asemanseutu;Eurajoki;51;Satakunta;4
27150;Lapijoki;Eurajoki;51;Satakunta;4
27160;Olkiluoto;Eurajoki;51;Satakunta;4
27170;Kuivalahti;Eurajoki;51;Satakunta;4
27220;Ala-Kieri;Rauma;684;Satakunta;4
27230;Lappi;Rauma;684;Satakunta;4
27250;Kodiksami;Rauma;684;Satakunta;4
27260;Kuolimaa;Rauma;684;Satakunta;4
27310;Kodisjoki;Rauma;684;Satakunta;4
27320;Ihode;Pyhäranta;631;Varsinais-Suomi;2
27340;Reila;Pyhäranta;631;Varsinais-Suomi;2
27400;Kiukainen Keskus;Eura;50;Satakunta;4
27420;Panelia Asemanseutu;Eura;50;Satakunta;4
27430;Panelia;Eura;50;Satakunta;4
27450;Harola;Eura;50;Satakunta;4
27500;Kauttua;Eura;50;Satakunta;4
27510;Eura Keskus;Eura;50;Satakunta;4
27600;Hinnerjoki;Eura;50;Satakunta;4
27640;Honkilahti kk;Eura;50;Satakunta;4
27650;Honkilahti;Eura;50;Satakunta;4
27670;Mannila;Eura;50;Satakunta;4
27710;Köyliö Keskus;Säkylä;783;Satakunta;4
27730;Tuiskula;Säkylä;783;Satakunta;4
27740;Voitoinen;Säkylä;783;Satakunta;4
27750;Yttilä;Säkylä;783;Satakunta;4
27800;Säkylä Keskus;Säkylä;783;Satakunta;4
27820;Iso-Vimma;Säkylä;783;Satakunta;4
27840;Kakkuri;Säkylä;783;Satakunta;4
27860;Vuori;Säkylä;783;Satakunta;4
27910;Huovinrinne;Säkylä;783;Satakunta;4
27920;Otajoki;Säkylä;783;Satakunta;4
28100;Pori Keskus;Pori;609;Satakunta;4
28120;Käppärä-Isomäki;Pori;609;Satakunta;4
28130;Impola;Pori;609;Satakunta;4
28190;Pormestarinluoto;Pori;609;Satakunta;4
28200;Toejoki;Pori;609;Satakunta;4
28220;Ruosniemi;Pori;609;Satakunta;4
28240;Isojoenranta;Pori;609;Satakunta;4
28260;Harjunpää;Ulvila;886;Satakunta;4
28300;Kalaholma-Väinölä;Pori;609;Satakunta;4
28330;Koivistonluoto;Pori;609;Satakunta;4
28360;Vanhakoivisto;Pori;609;Satakunta;4
28370;Sampola;Pori;609;Satakunta;4
28400;Ulvila Keskus;Ulvila;886;Satakunta;4
28430;Kartano-Harmaalinna;Pori;609;Satakunta;4
28450;Vanha-Ulvila;Ulvila;886;Satakunta;4
28500;Keskussairaala-alue-Tiilimäki;Pori;609;Satakunta;4
28540;Pinomäki;Pori;609;Satakunta;4
28560;Lattomeri;Pori;609;Satakunta;4
28580;Niittymaa;Pori;609;Satakunta;4
28600;Vähärauma;Pori;609;Satakunta;4
28610;Musa-Tiiliruukki;Pori;609;Satakunta;4
28660;Pietniemi-Leppäkorpi;Pori;609;Satakunta;4
28760;Kyläsaari;Pori;609;Satakunta;4
28800;Pihlava;Pori;609;Satakunta;4
28840;Yyteri-Kaanaa;Pori;609;Satakunta;4
28880;Mäntyluoto;Pori;609;Satakunta;4
28900;Tahkoluoto-Reposaari;Pori;609;Satakunta;4
29100;Luvia Keskus;Eurajoki;51;Satakunta;4
29180;Peränkylä;Eurajoki;51;Satakunta;4
29200;Harjavalta Keskus;Harjavalta;79;Satakunta;4
29250;Nakkila Keskus;Nakkila;531;Satakunta;4
29270;Hormisto;Nakkila;531;Satakunta;4
29280;Järvimaa;Nakkila;531;Satakunta;4
29310;Kaasmarkku;Ulvila;886;Satakunta;4
29320;Leineperi;Ulvila;886;Satakunta;4
29340;Kullaa Keskus;Ulvila;886;Satakunta;4
29350;Palus;Ulvila;886;Satakunta;4
29570;Söörmarkku;Pori;609;Satakunta;4
29600;Noormarkku Keskus;Pori;609;Satakunta;4
29630;Pomarkku Keskus;Pomarkku;608;Satakunta;4
29640;Honkakoski;Pomarkku;608;Satakunta;4
29680;Kairila;Pori;609;Satakunta;4
29700;Ahlainen;Pori;609;Satakunta;4
29720;Lamppi;Pori;609;Satakunta;4
29740;Etelämaa;Merikarvia;484;Satakunta;4
29750;Pohjansaha;Merikarvia;484;Satakunta;4
29760;Köörtilä;Merikarvia;484;Satakunta;4
29790;Tuorila;Merikarvia;484;Satakunta;4
29810;Siikainen Keskus;Siikainen;747;Satakunta;4
29830;Sammi;Siikainen;747;Satakunta;4
29860;Otamo;Siikainen;747;Satakunta;4
29880;Leväsjoki-Saarineva;Siikainen;747;Satakunta;4
29900;Merikarvia Keskus-Rannikko;Merikarvia;484;Satakunta;4
29940;Kuvaskangas;Merikarvia;484;Satakunta;4
30100;Forssa Keskus;Forssa;61;Kanta-Häme;5
30300;Viksberg;Forssa;61;Kanta-Häme;5
30420;Tölö;Forssa;61;Kanta-Häme;5
31110;Matku;Forssa;61;Kanta-Häme;5
31130;Koijärvi;Forssa;61;Kanta-Häme;5
31140;Menonen;Urjala;887;Pirkanmaa;6
31160;Nuutajärvi;Urjala;887;Pirkanmaa;6
31170;Savijoki;Forssa;61;Kanta-Häme;5
31230;Susikas;Tammela;834;Kanta-Häme;5
31250;Teuro;Tammela;834;Kanta-Häme;5
31300;Tammela Keskus;Tammela;834;Kanta-Häme;5
31310;Mustiala;Tammela;834;Kanta-Häme;5
31340;Porras;Tammela;834;Kanta-Häme;5
31350;Vistinkoski;Tammela;834;Kanta-Häme;5
31370;Eerikkilän Urheiluopisto;Tammela;834;Kanta-Häme;5
31380;Letku-Torro;Tammela;834;Kanta-Häme;5
31400;Somero Keskus;Somero;761;Varsinais-Suomi;2
31410;Ylöpirtti;Somero;761;Varsinais-Suomi;2
31450;Häntälä;Somero;761;Varsinais-Suomi;2
31460;Hirsjärvi;Somero;761;Varsinais-Suomi;2
31470;Somerniemi;Somero;761;Varsinais-Suomi;2
31490;Terttilä;Somero;761;Varsinais-Suomi;2
31500;Koski Tl;Koski Tl;284;Varsinais-Suomi;2
31520;Pitkäjärvi;Somero;761;Varsinais-Suomi;2
31530;Pyöli;Somero;761;Varsinais-Suomi;2
31600;Jokioinen Keskus;Jokioinen;169;Kanta-Häme;5
31610;Vaulammi;Jokioinen;169;Kanta-Häme;5
31620;Latovainio;Jokioinen;169;Kanta-Häme;5
31630;Minkiö;Jokioinen;169;Kanta-Häme;5
31640;Humppila Keskus;Humppila;103;Kanta-Häme;5
31650;Venäjänkangas;Humppila;103;Kanta-Häme;5
31700;Urjala Asemanseutu-Hanhisuo;Urjala;887;Pirkanmaa;6
31720;Urjalankylä-Kehro;Urjala;887;Pirkanmaa;6
31730;Honkola;Urjala;887;Pirkanmaa;6
31750;Kehro;Urjala;887;Pirkanmaa;6
31760;Urjala Keskus;Urjala;887;Pirkanmaa;6
31810;Oriniemi;Punkalaidun;619;Pirkanmaa;6
31830;Halkivaha;Urjala;887;Pirkanmaa;6
31850;Koskioinen;Punkalaidun;619;Pirkanmaa;6
31860;Tursa;Urjala;887;Pirkanmaa;6
31900;Punkalaidun Keskus;Punkalaidun;619;Pirkanmaa;6
31930;Vanttila;Punkalaidun;619;Pirkanmaa;6
31950;Sadonmaa;Punkalaidun;619;Pirkanmaa;6
31960;Orisuo;Loimaa;430;Varsinais-Suomi;2
31970;Kanteenmaa;Punkalaidun;619;Pirkanmaa;6
32100;Ypäjä Keskus;Ypäjä;981;Kanta-Häme;5
32140;Ypäjä Asemanseutu;Ypäjä;981;Kanta-Häme;5
32200;Loimaa Keskus;Loimaa;430;Varsinais-Suomi;2
32210;Loimaa kk;Loimaa;430;Varsinais-Suomi;2
32250;Kojonkulma;Loimaa;430;Varsinais-Suomi;2
32260;Kojonperä;Loimaa;430;Varsinais-Suomi;2
32270;Metsämaa-Murto;Loimaa;430;Varsinais-Suomi;2
32280;Metsäkorpi;Loimaa;430;Varsinais-Suomi;2
32300;Mellilä;Loimaa;430;Varsinais-Suomi;2
32410;Niinijoki;Loimaa;430;Varsinais-Suomi;2
32430;Ylhäinen;Loimaa;430;Varsinais-Suomi;2
32440;Alastaro Keskus;Loimaa;430;Varsinais-Suomi;2
32450;Tammiainen;Loimaa;430;Varsinais-Suomi;2
32500;Oripää Keskus;Oripää;561;Varsinais-Suomi;2
32520;Latva;Oripää;561;Varsinais-Suomi;2
32560;Virttaa;Loimaa;430;Varsinais-Suomi;2
32610;Vampula Keskus;Huittinen;102;Satakunta;4
32620;Rutava;Huittinen;102;Satakunta;4
32700;Huittinen Keskus;Huittinen;102;Satakunta;4
32710;Sampu;Huittinen;102;Satakunta;4
32730;Keikyä;Sastamala;790;Pirkanmaa;6
32740;Äetsä Keskus;Sastamala;790;Pirkanmaa;6
32760;Suttila;Huittinen;102;Satakunta;4
32770;Huhtamo;Huittinen;102;Satakunta;4
32800;Kokemäki Keskus;Kokemäki;271;Satakunta;4
32810;Peipohja;Kokemäki;271;Satakunta;4
32830;Riste;Kokemäki;271;Satakunta;4
32860;Korkeaoja;Kokemäki;271;Satakunta;4
32910;Kauvatsa Asemanseutu;Kokemäki;271;Satakunta;4
32920;Kauvatsa;Kokemäki;271;Satakunta;4
33100;Tampere Keskus;Tampere;837;Pirkanmaa;6
33180;Lapinniemi-Käpylä;Tampere;837;Pirkanmaa;6
33200;Tampere Keskus Läntinen;Tampere;837;Pirkanmaa;6
33210;Itä-Amuri-Tammerkoski;Tampere;837;Pirkanmaa;6
33230;Länsi-Amuri;Tampere;837;Pirkanmaa;6
33240;Tahmela;Tampere;837;Pirkanmaa;6
33250;Pispala;Tampere;837;Pirkanmaa;6
33270;Epilä;Tampere;837;Pirkanmaa;6
33300;Rahola;Tampere;837;Pirkanmaa;6
33310;Tesoma;Tampere;837;Pirkanmaa;6
33330;Myllypuro-Kalkku;Tampere;837;Pirkanmaa;6
33340;Haukiluoma-Ikuri;Tampere;837;Pirkanmaa;6
33380;Pitkäniemi;Nokia;536;Pirkanmaa;6
33400;Luoteis-Tampere;Tampere;837;Pirkanmaa;6
33410;Lentävänniemi;Tampere;837;Pirkanmaa;6
33420;Lamminpää;Tampere;837;Pirkanmaa;6
33430;Vuorentausta;Ylöjärvi;980;Pirkanmaa;6
33450;Siivikkala;Ylöjärvi;980;Pirkanmaa;6
33470;Ylöjärvi Keskus;Ylöjärvi;980;Pirkanmaa;6
33480;Manninmäki-Haavisto;Ylöjärvi;980;Pirkanmaa;6
33500;Osmonmäki-Petsamo;Tampere;837;Pirkanmaa;6
33520;Keskussairaala-alue-Kauppi;Tampere;837;Pirkanmaa;6
33530;Kissanmaa;Tampere;837;Pirkanmaa;6
33540;Kaleva;Tampere;837;Pirkanmaa;6
33560;Takahuhti;Tampere;837;Pirkanmaa;6
33580;Atala-Linnainmaa;Tampere;837;Pirkanmaa;6
33610;Olkahinen-Tasanne;Tampere;837;Pirkanmaa;6
33680;Aitolahti;Tampere;837;Pirkanmaa;6
33700;Messukylä;Tampere;837;Pirkanmaa;6
33710;Kaukajärvi;Tampere;837;Pirkanmaa;6
33720;Hervanta;Tampere;837;Pirkanmaa;6
33730;Leinola-Vehmainen;Tampere;837;Pirkanmaa;6
33800;Nekala;Tampere;837;Pirkanmaa;6
33820;Koivistonkylä;Tampere;837;Pirkanmaa;6
33840;Peltolammi;Tampere;837;Pirkanmaa;6
33850;Multisilta;Tampere;837;Pirkanmaa;6
33870;Vuores;Tampere;837;Pirkanmaa;6
33880;Höytämö;Lempäälä;418;Pirkanmaa;6
33900;Härmälä-Rantaperkiö;Tampere;837;Pirkanmaa;6
33920;Toivio;Pirkkala;604;Pirkanmaa;6
33950;Killo;Pirkkala;604;Pirkanmaa;6
33960;Suuppa;Pirkkala;604;Pirkanmaa;6
33980;Pirkkala kk;Pirkkala;604;Pirkanmaa;6
34110;Lakiala;Ylöjärvi;980;Pirkanmaa;6
34130;Ylinen;Ylöjärvi;980;Pirkanmaa;6
34140;Mutala;Ylöjärvi;980;Pirkanmaa;6
34150;Kyrönlahti;Ylöjärvi;980;Pirkanmaa;6
34180;Länsi-Teisko;Ylöjärvi;980;Pirkanmaa;6
34240;Kämmenteisko;Tampere;837;Pirkanmaa;6
34260;Terälahti;Tampere;837;Pirkanmaa;6
34270;Velaatta;Tampere;837;Pirkanmaa;6
34300;Kuru Keskus;Ylöjärvi;980;Pirkanmaa;6
34320;Parkkuu;Ylöjärvi;980;Pirkanmaa;6
34330;Poikelus;Ylöjärvi;980;Pirkanmaa;6
34410;Murole;Ruovesi;702;Pirkanmaa;6
34420;Muroleen Kanava;Ruovesi;702;Pirkanmaa;6
34430;Kekkonen;Ruovesi;702;Pirkanmaa;6
34450;Jäminkipohja;Ruovesi;702;Pirkanmaa;6
34510;Luode;Ylöjärvi;980;Pirkanmaa;6
34530;Länsi-Aure;Ylöjärvi;980;Pirkanmaa;6
34550;Itä-Aure;Ylöjärvi;980;Pirkanmaa;6
34600;Ruovesi Keskus-Nenonen;Ruovesi;702;Pirkanmaa;6
34640;Mustajärvi;Ruovesi;702;Pirkanmaa;6
34710;Vaskivesi;Virrat;936;Pirkanmaa;6
34730;Vaskuu;Virrat;936;Pirkanmaa;6
34740;Koro;Virrat;936;Pirkanmaa;6
34770;Kurjenkylä;Virrat;936;Pirkanmaa;6
34800;Virrat Keskus;Virrat;936;Pirkanmaa;6
34870;Visuvesi;Ruovesi;702;Pirkanmaa;6
34910;Äijänneva;Virrat;936;Pirkanmaa;6
34930;Liedenpohja;Virrat;936;Pirkanmaa;6
34950;Ohtola;Virrat;936;Pirkanmaa;6
34970;Toisvesi;Virrat;936;Pirkanmaa;6
34980;Killinkoski;Virrat;936;Pirkanmaa;6
35100;Orivesi Asemanseutu;Orivesi;562;Pirkanmaa;6
35220;Eräjärvi;Orivesi;562;Pirkanmaa;6
35240;Ristakallio;Orivesi;562;Pirkanmaa;6
35260;Leväslahti;Orivesi;562;Pirkanmaa;6
35270;Västilä;Orivesi;562;Pirkanmaa;6
35300;Orivesi Keskus;Orivesi;562;Pirkanmaa;6
35320;Hirsilä;Orivesi;562;Pirkanmaa;6
35400;Länkipohja;Jämsä;182;Keski-Suomi;13
35420;Talviainen;Orivesi;562;Pirkanmaa;6
35480;Längelmäki;Orivesi;562;Pirkanmaa;6
35500;Korkeakoski;Juupajoki;177;Pirkanmaa;6
35520;Pirttikangas;Juupajoki;177;Pirkanmaa;6
35530;Lyly;Juupajoki;177;Pirkanmaa;6
35540;Juupajoki;Juupajoki;177;Pirkanmaa;6
35550;Salokunta;Juupajoki;177;Pirkanmaa;6
35600;Halli;Jämsä;182;Keski-Suomi;13
35610;Pihlaisto;Jämsä;182;Keski-Suomi;13
35630;Suinula-Valkamanperä;Jämsä;182;Keski-Suomi;13
35700;Vilppula Keskus;Mänttä-Vilppula;508;Pirkanmaa;6
35740;Ylä-Vääri;Ruovesi;702;Pirkanmaa;6
35750;Väärinmaja;Ruovesi;702;Pirkanmaa;6
35800;Mänttä;Mänttä-Vilppula;508;Pirkanmaa;6
35820;Asemakulma-Mustalahti;Jämsä;182;Keski-Suomi;13
35990;Kolho;Mänttä-Vilppula;508;Pirkanmaa;6
36100;Kangasala Asemanseutu;Kangasala;211;Pirkanmaa;6
36110;Ruutana;Kangasala;211;Pirkanmaa;6
36120;Suinula-Haviseva;Kangasala;211;Pirkanmaa;6
36200;Kangasala Keskus;Kangasala;211;Pirkanmaa;6
36220;Suorama;Kangasala;211;Pirkanmaa;6
36240;Nattari;Kangasala;211;Pirkanmaa;6
36270;Huutijärvi;Kangasala;211;Pirkanmaa;6
36280;Pikonlinna;Kangasala;211;Pirkanmaa;6
36340;Tohkala;Kangasala;211;Pirkanmaa;6
36420;Sahalahti Keskus;Kangasala;211;Pirkanmaa;6
36430;Pakkala;Kangasala;211;Pirkanmaa;6
36450;Salmentaka;Pälkäne;635;Pirkanmaa;6
36520;Raikku;Kangasala;211;Pirkanmaa;6
36570;Kaivanto;Kangasala;211;Pirkanmaa;6
36600;Pälkäne Keskus;Pälkäne;635;Pirkanmaa;6
36640;Iltasmäki;Pälkäne;635;Pirkanmaa;6
36660;Laitikkala;Pälkäne;635;Pirkanmaa;6
36720;Aitoo;Pälkäne;635;Pirkanmaa;6
36760;Luopioinen Keskus;Pälkäne;635;Pirkanmaa;6
36810;Kuhmalahti Keskus;Kangasala;211;Pirkanmaa;6
36840;Kuhmajärvi;Kangasala;211;Pirkanmaa;6
36880;Vehkajärvi;Kangasala;211;Pirkanmaa;6
36910;Rautajärvi;Pälkäne;635;Pirkanmaa;6
36930;Kyynärö;Pälkäne;635;Pirkanmaa;6
37100;Nokia Keskus;Nokia;536;Pirkanmaa;6
37120;Koskenmäki;Nokia;536;Pirkanmaa;6
37130;Alhoniitty;Nokia;536;Pirkanmaa;6
37140;Harjuniitty;Nokia;536;Pirkanmaa;6
37150;Kankaantaka;Nokia;536;Pirkanmaa;6
37180;Sarkola;Nokia;536;Pirkanmaa;6
37200;Siuro;Nokia;536;Pirkanmaa;6
37210;Kulovesi;Nokia;536;Pirkanmaa;6
37240;Linnavuori;Nokia;536;Pirkanmaa;6
37310;Tottijärvi;Nokia;536;Pirkanmaa;6
37350;Rämsöö;Vesilahti;922;Pirkanmaa;6
37370;Narva;Vesilahti;922;Pirkanmaa;6
37380;Krääkkiö;Vesilahti;922;Pirkanmaa;6
37420;Valkkinen;Vesilahti;922;Pirkanmaa;6
37470;Vesilahti Keskus;Vesilahti;922;Pirkanmaa;6
37500;Lempäälä Keskus;Lempäälä;418;Pirkanmaa;6
37530;Säijä;Lempäälä;418;Pirkanmaa;6
37550;Kuivaspää;Lempäälä;418;Pirkanmaa;6
37560;Kulju;Lempäälä;418;Pirkanmaa;6
37570;Koivuniemi;Lempäälä;418;Pirkanmaa;6
37600;Valkeakoski Keskus;Valkeakoski;908;Pirkanmaa;6
37630;Vääräkoivu;Valkeakoski;908;Pirkanmaa;6
37700;Sääksmäki;Valkeakoski;908;Pirkanmaa;6
37720;Ritvala;Valkeakoski;908;Pirkanmaa;6
37740;Haukila;Valkeakoski;908;Pirkanmaa;6
37770;Tarttila;Valkeakoski;908;Pirkanmaa;6
37800;Toijala keskus;Akaa;20;Pirkanmaa;6
37830;Viiala Keskus;Akaa;20;Pirkanmaa;6
37850;Metsäkansa;Valkeakoski;908;Pirkanmaa;6
37860;Kärjenniemi;Valkeakoski;908;Pirkanmaa;6
37900;Kylmäkoski Asemanseutu;Akaa;20;Pirkanmaa;6
37910;Kylmäkoski Keskus;Akaa;20;Pirkanmaa;6
37960;Sotkia;Akaa;20;Pirkanmaa;6
38100;Karkku;Sastamala;790;Pirkanmaa;6
38120;Kutala;Sastamala;790;Pirkanmaa;6
38130;Ellivuori;Sastamala;790;Pirkanmaa;6
38140;Kärppälä;Sastamala;790;Pirkanmaa;6
38200;Vammala Keskus;Sastamala;790;Pirkanmaa;6
38210;Vammala Asemanseutu;Sastamala;790;Pirkanmaa;6
38220;Stormi;Sastamala;790;Pirkanmaa;6
38250;Roismala;Sastamala;790;Pirkanmaa;6
38270;Sammaljoki;Sastamala;790;Pirkanmaa;6
38280;Illo;Sastamala;790;Pirkanmaa;6
38300;Kiikka;Sastamala;790;Pirkanmaa;6
38360;Kiikoinen;Sastamala;790;Pirkanmaa;6
38420;Häijää;Sastamala;790;Pirkanmaa;6
38460;Mouhijärvi Keskus;Sastamala;790;Pirkanmaa;6
38470;Hyynilä;Sastamala;790;Pirkanmaa;6
38490;Haukijärvi;Hämeenkyrö;108;Pirkanmaa;6
38510;Suodenniemi;Sastamala;790;Pirkanmaa;6
38600;Lavia Keskus;Pori;609;Satakunta;4
38650;Yli-Putto;Pori;609;Satakunta;4
38670;Kalliala-Haunia;Pori;609;Satakunta;4
38680;Tuunajärvi;Pomarkku;608;Satakunta;4
38700;Kankaanpää Keskus;Kankaanpää;214;Satakunta;4
38710;Myllymäki;Kankaanpää;214;Satakunta;4
38720;Vihteljärvi;Kankaanpää;214;Satakunta;4
38740;Hapuoja;Kankaanpää;214;Satakunta;4
38750;Veneskoski;Kankaanpää;214;Satakunta;4
38760;Venesjärvi;Kankaanpää;214;Satakunta;4
38770;Lohikko;Kankaanpää;214;Satakunta;4
38800;Jämijärvi Keskus;Jämijärvi;181;Satakunta;4
38840;Niinisalo;Kankaanpää;214;Satakunta;4
38860;Suurimaa;Jämijärvi;181;Satakunta;4
38910;Ala-Honkajoki;Kankaanpää;214;Satakunta;4
38920;Vatajankoski;Honkajoki;99;Satakunta;4
38950;Honkajoki Keskus;Honkajoki;99;Satakunta;4
38970;Lauhala;Honkajoki;99;Satakunta;4
39100;Hämeenkyrö Keskus;Hämeenkyrö;108;Pirkanmaa;6
39110;Simuna;Hämeenkyrö;108;Pirkanmaa;6
39130;Sasi;Hämeenkyrö;108;Pirkanmaa;6
39150;Pinsiö;Hämeenkyrö;108;Pirkanmaa;6
39160;Julkujärvi;Ylöjärvi;980;Pirkanmaa;6
39170;Jumesniemi;Hämeenkyrö;108;Pirkanmaa;6
39180;Herttuala;Hämeenkyrö;108;Pirkanmaa;6
39195;Kaipio;Hämeenkyrö;108;Pirkanmaa;6
39200;Kyröskoski;Hämeenkyrö;108;Pirkanmaa;6
39230;Osara;Hämeenkyrö;108;Pirkanmaa;6
39290;Vesajärvi;Hämeenkyrö;108;Pirkanmaa;6
39310;Viljakkala Keskus;Ylöjärvi;980;Pirkanmaa;6
39340;Karhe;Ylöjärvi;980;Pirkanmaa;6
39360;Komi;Ylöjärvi;980;Pirkanmaa;6
39380;Lavajärvi;Hämeenkyrö;108;Pirkanmaa;6
39410;Luhalahti;Ikaalinen;143;Pirkanmaa;6
39430;Röyhiö;Ikaalinen;143;Pirkanmaa;6
39450;Sisättö;Ikaalinen;143;Pirkanmaa;6
39500;Ikaalinen Keskus;Ikaalinen;143;Pirkanmaa;6
39530;Kilvakkala;Ikaalinen;143;Pirkanmaa;6
39580;Riitiala;Ikaalinen;143;Pirkanmaa;6
39590;Tevaniemi;Ikaalinen;143;Pirkanmaa;6
39610;Kovelahti;Ikaalinen;143;Pirkanmaa;6
39620;Kovesjoki;Parkano;581;Pirkanmaa;6
39660;Lapinneva;Parkano;581;Pirkanmaa;6
39700;Parkano Keskus;Parkano;581;Pirkanmaa;6
39750;Vatajanjärvi;Parkano;581;Pirkanmaa;6
39770;Aureskoski;Parkano;581;Pirkanmaa;6
39780;Alaskylä;Parkano;581;Pirkanmaa;6
39810;Linnankylä;Kihniö;250;Pirkanmaa;6
39820;Kihniö Keskus;Kihniö;250;Pirkanmaa;6
39880;Kihniö Asemanseutu;Kihniö;250;Pirkanmaa;6
39920;Suomijärvi;Karvia;230;Satakunta;4
39930;Karvia Keskus;Karvia;230;Satakunta;4
39940;Kantti;Karvia;230;Satakunta;4
39960;Sarvela;Karvia;230;Satakunta;4
39965;Karviankylä;Karvia;230;Satakunta;4
39980;Sara;Karvia;230;Satakunta;4
39990;Alkkia;Karvia;230;Satakunta;4
40100;Jyväskylä Keskus;Jyväskylä;179;Keski-Suomi;13
40200;Mannila-Taulumäki;Jyväskylä;179;Keski-Suomi;13
40250;Ritoniemi-Lohikoski;Jyväskylä;179;Keski-Suomi;13
40270;Pappilanrinne-Pappilanvuori;Jyväskylä;179;Keski-Suomi;13
40320;Seppälän Teollisuusalue;Jyväskylä;179;Keski-Suomi;13
40340;Huhtasuo;Jyväskylä;179;Keski-Suomi;13
40400;Halssila;Jyväskylä;179;Keski-Suomi;13
40420;Jyskä;Jyväskylä;179;Keski-Suomi;13
40500;Keljo-Ristonmaa;Jyväskylä;179;Keski-Suomi;13
40520;Kuokkala-Ristikivi;Jyväskylä;179;Keski-Suomi;13
40530;Keljonkangas;Jyväskylä;179;Keski-Suomi;13
40600;Mattilanpelto;Jyväskylä;179;Keski-Suomi;13
40620;Keskussairaala-alue-Kukkumäki;Jyväskylä;179;Keski-Suomi;13
40630;Kypärämäki;Jyväskylä;179;Keski-Suomi;13
40640;Keltinmäki;Jyväskylä;179;Keski-Suomi;13
40660;Länsi-Palokka;Jyväskylä;179;Keski-Suomi;13
40700;Mäki-Matti;Jyväskylä;179;Keski-Suomi;13
40720;Nisula;Jyväskylä;179;Keski-Suomi;13
40740;Kortepohja;Jyväskylä;179;Keski-Suomi;13
40800;Vaajakoski;Jyväskylä;179;Keski-Suomi;13
40820;Vuoritsalo;Jyväskylä;179;Keski-Suomi;13
40900;Säynätsalo;Jyväskylä;179;Keski-Suomi;13
40930;Kinkomaa;Muurame;500;Keski-Suomi;13
40950;Muurame Keskus;Muurame;500;Keski-Suomi;13
41120;Puuppola;Jyväskylä;179;Keski-Suomi;13
41140;Kuikka;Jyväskylä;179;Keski-Suomi;13
41160;Tikkakoski;Jyväskylä;179;Keski-Suomi;13
41180;Vehniä;Laukaa;410;Keski-Suomi;13
41210;Jokihaara;Uurainen;892;Keski-Suomi;13
41220;Höytiä;Uurainen;892;Keski-Suomi;13
41230;Uurainen Keskus;Uurainen;892;Keski-Suomi;13
41240;Kyynämöinen;Uurainen;892;Keski-Suomi;13
41260;Hoikankylä;Saarijärvi;729;Keski-Suomi;13
41270;Lannevesi;Saarijärvi;729;Keski-Suomi;13
41290;Kangashäkki;Uurainen;892;Keski-Suomi;13
41310;Leppävesi;Laukaa;410;Keski-Suomi;13
41325;Laukkavirta;Laukaa;410;Keski-Suomi;13
41330;Vihtavuori;Laukaa;410;Keski-Suomi;13
41340;Laukaa Keskus;Laukaa;410;Keski-Suomi;13
41350;Laukaa Asemanseutu;Laukaa;410;Keski-Suomi;13
41360;Valkola;Laukaa;410;Keski-Suomi;13
41370;Kuusa;Laukaa;410;Keski-Suomi;13
41390;Äijälä;Laukaa;410;Keski-Suomi;13
41400;Lievestuore;Laukaa;410;Keski-Suomi;13
41410;Kankainen;Toivakka;850;Keski-Suomi;13
41440;Ruuhimäki;Toivakka;850;Keski-Suomi;13
41450;Leppälahti;Jyväskylä;179;Keski-Suomi;13
41490;Niemisjärvi;Hankasalmi;77;Keski-Suomi;13
41500;Hankasalmi Asemanseutu;Hankasalmi;77;Keski-Suomi;13
41520;Hankasalmi Keskus;Hankasalmi;77;Keski-Suomi;13
41530;Veneranta;Hankasalmi;77;Keski-Suomi;13
41540;Ristimäki;Hankasalmi;77;Keski-Suomi;13
41550;Hannula;Hankasalmi;77;Keski-Suomi;13
41560;Säkinmäki;Hankasalmi;77;Keski-Suomi;13
41580;Sauvamäki;Hankasalmi;77;Keski-Suomi;13
41630;Oravasaari;Jyväskylä;179;Keski-Suomi;13
41660;Toivakka Keskus;Toivakka;850;Keski-Suomi;13
41710;Rutalahti-Kivisuo;Jyväskylä;179;Keski-Suomi;13
41730;Kivisuo;Joutsa;172;Keski-Suomi;13
41750;Havumäki;Joutsa;172;Keski-Suomi;13
41770;Leivonmäki;Joutsa;172;Keski-Suomi;13
41800;Korpilahti Keskus;Jyväskylä;179;Keski-Suomi;13
41820;Saakoski;Jyväskylä;179;Keski-Suomi;13
41840;Moksi;Jyväskylä;179;Keski-Suomi;13
41860;Rannila;Jyväskylä;179;Keski-Suomi;13
41870;Putkilahti;Jyväskylä;179;Keski-Suomi;13
41880;Oittila;Jyväskylä;179;Keski-Suomi;13
41900;Petäjävesi Keskus;Petäjävesi;592;Keski-Suomi;13
41920;Kintaus;Petäjävesi;592;Keski-Suomi;13
41925;Ylä-Kintaus;Petäjävesi;592;Keski-Suomi;13
41930;Kuohu;Jyväskylä;179;Keski-Suomi;13
41940;Vesanka;Jyväskylä;179;Keski-Suomi;13
41970;Huttula;Keuruu;249;Keski-Suomi;13
41980;Kuivasmäki;Petäjävesi;592;Keski-Suomi;13
42100;Jämsä Keskus;Jämsä;182;Keski-Suomi;13
42140;Juokslahti;Jämsä;182;Keski-Suomi;13
42220;Kaipola;Jämsä;182;Keski-Suomi;13
42300;Jämsänkoski Keskus;Jämsä;182;Keski-Suomi;13
42330;Haavisto;Jämsä;182;Keski-Suomi;13
42440;Koskenpää;Jämsä;182;Keski-Suomi;13
42520;Asunta;Keuruu;249;Keski-Suomi;13
42560;Pohjoisjärvi;Keuruu;249;Keski-Suomi;13
42600;Multia Keskus-Väätäiskylä;Multia;495;Keski-Suomi;13
42660;Sahrajärvi;Multia;495;Keski-Suomi;13
42700;Keuruu Keskus;Keuruu;249;Keski-Suomi;13
42720;Valkealahti;Keuruu;249;Keski-Suomi;13
42800;Haapamäki;Keuruu;249;Keski-Suomi;13
42820;Riiho;Keuruu;249;Keski-Suomi;13
42830;Ylä-Kolkki;Mänttä-Vilppula;508;Pirkanmaa;6
42840;Kolkki;Mänttä-Vilppula;508;Pirkanmaa;6
42850;Pohjaslahti;Mänttä-Vilppula;508;Pirkanmaa;6
42870;Kotala;Virrat;936;Pirkanmaa;6
42910;Pihlajavesi;Keuruu;249;Keski-Suomi;13
42930;Katajamäki;Keuruu;249;Keski-Suomi;13
43100;Saarijärvi Keskus;Saarijärvi;729;Keski-Suomi;13
43130;Tarvaala;Saarijärvi;729;Keski-Suomi;13
43170;Häkkilä;Saarijärvi;729;Keski-Suomi;13
43220;Mahlu;Saarijärvi;729;Keski-Suomi;13
43240;Lehtola;Saarijärvi;729;Keski-Suomi;13
43250;Kolkanlahti;Saarijärvi;729;Keski-Suomi;13
43270;Kalmari;Saarijärvi;729;Keski-Suomi;13
43300;Kannonkoski Keskus;Kannonkoski;216;Keski-Suomi;13
43340;Kannonjärvi;Kannonkoski;216;Keski-Suomi;13
43390;Lokakylä;Kivijärvi;265;Keski-Suomi;13
43420;Kukko;Saarijärvi;729;Keski-Suomi;13
43430;Väätäiskylä;Multia;495;Keski-Suomi;13
43440;Pylkönmäki Keskus;Saarijärvi;729;Keski-Suomi;13
43480;Pääjärvi;Saarijärvi;729;Keski-Suomi;13
43490;Kangasaho;Karstula;226;Keski-Suomi;13
43500;Karstula Keskus;Karstula;226;Keski-Suomi;13
43520;Kiminki;Karstula;226;Keski-Suomi;13
43540;Rantakylä-Pirttilahti;Karstula;226;Keski-Suomi;13
43560;Vahanka;Karstula;226;Keski-Suomi;13
43610;Aho;Karstula;226;Keski-Suomi;13
43640;Humppi;Karstula;226;Keski-Suomi;13
43660;Vastinki;Karstula;226;Keski-Suomi;13
43700;Kyyjärvi Keskus;Kyyjärvi;312;Keski-Suomi;13
43720;Kumpulainen;Kyyjärvi;312;Keski-Suomi;13
43800;Kivijärvi Keskus-Sompala;Kivijärvi;265;Keski-Suomi;13
43840;Sompala;Kivijärvi;265;Keski-Suomi;13
43900;Kinnula Keskus;Kinnula;256;Keski-Suomi;13
43940;Muhola-Saarensalmi;Kinnula;256;Keski-Suomi;13
43960;Saarensalmi;Kinnula;256;Keski-Suomi;13
44100;Äänekoski Keskus;Äänekoski;992;Keski-Suomi;13
44120;Mämmensalmi-Mustaniemi;Äänekoski;992;Keski-Suomi;13
44150;Likolahti-Karhunlähde;Äänekoski;992;Keski-Suomi;13
44160;Huutomäki;Äänekoski;992;Keski-Suomi;13
44170;Hietama;Äänekoski;992;Keski-Suomi;13
44190;Parantala;Äänekoski;992;Keski-Suomi;13
44200;Suolahti Keskus;Äänekoski;992;Keski-Suomi;13
44220;Sörkänmäki;Äänekoski;992;Keski-Suomi;13
44250;Äänekoivisto;Äänekoski;992;Keski-Suomi;13
44260;Vihijärvi;Äänekoski;992;Keski-Suomi;13
44280;Sumiainen Keskus;Äänekoski;992;Keski-Suomi;13
44300;Konnevesi Keskus;Konnevesi;275;Keski-Suomi;13
44320;Sirkkamäki;Konnevesi;275;Keski-Suomi;13
44330;Hytölä;Konnevesi;275;Keski-Suomi;13
44350;Istunmäki;Konnevesi;275;Keski-Suomi;13
44370;Mäntymäki;Konnevesi;275;Keski-Suomi;13
44400;Konginkangas Keskus;Äänekoski;992;Keski-Suomi;13
44420;Liimattala;Äänekoski;992;Keski-Suomi;13
44440;Räihä;Äänekoski;992;Keski-Suomi;13
44460;Kalaniemi;Äänekoski;992;Keski-Suomi;13
44480;Niinilahti;Viitasaari;931;Keski-Suomi;13
44500;Viitasaari Keskus;Viitasaari;931;Keski-Suomi;13
44530;Ilmolahti;Viitasaari;931;Keski-Suomi;13
44580;Huopanankoski;Viitasaari;931;Keski-Suomi;13
44590;Vuorilahti;Viitasaari;931;Keski-Suomi;13
44610;Kärnä;Viitasaari;931;Keski-Suomi;13
44630;Kumpumäki;Viitasaari;931;Keski-Suomi;13
44640;Kymönkoski;Viitasaari;931;Keski-Suomi;13
44670;Suovanlahti;Viitasaari;931;Keski-Suomi;13
44680;Lahnanen;Viitasaari;931;Keski-Suomi;13
44730;Löytänä;Viitasaari;931;Keski-Suomi;13
44740;Keitelepohja-Kotvala;Viitasaari;931;Keski-Suomi;13
44760;Keihärinkoski;Viitasaari;931;Keski-Suomi;13
44770;Valkeisjärvi;Viitasaari;931;Keski-Suomi;13
44790;Kotvala;Viitasaari;931;Keski-Suomi;13
44800;Pihtipudas Keskus;Pihtipudas;601;Keski-Suomi;13
44860;Alvajärvi;Pihtipudas;601;Keski-Suomi;13
44880;Muurasjärvi;Pihtipudas;601;Keski-Suomi;13
44910;Elämäjärvi;Pihtipudas;601;Keski-Suomi;13
44920;Peninki;Pihtipudas;601;Keski-Suomi;13
44950;Kärväsjärvi;Pihtipudas;601;Keski-Suomi;13
44970;Korppinen;Pihtipudas;601;Keski-Suomi;13
45100;Kouvola Keskus;Kouvola;286;Kymenlaakso;8
45120;Kotkankallio-Vahteronmäki;Kouvola;286;Kymenlaakso;8
45130;Korjala-Kaunisnurmi;Kouvola;286;Kymenlaakso;8
45150;Kankaronmäki-Eskolanmäki;Kouvola;286;Kymenlaakso;8
45160;Lehtomäki;Kouvola;286;Kymenlaakso;8
45200;Tornionmäki;Kouvola;286;Kymenlaakso;8
45330;Harju;Kouvola;286;Kymenlaakso;8
45360;Kukkuramäki;Kouvola;286;Kymenlaakso;8
45370;Valkeala kk;Kouvola;286;Kymenlaakso;8
45410;Utti;Kouvola;286;Kymenlaakso;8
45460;Savero;Kouvola;286;Kymenlaakso;8
45610;Koria;Kouvola;286;Kymenlaakso;8
45700;Kuusankoski Keskus;Kouvola;286;Kymenlaakso;8
45720;Kotiharju-Puhjonmäki;Kouvola;286;Kymenlaakso;8
45740;Maunuksela;Kouvola;286;Kymenlaakso;8
45750;Kuusankosken Sairaala-alue;Kouvola;286;Kymenlaakso;8
45810;Pilkanmaa;Kouvola;286;Kymenlaakso;8
45910;Voikkaa;Kouvola;286;Kymenlaakso;8
45940;Oravala;Kouvola;286;Kymenlaakso;8
46110;Tuohikotti;Kouvola;286;Kymenlaakso;8
46140;Vekaranjärvi;Kouvola;286;Kymenlaakso;8
46230;Aro;Kouvola;286;Kymenlaakso;8
46400;Kaipiainen;Kouvola;286;Kymenlaakso;8
46430;Tirva-Inkerilä;Kouvola;286;Kymenlaakso;8
46450;Enäjärvi;Kouvola;286;Kymenlaakso;8
46530;Kannuskoski;Luumäki;441;Etelä-Karjala;9
46570;Saaramaa;Kouvola;286;Kymenlaakso;8
46710;Sippola;Kouvola;286;Kymenlaakso;8
46730;Ruotila;Kouvola;286;Kymenlaakso;8
46750;Liikkala;Kouvola;286;Kymenlaakso;8
46800;Myllykoski;Kouvola;286;Kymenlaakso;8
46810;Ummeljoki;Kouvola;286;Kymenlaakso;8
46860;Anjalankoski Keskus;Kouvola;286;Kymenlaakso;8
46900;Inkeroinen;Kouvola;286;Kymenlaakso;8
46910;Anjala;Kouvola;286;Kymenlaakso;8
46930;Huruksela;Kotka;285;Kymenlaakso;8
46950;Ahvio;Kouvola;286;Kymenlaakso;8
46960;Muhniemi;Kouvola;286;Kymenlaakso;8
47110;Löytty;Kouvola;286;Kymenlaakso;8
47150;Raussila;Kouvola;286;Kymenlaakso;8
47200;Elimäki kk;Kouvola;286;Kymenlaakso;8
47260;Ratula;Kouvola;286;Kymenlaakso;8
47310;Haapa-Kimola;Iitti;142;Kymenlaakso;8
47350;Kimonkylä;Lapinjärvi;407;Uusimaa;1
47400;Kausala;Iitti;142;Kymenlaakso;8
47440;Sääskjärvi;Iitti;142;Kymenlaakso;8
47450;Perheniemi;Iitti;142;Kymenlaakso;8
47460;Hiisiö;Iitti;142;Kymenlaakso;8
47490;Mankala-Hiisiö;Iitti;142;Kymenlaakso;8
47520;Iitti kk;Iitti;142;Kymenlaakso;8
47540;Löyttilä;Iitti;142;Kymenlaakso;8
47610;Kymentaka;Iitti;142;Kymenlaakso;8
47650;Kimola;Kouvola;286;Kymenlaakso;8
47710;Jaala kk;Kouvola;286;Kymenlaakso;8
47760;Huhdasjärvi;Kouvola;286;Kymenlaakso;8
47810;Selänpää;Kouvola;286;Kymenlaakso;8
47830;Hasula;Kouvola;286;Kymenlaakso;8
47850;Verla;Kouvola;286;Kymenlaakso;8
47900;Vuohijärvi;Kouvola;286;Kymenlaakso;8
47910;Hillosensalmi;Kouvola;286;Kymenlaakso;8
48100;Kotkansaari;Kotka;285;Kymenlaakso;8
48130;Katariina;Kotka;285;Kymenlaakso;8
48200;Hovinsaari;Kotka;285;Kymenlaakso;8
48210;Toukolan Sairaala-Alue;Kotka;285;Kymenlaakso;8
48220;Metsola;Kotka;285;Kymenlaakso;8
48230;Korela-Jylppy;Kotka;285;Kymenlaakso;8
48300;Ruonala;Kotka;285;Kymenlaakso;8
48310;Mussalo;Kotka;285;Kymenlaakso;8
48350;Karhuvuori;Kotka;285;Kymenlaakso;8
48400;Sutela;Kotka;285;Kymenlaakso;8
48410;Kaukola;Kotka;285;Kymenlaakso;8
48600;Karhula;Kotka;285;Kymenlaakso;8
48700;Kyminlinna;Kotka;285;Kymenlaakso;8
48710;Koivula;Kotka;285;Kymenlaakso;8
48720;Kymi;Kotka;285;Kymenlaakso;8
48750;Nikeli;Kotka;285;Kymenlaakso;8
48770;Ristinkallio;Kotka;285;Kymenlaakso;8
48800;Otsola-Mäntykangas;Kotka;285;Kymenlaakso;8
48810;Rantahaka;Kotka;285;Kymenlaakso;8
48900;Sunila;Kotka;285;Kymenlaakso;8
48910;Suulisniemi;Kotka;285;Kymenlaakso;8
48930;Tiutinen;Kotka;285;Kymenlaakso;8
49200;Heinlahti;Pyhtää;624;Kymenlaakso;8
49210;Huutjärvi;Pyhtää;624;Kymenlaakso;8
49220;Siltakylä;Pyhtää;624;Kymenlaakso;8
49240;Purolanlahti;Pyhtää;624;Kymenlaakso;8
49270;Pyhtää kk;Pyhtää;624;Kymenlaakso;8
49290;Vastila;Pyhtää;624;Kymenlaakso;8
49300;Tavastila;Kotka;285;Kymenlaakso;8
49340;Juurikorpi;Kotka;285;Kymenlaakso;8
49400;Hamina Keskus;Hamina;75;Kymenlaakso;8
49410;Poitsila;Hamina;75;Kymenlaakso;8
49420;Uusi-Summa;Hamina;75;Kymenlaakso;8
49460;Hillo;Hamina;75;Kymenlaakso;8
49480;Vanha-Summa;Hamina;75;Kymenlaakso;8
49490;Neuvoton;Hamina;75;Kymenlaakso;8
49510;Husula;Hamina;75;Kymenlaakso;8
49520;Reitkalli;Hamina;75;Kymenlaakso;8
49540;Metsäkylä;Hamina;75;Kymenlaakso;8
49570;Kannusjärvi;Hamina;75;Kymenlaakso;8
49610;Sivatti;Hamina;75;Kymenlaakso;8
49630;Vehkajoki;Hamina;75;Kymenlaakso;8
49640;Paijärvi;Hamina;75;Kymenlaakso;8
49660;Pyhältö;Hamina;75;Kymenlaakso;8
49700;Miehikkälä Kirkonkylä;Miehikkälä;489;Kymenlaakso;8
49720;Hurttala;Miehikkälä;489;Kymenlaakso;8
49730;Muurikkala;Miehikkälä;489;Kymenlaakso;8
49750;Kalliokoski;Miehikkälä;489;Kymenlaakso;8
49760;Suur-Miehikkälä;Miehikkälä;489;Kymenlaakso;8
49770;Salo-Miehikkälä;Miehikkälä;489;Kymenlaakso;8
49780;Onkamaa;Hamina;75;Kymenlaakso;8
49840;Mäntlahti;Hamina;75;Kymenlaakso;8
49860;Klamila;Virolahti;935;Kymenlaakso;8
49900;Virolahti Keskus;Virolahti;935;Kymenlaakso;8
49930;Vaalimaa;Virolahti;935;Kymenlaakso;8
49960;Ala-Pihlaja;Virolahti;935;Kymenlaakso;8
49980;Ravijoki;Virolahti;935;Kymenlaakso;8
50100;Mikkeli Keskus;Mikkeli;491;Etelä-Savo;10
50120;Siekkilä;Mikkeli;491;Etelä-Savo;10
50130;Nuijamies;Mikkeli;491;Etelä-Savo;10
50150;Karkialampi;Mikkeli;491;Etelä-Savo;10
50160;Kattilansilta;Mikkeli;491;Etelä-Savo;10
50170;Peitsari;Mikkeli;491;Etelä-Savo;10
50180;Visulahti;Mikkeli;491;Etelä-Savo;10
50190;Tuppurala;Mikkeli;491;Etelä-Savo;10
50200;Kovala;Mikkeli;491;Etelä-Savo;10
50300;Rämälä;Mikkeli;491;Etelä-Savo;10
50350;Norola;Mikkeli;491;Etelä-Savo;10
50500;Tuukkala-Kaituenmäki;Mikkeli;491;Etelä-Savo;10
50520;Moision Sairaala-alue;Mikkeli;491;Etelä-Savo;10
50600;Karikko;Mikkeli;491;Etelä-Savo;10
50670;Otava;Mikkeli;491;Etelä-Savo;10
50700;Syysjärvi;Mikkeli;491;Etelä-Savo;10
50770;Korpikoski;Mikkeli;491;Etelä-Savo;10
50800;Annilanselkä;Mikkeli;491;Etelä-Savo;10
50970;Ihastjärvi;Mikkeli;491;Etelä-Savo;10
51130;Vanhamäki;Mikkeli;491;Etelä-Savo;10
51200;Kangasniemi Keskus;Kangasniemi;213;Etelä-Savo;10
51260;Tahkomäki;Kangasniemi;213;Etelä-Savo;10
51270;Kutemajärvi;Kangasniemi;213;Etelä-Savo;10
51310;Levä;Kangasniemi;213;Etelä-Savo;10
51335;Kaihlamäki;Kangasniemi;213;Etelä-Savo;10
51340;Hännilä-Särkiharju;Kangasniemi;213;Etelä-Savo;10
51360;Koivula-Synsiö;Kangasniemi;213;Etelä-Savo;10
51380;Synsiö;Kangasniemi;213;Etelä-Savo;10
51420;Harjumaa-Pajulankylä;Mikkeli;491;Etelä-Savo;10
51430;Läsäkoski;Kangasniemi;213;Etelä-Savo;10
51440;Vuojalahti;Kangasniemi;213;Etelä-Savo;10
51450;Pajulankylä;Mikkeli;491;Etelä-Savo;10
51460;Luusniemi;Kangasniemi;213;Etelä-Savo;10
51520;Hiirola;Mikkeli;491;Etelä-Savo;10
51540;Kalvitsa;Mikkeli;491;Etelä-Savo;10
51600;Haukivuori Keskus-Piitkäaho;Mikkeli;491;Etelä-Savo;10
51620;Pitkäaho;Mikkeli;491;Etelä-Savo;10
51670;Nykälä;Mikkeli;491;Etelä-Savo;10
51720;Rahula;Mikkeli;491;Etelä-Savo;10
51740;Huuhanaho;Mikkeli;491;Etelä-Savo;10
51760;Nuutilanmäki;Juva;178;Etelä-Savo;10
51780;Kuosmala;Juva;178;Etelä-Savo;10
51810;Maivala;Juva;178;Etelä-Savo;10
51820;Hatsola;Juva;178;Etelä-Savo;10
51850;Vuorenmaa;Juva;178;Etelä-Savo;10
51860;Narila;Juva;178;Etelä-Savo;10
51880;Koikkala;Juva;178;Etelä-Savo;10
51890;Risulahti;Juva;178;Etelä-Savo;10
51900;Juva Keskus;Juva;178;Etelä-Savo;10
51930;Paatela;Juva;178;Etelä-Savo;10
51940;Härkälä;Juva;178;Etelä-Savo;10
51980;Lauteala;Juva;178;Etelä-Savo;10
52100;Anttola;Mikkeli;491;Etelä-Savo;10
52110;Majavesi;Mikkeli;491;Etelä-Savo;10
52150;Hauhala;Mikkeli;491;Etelä-Savo;10
52200;Puumala Keskus;Puumala;623;Etelä-Savo;10
52230;Hurissalo;Puumala;623;Etelä-Savo;10
52270;Ryhälä;Puumala;623;Etelä-Savo;10
52300;Ristiina Keskus;Mikkeli;491;Etelä-Savo;10
52320;Vitsiälä;Mikkeli;491;Etelä-Savo;10
52330;Heimari;Mikkeli;491;Etelä-Savo;10
52340;Hangastenmaa;Mikkeli;491;Etelä-Savo;10
52360;Someenjärvi;Mikkeli;491;Etelä-Savo;10
52420;Pellosniemi;Mikkeli;491;Etelä-Savo;10
52510;Hietanen;Hirvensalmi;97;Etelä-Savo;10
52520;Syväsmäki;Hirvensalmi;97;Etelä-Savo;10
52550;Hirvensalmi Keskus;Hirvensalmi;97;Etelä-Savo;10
52610;Tuukkalanlahti;Hirvensalmi;97;Etelä-Savo;10
52620;Kuitula;Hirvensalmi;97;Etelä-Savo;10
52700;Mäntyharju Keskus;Mäntyharju;507;Etelä-Savo;10
52720;Karankamäki-Koirakivi;Mäntyharju;507;Etelä-Savo;10
52730;Koirakivi;Mäntyharju;507;Etelä-Savo;10
52740;Tuustaipale;Mäntyharju;507;Etelä-Savo;10
52760;Mynttilä;Mäntyharju;507;Etelä-Savo;10
52780;Kuomiokoski;Mikkeli;491;Etelä-Savo;10
52830;Suomenniemi;Mikkeli;491;Etelä-Savo;10
52850;Halmeniemi;Mäntyharju;507;Etelä-Savo;10
52890;Käävänkylä;Mäntyharju;507;Etelä-Savo;10
52920;Voikoski;Kouvola;286;Kymenlaakso;8
52960;Nurmaa;Mäntyharju;507;Etelä-Savo;10
52970;Pankalahti-Ahvenainen;Mäntyharju;507;Etelä-Savo;10
52980;Ahvenainen;Heinola;111;Päijät-Häme;7
53100;Lappeenranta keskus;Lappeenranta;405;Etelä-Karjala;9
53130;Keskussairaala-alue-Kimpinen;Lappeenranta;405;Etelä-Karjala;9
53200;Kaukas-Tirilä;Lappeenranta;405;Etelä-Karjala;9
53300;Lauritsala-Mälkiä;Lappeenranta;405;Etelä-Karjala;9
53400;Laihia;Lappeenranta;405;Etelä-Karjala;9
53420;Mustola;Lappeenranta;405;Etelä-Karjala;9
53500;Parkkarila-Harapainen-Reijola;Lappeenranta;405;Etelä-Karjala;9
53550;Kourulanmäki;Lappeenranta;405;Etelä-Karjala;9
53600;Kesämäki;Lappeenranta;405;Etelä-Karjala;9
53650;Mattila-Kuusela;Lappeenranta;405;Etelä-Karjala;9
53810;Kuusimäki-Lavola;Lappeenranta;405;Etelä-Karjala;9
53830;Rutola;Lappeenranta;405;Etelä-Karjala;9
53850;Skinnarila;Lappeenranta;405;Etelä-Karjala;9
53900;Pallo-Tysterniemi-Leiri;Lappeenranta;405;Etelä-Karjala;9
53920;Voisalmi;Lappeenranta;405;Etelä-Karjala;9
53950;Kivisalmi;Lappeenranta;405;Etelä-Karjala;9
54100;Joutseno Keskus;Lappeenranta;405;Etelä-Karjala;9
54110;Lampikangas;Lappeenranta;405;Etelä-Karjala;9
54120;Pulp;Lappeenranta;405;Etelä-Karjala;9
54190;Konnunsuo;Lappeenranta;405;Etelä-Karjala;9
54230;Nuijamaa;Lappeenranta;405;Etelä-Karjala;9
54250;Rapattila;Lappeenranta;405;Etelä-Karjala;9
54260;Hanhijärvi;Lappeenranta;405;Etelä-Karjala;9
54270;Vainikkala;Lappeenranta;405;Etelä-Karjala;9
54300;Vilkjärvi;Lappeenranta;405;Etelä-Karjala;9
54310;Hytti;Lappeenranta;405;Etelä-Karjala;9
54330;Simola;Lappeenranta;405;Etelä-Karjala;9
54390;Pulsa;Lappeenranta;405;Etelä-Karjala;9
54410;Ylämaa Keskus;Lappeenranta;405;Etelä-Karjala;9
54430;Hujakkala;Lappeenranta;405;Etelä-Karjala;9
54460;Ylijärvi;Lappeenranta;405;Etelä-Karjala;9
54490;Ahomäki;Miehikkälä;489;Kymenlaakso;8
54500;Taavetti-Somerharju;Luumäki;441;Etelä-Karjala;9
54510;Uro;Luumäki;441;Etelä-Karjala;9
54530;Luumäki;Luumäki;441;Etelä-Karjala;9
54550;Suo-Anttila;Luumäki;441;Etelä-Karjala;9
54580;Somerharju;Luumäki;441;Etelä-Karjala;9
54590;Kaitjärvi;Luumäki;441;Etelä-Karjala;9
54710;Lemi Keskus;Lemi;416;Etelä-Karjala;9
54720;Laksiainen;Lemi;416;Etelä-Karjala;9
54750;Välijoki;Savitaipale;739;Etelä-Karjala;9
54770;Heituinlahti;Savitaipale;739;Etelä-Karjala;9
54800;Savitaipale Keskus;Savitaipale;739;Etelä-Karjala;9
54820;Kotimäki;Lemi;416;Etelä-Karjala;9
54850;Kuukanniemi;Lemi;416;Etelä-Karjala;9
54915;Saimaanharju-Kyläniemi;Taipalsaari;831;Etelä-Karjala;9
54920;Taipalsaari;Taipalsaari;831;Etelä-Karjala;9
54930;Levänen;Taipalsaari;831;Etelä-Karjala;9
54940;Solkei;Taipalsaari;831;Etelä-Karjala;9
54950;Pettilä;Savitaipale;739;Etelä-Karjala;9
54960;Vehkataipale;Taipalsaari;831;Etelä-Karjala;9
55100;Imatra Keskus;Imatra;153;Etelä-Karjala;9
55120;Mansikkala-Tuulikallio;Imatra;153;Etelä-Karjala;9
55300;Rauha-Tiuruniemi;Lappeenranta;405;Etelä-Karjala;9
55320;Rauha;Lappeenranta;405;Etelä-Karjala;9
55330;Tiuruniemi;Lappeenranta;405;Etelä-Karjala;9
55400;Tainionkoski-Mustalampi;Imatra;153;Etelä-Karjala;9
55420;Karhumäki-Karhukallio;Imatra;153;Etelä-Karjala;9
55510;Sotkulampi-Linnasuo;Imatra;153;Etelä-Karjala;9
55610;Rajapatsas-Teppanala;Imatra;153;Etelä-Karjala;9
55700;Vintteri-Virasoja;Imatra;153;Etelä-Karjala;9
55800;Vuoksenniska-Saarlampi;Imatra;153;Etelä-Karjala;9
55910;Rautio-Kurkvuori;Imatra;153;Etelä-Karjala;9
56100;Ruokolahti Keskus;Ruokolahti;700;Etelä-Karjala;9
56120;Salosaari;Ruokolahti;700;Etelä-Karjala;9
56140;Äitsaari;Ruokolahti;700;Etelä-Karjala;9
56210;Virmutjoki;Ruokolahti;700;Etelä-Karjala;9
56310;Syyspohja;Ruokolahti;700;Etelä-Karjala;9
56330;Utula;Ruokolahti;700;Etelä-Karjala;9
56350;Kyläniemi;Taipalsaari;831;Etelä-Karjala;9
56410;Kaiturinpää;Ruokolahti;700;Etelä-Karjala;9
56440;Pohja-Lankila;Ruokolahti;700;Etelä-Karjala;9
56510;Puntala;Ruokolahti;700;Etelä-Karjala;9
56550;Niska-Pietilä;Rautjärvi;689;Etelä-Karjala;9
56610;Rautjärvi;Rautjärvi;689;Etelä-Karjala;9
56640;Purnujärvi;Rautjärvi;689;Etelä-Karjala;9
56710;Miettilä;Rautjärvi;689;Etelä-Karjala;9
56730;Laikko;Rautjärvi;689;Etelä-Karjala;9
56800;Simpele;Rautjärvi;689;Etelä-Karjala;9
57100;Heikinpohja-Piispanmäki;Savonlinna;740;Etelä-Savo;10
57120;Savonlinna;Savonlinna;740;Etelä-Savo;10
57130;Savonlinna Keskus;Savonlinna;740;Etelä-Savo;10
57170;Sortteerinlahti-Talvisalo;Savonlinna;740;Etelä-Savo;10
57200;Miekonniemi-Venäjänniemi;Savonlinna;740;Etelä-Savo;10
57210;Nojanmaa;Savonlinna;740;Etelä-Savo;10
57220;Haka-alue-Viuhonmäki;Savonlinna;740;Etelä-Savo;10
57230;Inkerinkylä;Savonlinna;740;Etelä-Savo;10
57310;Rinkilä;Savonlinna;740;Etelä-Savo;10
57510;Laitaatsilta;Savonlinna;740;Etelä-Savo;10
57600;Poukkusilta-Pihlajaniemi;Savonlinna;740;Etelä-Savo;10
57710;Kellarpelto-Rantakoivikko;Savonlinna;740;Etelä-Savo;10
57810;Aholahti;Savonlinna;740;Etelä-Savo;10
58130;Oravi;Savonlinna;740;Etelä-Savo;10
58140;Ahvensalmi;Savonlinna;740;Etelä-Savo;10
58150;Makkola;Savonlinna;740;Etelä-Savo;10
58160;Karvila;Enonkoski;46;Etelä-Savo;10
58170;Simanala;Enonkoski;46;Etelä-Savo;10
58175;Enonkoski Keskus;Enonkoski;46;Etelä-Savo;10
58180;Ihamaniemi;Enonkoski;46;Etelä-Savo;10
58200;Kerimäki Keskus;Savonlinna;740;Etelä-Savo;10
58220;Louhi;Savonlinna;740;Etelä-Savo;10
58260;Kumpuranta;Savonlinna;740;Etelä-Savo;10
58300;Savonranta Keskus;Savonlinna;740;Etelä-Savo;10
58320;Raikuu;Savonlinna;740;Etelä-Savo;10
58350;Villala;Kitee;260;Pohjois-Karjala;12
58360;Säimen;Savonlinna;740;Etelä-Savo;10
58390;Rönkönvaara;Savonlinna;740;Etelä-Savo;10
58410;Haapakallio;Savonlinna;740;Etelä-Savo;10
58420;Silvola;Savonlinna;740;Etelä-Savo;10
58430;Kulennoinen;Savonlinna;740;Etelä-Savo;10
58450;Punkaharju;Savonlinna;740;Etelä-Savo;10
58500;Punkasalmi;Savonlinna;740;Etelä-Savo;10
58520;Hiukkajoki;Savonlinna;740;Etelä-Savo;10
58550;Putikko;Savonlinna;740;Etelä-Savo;10
58570;Ruhvana;Savonlinna;740;Etelä-Savo;10
58580;Vuoriniemi;Savonlinna;740;Etelä-Savo;10
58610;Telakanava;Sulkava;768;Etelä-Savo;10
58620;Lohilahti;Sulkava;768;Etelä-Savo;10
58650;Kiviapaja;Savonlinna;740;Etelä-Savo;10
58680;Piojärvi;Savonlinna;740;Etelä-Savo;10
58690;Ala-Särkilahti-Piojärvi;Savonlinna;740;Etelä-Savo;10
58700;Sulkava Keskus;Sulkava;768;Etelä-Savo;10
58720;Kaartilankoski;Sulkava;768;Etelä-Savo;10
58770;Pihlajalahti;Savonlinna;740;Etelä-Savo;10
58810;Kallislahti;Savonlinna;740;Etelä-Savo;10
58830;Parkumäki;Rantasalmi;681;Etelä-Savo;10
58850;Hiltula;Rantasalmi;681;Etelä-Savo;10
58900;Rantasalmi Keskus;Rantasalmi;681;Etelä-Savo;10
58910;Rantasalmi Asemanseutu;Rantasalmi;681;Etelä-Savo;10
58920;Kolkontaipale;Rantasalmi;681;Etelä-Savo;10
58940;Tuusmäki;Rantasalmi;681;Etelä-Savo;10
59100;Parikkala Keskus;Parikkala;580;Etelä-Karjala;9
59130;Koitsanlahti;Parikkala;580;Etelä-Karjala;9
59210;Melkoniemi;Parikkala;580;Etelä-Karjala;9
59310;Särkisalmi;Parikkala;580;Etelä-Karjala;9
59320;Haapaoja;Parikkala;580;Etelä-Karjala;9
59410;Kirjavala;Parikkala;580;Etelä-Karjala;9
59510;Maironiemi;Parikkala;580;Etelä-Karjala;9
59520;Saari;Parikkala;580;Etelä-Karjala;9
59530;Mikkolanniemi;Parikkala;580;Etelä-Karjala;9
59610;Tarnala;Parikkala;580;Etelä-Karjala;9
59710;Kummunkylä;Parikkala;580;Etelä-Karjala;9
59720;Niukkala;Parikkala;580;Etelä-Karjala;9
59730;Uukuniemi;Parikkala;580;Etelä-Karjala;9
59800;Kesälahti Keskus;Kitee;260;Pohjois-Karjala;12
59810;Suurikylä;Kitee;260;Pohjois-Karjala;12
59820;Purujärvi-Rajavaara;Kitee;260;Pohjois-Karjala;12
60100;Seinäjoki Keskus;Seinäjoki;743;Etelä-Pohjanmaa;14
60120;Pohja;Seinäjoki;743;Etelä-Pohjanmaa;14
60150;Kasperi;Seinäjoki;743;Etelä-Pohjanmaa;14
60200;Törnävä;Seinäjoki;743;Etelä-Pohjanmaa;14
60220;Huhtala;Seinäjoki;743;Etelä-Pohjanmaa;14
60280;Eskoon Keskuslaitosalue;Seinäjoki;743;Etelä-Pohjanmaa;14
60320;Alakylä-Jouppi;Seinäjoki;743;Etelä-Pohjanmaa;14
60420;Impivaara;Seinäjoki;743;Etelä-Pohjanmaa;14
60450;Munakka;Ilmajoki;145;Etelä-Pohjanmaa;14
60510;Hyllykallio;Seinäjoki;743;Etelä-Pohjanmaa;14
60550;Nurmo Keskus;Seinäjoki;743;Etelä-Pohjanmaa;14
60560;Halkosaari;Seinäjoki;743;Etelä-Pohjanmaa;14
60640;Kurjenneva;Seinäjoki;743;Etelä-Pohjanmaa;14
60720;Tuomikylä;Ilmajoki;145;Etelä-Pohjanmaa;14
60760;Pojanluoma;Ilmajoki;145;Etelä-Pohjanmaa;14
60800;Ilmajoki Keskus;Ilmajoki;145;Etelä-Pohjanmaa;14
61100;Peräseinäjoki Keskus;Seinäjoki;743;Etelä-Pohjanmaa;14
61110;Vuolle;Seinäjoki;743;Etelä-Pohjanmaa;14
61120;Louko;Seinäjoki;743;Etelä-Pohjanmaa;14
61140;Pasto;Seinäjoki;743;Etelä-Pohjanmaa;14
61150;Sydänmaa;Alavus;10;Etelä-Pohjanmaa;14
61160;Koura;Seinäjoki;743;Etelä-Pohjanmaa;14
61170;Sääskiniemi;Alavus;10;Etelä-Pohjanmaa;14
61180;Haapaluoma;Seinäjoki;743;Etelä-Pohjanmaa;14
61220;Myllysalo;Kurikka;301;Etelä-Pohjanmaa;14
61230;Luopa;Kurikka;301;Etelä-Pohjanmaa;14
61250;Jalasto;Kurikka;301;Etelä-Pohjanmaa;14
61270;Luopajärvi;Kurikka;301;Etelä-Pohjanmaa;14
61280;Jokipii;Kurikka;301;Etelä-Pohjanmaa;14
61290;Taivalmaa;Kurikka;301;Etelä-Pohjanmaa;14
61300;Kurikka Keskus;Kurikka;301;Etelä-Pohjanmaa;14
61310;Panttila;Kurikka;301;Etelä-Pohjanmaa;14
61330;Koskenkorva;Ilmajoki;145;Etelä-Pohjanmaa;14
61340;Nopankylä;Ilmajoki;145;Etelä-Pohjanmaa;14
61350;Huissi;Ilmajoki;145;Etelä-Pohjanmaa;14
61360;Mieto;Kurikka;301;Etelä-Pohjanmaa;14
61370;Lohiluoma;Kurikka;301;Etelä-Pohjanmaa;14
61380;Polvenkylä;Kurikka;301;Etelä-Pohjanmaa;14
61400;Ylistaro Keskus;Seinäjoki;743;Etelä-Pohjanmaa;14
61410;Ylistaro Asemanseutu;Seinäjoki;743;Etelä-Pohjanmaa;14
61430;Isorehto;Seinäjoki;743;Etelä-Pohjanmaa;14
61440;Untamala;Seinäjoki;743;Etelä-Pohjanmaa;14
61450;Kylänpää;Seinäjoki;743;Etelä-Pohjanmaa;14
61460;Hanhikoski;Seinäjoki;743;Etelä-Pohjanmaa;14
61470;Kitinoja;Seinäjoki;743;Etelä-Pohjanmaa;14
61500;Isokyrö Keskus;Isokyrö;152;Pohjanmaa;15
61520;Lehmäjoki;Isokyrö;152;Pohjanmaa;15
61550;Orismala;Isokyrö;152;Pohjanmaa;15
61560;Orisberg;Isokyrö;152;Pohjanmaa;15
61600;Jalasjärvi Keskus;Kurikka;301;Etelä-Pohjanmaa;14
61630;Hirvijärvi;Kurikka;301;Etelä-Pohjanmaa;14
61640;Ala-Valli;Kurikka;301;Etelä-Pohjanmaa;14
61650;Kalakoski;Seinäjoki;743;Etelä-Pohjanmaa;14
61680;Mantila;Kurikka;301;Etelä-Pohjanmaa;14
61710;Pentinmäki;Kurikka;301;Etelä-Pohjanmaa;14
61720;Koskue;Kurikka;301;Etelä-Pohjanmaa;14
61730;Yli-Valli;Kurikka;301;Etelä-Pohjanmaa;14
61760;Ilvesjoki;Kurikka;301;Etelä-Pohjanmaa;14
61800;Kauhajoki Keskus;Kauhajoki;232;Etelä-Pohjanmaa;14
61810;Luomankylä;Kauhajoki;232;Etelä-Pohjanmaa;14
61820;Kainasto;Kauhajoki;232;Etelä-Pohjanmaa;14
61840;Norinkylä;Teuva;846;Etelä-Pohjanmaa;14
61850;Kauhajoki Asemanseutu;Kauhajoki;232;Etelä-Pohjanmaa;14
61860;Harja;Kauhajoki;232;Etelä-Pohjanmaa;14
61880;Ikkeläjärvi;Kauhajoki;232;Etelä-Pohjanmaa;14
61910;Nummijärvi;Kauhajoki;232;Etelä-Pohjanmaa;14
61920;Nummikoski;Kauhajoki;232;Etelä-Pohjanmaa;14
61940;Hyyppä;Kauhajoki;232;Etelä-Pohjanmaa;14
61950;Juonikylä;Kauhajoki;232;Etelä-Pohjanmaa;14
61960;Kyrönlatva;Kauhajoki;232;Etelä-Pohjanmaa;14
61980;Päntäne;Kauhajoki;232;Etelä-Pohjanmaa;14
62100;Lapua Keskus;Lapua;408;Etelä-Pohjanmaa;14
62130;Hellanmaa;Lapua;408;Etelä-Pohjanmaa;14
62150;Rintakangas;Kauhava;233;Etelä-Pohjanmaa;14
62160;Karhunkylä;Lapua;408;Etelä-Pohjanmaa;14
62165;Tiisteenjoki;Lapua;408;Etelä-Pohjanmaa;14
62170;Lakaluoma;Lapua;408;Etelä-Pohjanmaa;14
62175;Ylikylä-Mäenpää;Lapua;408;Etelä-Pohjanmaa;14
62185;Mäki-Paavola;Lapua;408;Etelä-Pohjanmaa;14
62190;Ruha;Lapua;408;Etelä-Pohjanmaa;14
62200;Kauhava Keskus;Kauhava;233;Etelä-Pohjanmaa;14
62220;Pernaa;Kauhava;233;Etelä-Pohjanmaa;14
62230;Jylhä;Kauhava;233;Etelä-Pohjanmaa;14
62240;Huhmarkoski;Kauhava;233;Etelä-Pohjanmaa;14
62260;Hirvijoki;Kauhava;233;Etelä-Pohjanmaa;14
62280;Mustamaa;Lapua;408;Etelä-Pohjanmaa;14
62290;Hirvikylä;Lapua;408;Etelä-Pohjanmaa;14
62295;Kauhajärvi;Lapua;408;Etelä-Pohjanmaa;14
62300;Härmä;Kauhava;233;Etelä-Pohjanmaa;14
62310;Voltti;Kauhava;233;Etelä-Pohjanmaa;14
62340;Kuoppa-Vakkuri;Kauhava;233;Etelä-Pohjanmaa;14
62350;Ekola;Kauhava;233;Etelä-Pohjanmaa;14
62370;Kangasto;Kauhava;233;Etelä-Pohjanmaa;14
62375;Ylihärmä Keskus-Vesiluoma;Kauhava;233;Etelä-Pohjanmaa;14
62380;Kosolankylä;Kauhava;233;Etelä-Pohjanmaa;14
62395;Petterinmäki;Vöyri;946;Pohjanmaa;15
62410;Rintala;Kauhava;233;Etelä-Pohjanmaa;14
62420;Kortesjärvi Keskus;Kauhava;233;Etelä-Pohjanmaa;14
62430;Peltotupa;Kauhava;233;Etelä-Pohjanmaa;14
62435;Pirttinen;Kauhava;233;Etelä-Pohjanmaa;14
62440;Perkiömäki;Kauhava;233;Etelä-Pohjanmaa;14
62470;Purmojärvi;Kauhava;233;Etelä-Pohjanmaa;14
62500;Evijärvi Keskus;Evijärvi;52;Etelä-Pohjanmaa;14
62510;Kuoppa-aho;Evijärvi;52;Etelä-Pohjanmaa;14
62520;Kautiainen;Evijärvi;52;Etelä-Pohjanmaa;14
62540;Vasikka-aho;Evijärvi;52;Etelä-Pohjanmaa;14
62570;Särkilä;Evijärvi;52;Etelä-Pohjanmaa;14
62600;Lappajärvi Keskus;Lappajärvi;403;Etelä-Pohjanmaa;14
62610;Tarvola;Lappajärvi;403;Etelä-Pohjanmaa;14
62620;Ala-Seppä;Lappajärvi;403;Etelä-Pohjanmaa;14
62630;Karvala;Lappajärvi;403;Etelä-Pohjanmaa;14
62640;Savonkylä;Lappajärvi;403;Etelä-Pohjanmaa;14
62660;Itäkylä;Lappajärvi;403;Etelä-Pohjanmaa;14
62710;Kurejoki;Alajärvi;5;Etelä-Pohjanmaa;14
62720;Sissala;Alajärvi;5;Etelä-Pohjanmaa;14
62730;Haukkala;Alajärvi;5;Etelä-Pohjanmaa;14
62740;Koskenvarsi;Alajärvi;5;Etelä-Pohjanmaa;14
62750;Saukonkylä;Alajärvi;5;Etelä-Pohjanmaa;14
62760;Menkijärvi;Alajärvi;5;Etelä-Pohjanmaa;14
62800;Vimpeli Keskus;Vimpeli;934;Etelä-Pohjanmaa;14
62810;Savonjoki;Vimpeli;934;Etelä-Pohjanmaa;14
62830;Luoma-Aho;Alajärvi;5;Etelä-Pohjanmaa;14
62840;Lakaniemi-Pokela;Vimpeli;934;Etelä-Pohjanmaa;14
62860;Sahi;Vimpeli;934;Etelä-Pohjanmaa;14
62870;Vinni;Vimpeli;934;Etelä-Pohjanmaa;14
62880;Sääksvesi-Vinni;Vimpeli;934;Etelä-Pohjanmaa;14
62900;Alajärvi Keskus;Alajärvi;5;Etelä-Pohjanmaa;14
62920;Levijoki;Alajärvi;5;Etelä-Pohjanmaa;14
62940;Hoisko;Alajärvi;5;Etelä-Pohjanmaa;14
62950;Paalijärvi;Alajärvi;5;Etelä-Pohjanmaa;14
62990;Möksy;Alajärvi;5;Etelä-Pohjanmaa;14
63100;Kuortane Keskus;Kuortane;300;Etelä-Pohjanmaa;14
63120;Leppälänkylä;Kuortane;300;Etelä-Pohjanmaa;14
63130;Mäyry;Kuortane;300;Etelä-Pohjanmaa;14
63150;Ruona;Kuortane;300;Etelä-Pohjanmaa;14
63160;Salmi;Kuortane;300;Etelä-Pohjanmaa;14
63210;Niinimaa;Alavus;10;Etelä-Pohjanmaa;14
63230;Lentilä;Kuortane;300;Etelä-Pohjanmaa;14
63250;Rantala;Kuortane;300;Etelä-Pohjanmaa;14
63300;Alavus Keskus;Alavus;10;Etelä-Pohjanmaa;14
63320;Kattelus;Alavus;10;Etelä-Pohjanmaa;14
63330;Pahajoki;Alavus;10;Etelä-Pohjanmaa;14
63340;Sapsalampi;Alavus;10;Etelä-Pohjanmaa;14
63350;Sulkavankylä;Alavus;10;Etelä-Pohjanmaa;14
63355;Seinäjärvi;Alavus;10;Etelä-Pohjanmaa;14
63360;Kuivaskylä;Alavus;10;Etelä-Pohjanmaa;14
63370;Taipalus;Alavus;10;Etelä-Pohjanmaa;14
63400;Alavus Asemanseutu;Alavus;10;Etelä-Pohjanmaa;14
63410;Rantatöysä;Alavus;10;Etelä-Pohjanmaa;14
63430;Kätkänjoki;Alavus;10;Etelä-Pohjanmaa;14
63450;Löyä;Kuortane;300;Etelä-Pohjanmaa;14
63500;Lehtimäki Keskus;Alajärvi;5;Etelä-Pohjanmaa;14
63510;Lehtimäki Kirkonkylä;Alajärvi;5;Etelä-Pohjanmaa;14
63530;Länsikylä;Alajärvi;5;Etelä-Pohjanmaa;14
63540;Hernesmaa;Alajärvi;5;Etelä-Pohjanmaa;14
63600;Töysä Keskus;Alavus;10;Etelä-Pohjanmaa;14
63610;Tuuri;Alavus;10;Etelä-Pohjanmaa;14
63640;Ritola;Alavus;10;Etelä-Pohjanmaa;14
63660;Ähtärinranta;Ähtäri;989;Etelä-Pohjanmaa;14
63680;Hakojärvi;Alavus;10;Etelä-Pohjanmaa;14
63700;Ähtäri Keskus;Ähtäri;989;Etelä-Pohjanmaa;14
63770;Peränne;Ähtäri;989;Etelä-Pohjanmaa;14
63780;Alastaipale;Ähtäri;989;Etelä-Pohjanmaa;14
63800;Soini Keskus;Soini;759;Etelä-Pohjanmaa;14
63830;Keisala;Soini;759;Etelä-Pohjanmaa;14
63880;Kukonkylä;Soini;759;Etelä-Pohjanmaa;14
63890;Hautakylä;Soini;759;Etelä-Pohjanmaa;14
63900;Myllymäki-Vehunkylä;Ähtäri;989;Etelä-Pohjanmaa;14
63910;Inhan Tehtaat;Ähtäri;989;Etelä-Pohjanmaa;14
63920;Inha;Ähtäri;989;Etelä-Pohjanmaa;14
63950;Vehunkylä;Ähtäri;989;Etelä-Pohjanmaa;14
64100;Kristiinankaupunki keskus;Kristiinankaupunki;287;Pohjanmaa;15
64140;Tiukka;Kristiinankaupunki;287;Pohjanmaa;15
64200;Närpiö Keskus;Närpiö;545;Pohjanmaa;15
64210;Kalax;Närpiö;545;Pohjanmaa;15
64220;Yttermark;Närpiö;545;Pohjanmaa;15
64230;Närpiön Asemanseutu;Närpiö;545;Pohjanmaa;15
64240;Böle;Närpiö;545;Pohjanmaa;15
64250;Pjelax;Närpiö;545;Pohjanmaa;15
64260;Kaskinen;Kaskinen;231;Pohjanmaa;15
64300;Lapväärtti;Kristiinankaupunki;287;Pohjanmaa;15
64320;Dagsmark;Kristiinankaupunki;287;Pohjanmaa;15
64350;Karijoki Keskus;Karijoki;218;Etelä-Pohjanmaa;14
64370;Myrkky;Karijoki;218;Etelä-Pohjanmaa;14
64440;Metsälä-Kallträsk;Kristiinankaupunki;287;Pohjanmaa;15
64450;Kallträsk;Kristiinankaupunki;287;Pohjanmaa;15
64460;Härkmeri;Kristiinankaupunki;287;Pohjanmaa;15
64480;Skaftung;Kristiinankaupunki;287;Pohjanmaa;15
64490;Siipyy;Kristiinankaupunki;287;Pohjanmaa;15
64510;Nämpnäs;Närpiö;545;Pohjanmaa;15
64530;Norrnäs;Närpiö;545;Pohjanmaa;15
64550;Rangsby;Närpiö;545;Pohjanmaa;15
64610;Övermark;Närpiö;545;Pohjanmaa;15
64700;Teuva Keskus;Teuva;846;Etelä-Pohjanmaa;14
64720;Perälä;Teuva;846;Etelä-Pohjanmaa;14
64740;Horo;Teuva;846;Etelä-Pohjanmaa;14
64760;Peltola;Teuva;846;Etelä-Pohjanmaa;14
64770;Äystö;Teuva;846;Etelä-Pohjanmaa;14
64810;Vanhakylä;Isojoki;151;Etelä-Pohjanmaa;14
64820;Kärjenkoski;Isojoki;151;Etelä-Pohjanmaa;14
64830;Villamo;Isojoki;151;Etelä-Pohjanmaa;14
64840;Heikkilänjoki;Isojoki;151;Etelä-Pohjanmaa;14
64850;Möykky;Isojoki;151;Etelä-Pohjanmaa;14
64900;Isojoki Keskus;Isojoki;151;Etelä-Pohjanmaa;14
64930;Kodesjärvi;Isojoki;151;Etelä-Pohjanmaa;14
65100;Vaasa Keskus;Vaasa;905;Pohjanmaa;15
65130;Hietalahti;Vaasa;905;Pohjanmaa;15
65170;Vaskiluoto;Vaasa;905;Pohjanmaa;15
65200;Palosaari;Vaasa;905;Pohjanmaa;15
65230;Vetokannas;Vaasa;905;Pohjanmaa;15
65280;Gerby;Vaasa;905;Pohjanmaa;15
65300;Asevelikylä;Vaasa;905;Pohjanmaa;15
65320;Huutoniemi;Vaasa;905;Pohjanmaa;15
65350;Suvilahti;Vaasa;905;Pohjanmaa;15
65370;Ristinummi;Vaasa;905;Pohjanmaa;15
65380;Vanha Vaasa;Vaasa;905;Pohjanmaa;15
65410;Sundom;Vaasa;905;Pohjanmaa;15
65450;Sulva;Mustasaari;499;Pohjanmaa;15
65460;Tölby-Rimal;Mustasaari;499;Pohjanmaa;15
65470;Rimal;Mustasaari;499;Pohjanmaa;15
65480;Vikby;Mustasaari;499;Pohjanmaa;15
65520;Helsingby;Mustasaari;499;Pohjanmaa;15
65610;Mustasaari Keskus;Mustasaari;499;Pohjanmaa;15
65630;Karperö;Mustasaari;499;Pohjanmaa;15
65650;Koskö;Mustasaari;499;Pohjanmaa;15
65710;Singsby;Mustasaari;499;Pohjanmaa;15
65730;Jungsund;Mustasaari;499;Pohjanmaa;15
65760;Iskmo;Mustasaari;499;Pohjanmaa;15
65800;Raippaluoto;Mustasaari;499;Pohjanmaa;15
65870;Björköby;Mustasaari;499;Pohjanmaa;15
65920;Norra Vallgrund-Söderudden;Mustasaari;499;Pohjanmaa;15
65930;Södra Vallgrund;Mustasaari;499;Pohjanmaa;15
65970;Söderudden;Mustasaari;499;Pohjanmaa;15
66100;Maalahti;Maalahti;475;Pohjanmaa;15
66140;Övermalax;Maalahti;475;Pohjanmaa;15
66160;Långåminne;Maalahti;475;Pohjanmaa;15
66200;Korsnäs Keskus;Korsnäs;280;Pohjanmaa;15
66210;Moikipää;Korsnäs;280;Pohjanmaa;15
66220;Bergö;Maalahti;475;Pohjanmaa;15
66230;Korsbäck;Korsnäs;280;Pohjanmaa;15
66240;Petolahti;Maalahti;475;Pohjanmaa;15
66260;Svarvar;Maalahti;475;Pohjanmaa;15
66270;Pirttikylä-Sorvari;Närpiö;545;Pohjanmaa;15
66280;Taklax;Korsnäs;280;Pohjanmaa;15
66290;Harrström;Korsnäs;280;Pohjanmaa;15
66295;Töjby;Närpiö;545;Pohjanmaa;15
66300;Jurva Keskus;Kurikka;301;Etelä-Pohjanmaa;14
66320;Niemenkylä;Kurikka;301;Etelä-Pohjanmaa;14
66330;Hakko;Kurikka;301;Etelä-Pohjanmaa;14
66340;Sarvijoki;Kurikka;301;Etelä-Pohjanmaa;14
66350;Tainus;Kurikka;301;Etelä-Pohjanmaa;14
66360;Kesti;Kurikka;301;Etelä-Pohjanmaa;14
66370;Närvijoki;Kurikka;301;Etelä-Pohjanmaa;14
66400;Laihia Keskus;Laihia;399;Pohjanmaa;15
66420;Ruto;Laihia;399;Pohjanmaa;15
66430;Vedenoja;Vaasa;905;Pohjanmaa;15
66440;Tervajoki;Isokyrö;152;Pohjanmaa;15
66450;Jakkula;Laihia;399;Pohjanmaa;15
66460;Haapala;Laihia;399;Pohjanmaa;15
66470;Jukaja-Jokisalo;Laihia;399;Pohjanmaa;15
66500;Vähäkyrö Keskus;Vaasa;905;Pohjanmaa;15
66510;Merikaarto;Vaasa;905;Pohjanmaa;15
66520;Veikkaala;Mustasaari;499;Pohjanmaa;15
66530;Koivulahti;Mustasaari;499;Pohjanmaa;15
66540;Petsmo;Mustasaari;499;Pohjanmaa;15
66550;Västerhankmo;Mustasaari;499;Pohjanmaa;15
66560;Österhankmo;Mustasaari;499;Pohjanmaa;15
66580;Kuni;Mustasaari;499;Pohjanmaa;15
66590;Vassor;Mustasaari;499;Pohjanmaa;15
66600;Vöyri Keskus;Vöyri;946;Pohjanmaa;15
66640;Maksamaa;Vöyri;946;Pohjanmaa;15
66660;Bertby;Vöyri;946;Pohjanmaa;15
66680;Kaurajärvi;Vöyri;946;Pohjanmaa;15
66710;Kaitsor;Vöyri;946;Pohjanmaa;15
66730;Oxkangar;Vöyri;946;Pohjanmaa;15
66800;Oravainen Keskus;Vöyri;946;Pohjanmaa;15
66810;Kimo;Vöyri;946;Pohjanmaa;15
66820;Komossa;Vöyri;946;Pohjanmaa;15
66830;Oravaisten Tehdas;Vöyri;946;Pohjanmaa;15
66840;Pensala;Uusikaarlepyy;893;Pohjanmaa;15
66850;Jepua;Uusikaarlepyy;893;Pohjanmaa;15
66900;Uusikaarlepyy Keskus;Uusikaarlepyy;893;Pohjanmaa;15
66910;Soklot;Uusikaarlepyy;893;Pohjanmaa;15
66930;Kovjoki;Uusikaarlepyy;893;Pohjanmaa;15
66950;Munsala;Uusikaarlepyy;893;Pohjanmaa;15
66970;Hirvlax;Uusikaarlepyy;893;Pohjanmaa;15
66980;Monå;Uusikaarlepyy;893;Pohjanmaa;15
66999;Kaukaluoto;Mustasaari;499;Pohjanmaa;15
67100;Kokkola Keskus;Kokkola;272;Keski-Pohjanmaa;16
67200;Kiviniitty-Tullimäki;Kokkola;272;Keski-Pohjanmaa;16
67300;Halkokari;Kokkola;272;Keski-Pohjanmaa;16
67400;Rytimäki;Kokkola;272;Keski-Pohjanmaa;16
67410;Vitsari;Kokkola;272;Keski-Pohjanmaa;16
67500;Sokoja;Kokkola;272;Keski-Pohjanmaa;16
67600;Linnusperä-Kaustari;Kokkola;272;Keski-Pohjanmaa;16
67700;Kirkonmäki-Isokylä;Kokkola;272;Keski-Pohjanmaa;16
67800;Koivuhaka;Kokkola;272;Keski-Pohjanmaa;16
67900;Ykspihjala;Kokkola;272;Keski-Pohjanmaa;16
68100;Himanka Keskus;Kalajoki;208;Pohjois-Pohjanmaa;17
68150;Hillilä;Kalajoki;208;Pohjois-Pohjanmaa;17
68210;Marinkainen;Kokkola;272;Keski-Pohjanmaa;16
68220;Karhi;Kokkola;272;Keski-Pohjanmaa;16
68230;Lohtaja Keskus;Kokkola;272;Keski-Pohjanmaa;16
68240;Ala-Viirre;Kokkola;272;Keski-Pohjanmaa;16
68300;Kälviä Keskus;Kokkola;272;Keski-Pohjanmaa;16
68320;Ruotsalo;Kokkola;272;Keski-Pohjanmaa;16
68370;Ullava Keskus;Kokkola;272;Keski-Pohjanmaa;16
68380;Yli-Ullava;Kokkola;272;Keski-Pohjanmaa;16
68390;Rahkonen;Kokkola;272;Keski-Pohjanmaa;16
68410;Alaveteli;Kruunupyy;288;Pohjanmaa;15
68500;Kruunupyy Keskus;Kruunupyy;288;Pohjanmaa;15
68530;Lepplax;Pedersören kunta;599;Pohjanmaa;15
68550;Öja;Kokkola;272;Keski-Pohjanmaa;16
68555;Bosund;Luoto;440;Pohjanmaa;15
68560;Eugmo;Luoto;440;Pohjanmaa;15
68570;Luoto;Luoto;440;Pohjanmaa;15
68580;Furuholmen;Luoto;440;Pohjanmaa;15
68600;Pietarsaari Keskus;Pietarsaari;598;Pohjanmaa;15
68620;Skutnäs-Västermalm;Pietarsaari;598;Pohjanmaa;15
68630;Kyrkostrand;Pietarsaari;598;Pohjanmaa;15
68660;Östermalm-Björnholmen;Pietarsaari;598;Pohjanmaa;15
68690;Sundby;Pedersören kunta;599;Pohjanmaa;15
68700;Teerijärvi;Kruunupyy;288;Pohjanmaa;15
68750;Småbönders;Kruunupyy;288;Pohjanmaa;15
68800;Kolppi;Pedersören kunta;599;Pohjanmaa;15
68810;Ytteresse;Pedersören kunta;599;Pohjanmaa;15
68820;Ähtävä;Pedersören kunta;599;Pohjanmaa;15
68830;Bäckby;Pedersören kunta;599;Pohjanmaa;15
68840;Nederlappfors;Pedersören kunta;599;Pohjanmaa;15
68870;Edsevö;Pedersören kunta;599;Pohjanmaa;15
68910;Pännäinen;Pedersören kunta;599;Pohjanmaa;15
68920;Forsby;Pedersören kunta;599;Pohjanmaa;15
68930;Purmo;Pedersören kunta;599;Pohjanmaa;15
68940;Lillby;Pedersören kunta;599;Pohjanmaa;15
68970;Överpurmo;Pedersören kunta;599;Pohjanmaa;15
68999;Rita;Kokkola;272;Keski-Pohjanmaa;16
69100;Kannus Keskus;Kannus;217;Keski-Pohjanmaa;16
69150;Eskola;Kannus;217;Keski-Pohjanmaa;16
69170;Yli-Kannus;Kannus;217;Keski-Pohjanmaa;16
69300;Toholampi Keskus;Toholampi;849;Keski-Pohjanmaa;16
69310;Laitala;Toholampi;849;Keski-Pohjanmaa;16
69330;Määttälä;Toholampi;849;Keski-Pohjanmaa;16
69340;Purontaka;Toholampi;849;Keski-Pohjanmaa;16
69410;Sykäräinen;Toholampi;849;Keski-Pohjanmaa;16
69420;Syri;Lestijärvi;421;Keski-Pohjanmaa;16
69440;Lestijärvi Keskus;Lestijärvi;421;Keski-Pohjanmaa;16
69450;Yli-Lesti;Lestijärvi;421;Keski-Pohjanmaa;16
69510;Halsua Keskus-Marjusaari;Halsua;74;Keski-Pohjanmaa;16
69550;Kanala;Halsua;74;Keski-Pohjanmaa;16
69570;Karvonen;Halsua;74;Keski-Pohjanmaa;16
69600;Kaustinen Keskus;Kaustinen;236;Keski-Pohjanmaa;16
69660;Köyhäjoki;Kaustinen;236;Keski-Pohjanmaa;16
69700;Veteli Keskus;Veteli;924;Keski-Pohjanmaa;16
69730;Tunkkari;Veteli;924;Keski-Pohjanmaa;16
69750;Sillanpää;Veteli;924;Keski-Pohjanmaa;16
69820;Räyrinki;Veteli;924;Keski-Pohjanmaa;16
69830;Pulkkinen;Veteli;924;Keski-Pohjanmaa;16
69850;Patana;Veteli;924;Keski-Pohjanmaa;16
69910;Kivikangas;Perho;584;Keski-Pohjanmaa;16
69920;Oksakoski-Kivikangas;Perho;584;Keski-Pohjanmaa;16
69950;Perho Keskus-Salamajärvi;Perho;584;Keski-Pohjanmaa;16
69970;Salamajärvi;Perho;584;Keski-Pohjanmaa;16
69980;Möttönen;Perho;584;Keski-Pohjanmaa;16
70100;Kuopio Keskus;Kuopio;297;Pohjois-Savo;11
70110;Etu-Niirala;Kuopio;297;Pohjois-Savo;11
70150;Neulamäki;Kuopio;297;Pohjois-Savo;11
70200;Puijonlaakso;Kuopio;297;Pohjois-Savo;11
70210;Kuopion Keskussairaala-alue;Kuopio;297;Pohjois-Savo;11
70240;Niuvaniemen Sairaala-alue;Kuopio;297;Pohjois-Savo;11
70260;Julkula;Kuopio;297;Pohjois-Savo;11
70280;Länsi-Puijo;Kuopio;297;Pohjois-Savo;11
70300;Linnanpelto;Kuopio;297;Pohjois-Savo;11
70340;Inkilänmäki;Kuopio;297;Pohjois-Savo;11
70400;Kettulanlahti;Kuopio;297;Pohjois-Savo;11
70420;Päiväranta;Kuopio;297;Pohjois-Savo;11
70460;Saarijärvi;Kuopio;297;Pohjois-Savo;11
70500;Männistö;Kuopio;297;Pohjois-Savo;11
70600;Niirala-Huuhanmäki;Kuopio;297;Pohjois-Savo;11
70620;Haapaniemi;Kuopio;297;Pohjois-Savo;11
70700;Särkiniemi;Kuopio;297;Pohjois-Savo;11
70780;Jynkkä;Kuopio;297;Pohjois-Savo;11
70800;Pitkälahti;Kuopio;297;Pohjois-Savo;11
70820;Litmanen;Kuopio;297;Pohjois-Savo;11
70840;Jynkänmäki;Kuopio;297;Pohjois-Savo;11
70870;Hiltulanlahti;Kuopio;297;Pohjois-Savo;11
70900;Toivala;Siilinjärvi;749;Pohjois-Savo;11
70910;Vuorela;Siilinjärvi;749;Pohjois-Savo;11
70940;Jännevirta;Kuopio;297;Pohjois-Savo;11
71130;Kortejoki;Kuopio;297;Pohjois-Savo;11
71150;Vartiala;Kuopio;297;Pohjois-Savo;11
71160;Riistavesi;Kuopio;297;Pohjois-Savo;11
71170;Laukka-aho;Tuusniemi;857;Pohjois-Savo;11
71200;Tuusniemi Keskus;Tuusniemi;857;Pohjois-Savo;11
71210;Tuusjärvi;Tuusniemi;857;Pohjois-Savo;11
71240;Paakkila;Tuusniemi;857;Pohjois-Savo;11
71260;Juurikkamäki;Tuusniemi;857;Pohjois-Savo;11
71280;Kosula;Tuusniemi;857;Pohjois-Savo;11
71310;Vehmersalmi Keskus;Kuopio;297;Pohjois-Savo;11
71330;Räsälä;Kuopio;297;Pohjois-Savo;11
71360;Litmaniemi;Kuopio;297;Pohjois-Savo;11
71380;Mustinlahti;Kuopio;297;Pohjois-Savo;11
71460;Paukarlahti;Leppävirta;420;Pohjois-Savo;11
71470;Oravikoski;Leppävirta;420;Pohjois-Savo;11
71480;Kurkimäki;Kuopio;297;Pohjois-Savo;11
71490;Airaksela;Kuopio;297;Pohjois-Savo;11
71520;Kaislastenlahti;Kuopio;297;Pohjois-Savo;11
71570;Syvänniemi;Kuopio;297;Pohjois-Savo;11
71610;Salonkulma;Kuopio;297;Pohjois-Savo;11
71640;Talluskylä;Tervo;844;Pohjois-Savo;11
71650;Hirvilahti-Salonkulma;Kuopio;297;Pohjois-Savo;11
71660;Leinolanlahti;Kuopio;297;Pohjois-Savo;11
71670;Kurolanlahti;Kuopio;297;Pohjois-Savo;11
71680;Pulkonkoski-Saarinen;Kuopio;297;Pohjois-Savo;11
71690;Varpasmaa;Kuopio;297;Pohjois-Savo;11
71720;Käärmelahti;Kuopio;297;Pohjois-Savo;11
71730;Kinnulanlahti;Kuopio;297;Pohjois-Savo;11
71740;Tavinsalmi;Kuopio;297;Pohjois-Savo;11
71745;Haatala;Kuopio;297;Pohjois-Savo;11
71750;Maaninka Keskus;Kuopio;297;Pohjois-Savo;11
71760;Ahkionlahti-Vianta;Kuopio;297;Pohjois-Savo;11
71775;Tuovilanlahti-Haatala;Kuopio;297;Pohjois-Savo;11
71800;Siilinjärvi Keskus;Siilinjärvi;749;Pohjois-Savo;11
71820;Pöljä;Siilinjärvi;749;Pohjois-Savo;11
71840;Kuuslahti;Siilinjärvi;749;Pohjois-Savo;11
71850;Leppäkaarre;Siilinjärvi;749;Pohjois-Savo;11
71870;Harjamäki;Siilinjärvi;749;Pohjois-Savo;11
71890;Hamula;Siilinjärvi;749;Pohjois-Savo;11
71910;Alapitkä;Lapinlahti;402;Pohjois-Savo;11
71920;Pajujärvi;Lapinlahti;402;Pohjois-Savo;11
71950;Lammasaho;Kuopio;297;Pohjois-Savo;11
71960;Lukkarila;Lapinlahti;402;Pohjois-Savo;11
72100;Karttula Keskus;Kuopio;297;Pohjois-Savo;11
72140;Itä-Karttula-Riuttasenpää;Kuopio;297;Pohjois-Savo;11
72210;Tervo Keskus-Eliaksela;Tervo;844;Pohjois-Savo;11
72220;Eliaksela;Tervo;844;Pohjois-Savo;11
72300;Vesanto Keskus;Vesanto;921;Pohjois-Savo;11
72310;Niinivesi;Vesanto;921;Pohjois-Savo;11
72330;Tiitilänkylä;Vesanto;921;Pohjois-Savo;11
72350;Pienola;Vesanto;921;Pohjois-Savo;11
72360;Närhilä;Vesanto;921;Pohjois-Savo;11
72380;Horontaipale;Vesanto;921;Pohjois-Savo;11
72400;Pielavesi Keskus-Jylänki;Pielavesi;595;Pohjois-Savo;11
72430;Kumpula;Pielavesi;595;Pohjois-Savo;11
72490;Saarinen;Kuopio;297;Pohjois-Savo;11
72510;Jokijärvi;Pielavesi;595;Pohjois-Savo;11
72530;Säviäntaipale;Pielavesi;595;Pohjois-Savo;11
72550;Säviä;Pielavesi;595;Pohjois-Savo;11
72570;Vuorikylä;Pielavesi;595;Pohjois-Savo;11
72600;Keitele Keskus;Keitele;239;Pohjois-Savo;11
72630;Kuusela-Rajala;Keitele;239;Pohjois-Savo;11
72710;Vaaraslahti;Pielavesi;595;Pohjois-Savo;11
72740;Laukkala;Pielavesi;595;Pohjois-Savo;11
72810;Jylhänkylä;Pielavesi;595;Pohjois-Savo;11
72840;Saarela;Pielavesi;595;Pohjois-Savo;11
72930;Tossavanlahti;Keitele;239;Pohjois-Savo;11
72950;Porttila;Keitele;239;Pohjois-Savo;11
72980;Petäjäkylä;Keitele;239;Pohjois-Savo;11
73100;Lapinlahti Keskus;Lapinlahti;402;Pohjois-Savo;11
73110;Mäntylahti-Karvasalmi;Lapinlahti;402;Pohjois-Savo;11
73120;Nerkoo-Horsmanmäki;Lapinlahti;402;Pohjois-Savo;11
73200;Varpaisjärvi Keskus;Lapinlahti;402;Pohjois-Savo;11
73230;Syvärinpää;Lapinlahti;402;Pohjois-Savo;11
73250;Korpijärvi;Lapinlahti;402;Pohjois-Savo;11
73300;Nilsiä Keskus;Kuopio;297;Pohjois-Savo;11
73310;Tahkovuori;Kuopio;297;Pohjois-Savo;11
73320;Reittiö;Kuopio;297;Pohjois-Savo;11
73350;Haluna;Kuopio;297;Pohjois-Savo;11
73360;Pajulahti;Kuopio;297;Pohjois-Savo;11
73410;Pieksänkoski;Kuopio;297;Pohjois-Savo;11
73460;Muuruvesi;Kuopio;297;Pohjois-Savo;11
73470;Västinniemi;Kuopio;297;Pohjois-Savo;11
73500;Juankoski Keskus;Kuopio;297;Pohjois-Savo;11
73600;Kaavi Keskus;Kaavi;204;Pohjois-Savo;11
73620;Kortteinen-Rasilampi;Kaavi;204;Pohjois-Savo;11
73640;Sivakkavaara;Kaavi;204;Pohjois-Savo;11
73645;Niinivaara-Onnivaara;Kaavi;204;Pohjois-Savo;11
73670;Luikonlahti;Kaavi;204;Pohjois-Savo;11
73710;Viitaniemi;Kuopio;297;Pohjois-Savo;11
73730;Losomäki;Kuopio;297;Pohjois-Savo;11
73770;Säyneinen-Ala-Siikajärvi;Kuopio;297;Pohjois-Savo;11
73810;Palonurmi-Aholansaari;Kuopio;297;Pohjois-Savo;11
73830;Keski-Siikajärvi;Kuopio;297;Pohjois-Savo;11
73850;Ala-Luosta-Riitasalo;Rautavaara;687;Pohjois-Savo;11
73860;Pykälikkö;Rautavaara;687;Pohjois-Savo;11
73900;Rautavaara Keskus;Rautavaara;687;Pohjois-Savo;11
73970;Riitasalo;Rautavaara;687;Pohjois-Savo;11
73990;Kangaslahti;Rautavaara;687;Pohjois-Savo;11
74100;Iisalmi Keskus, Eteläinen;Iisalmi;140;Pohjois-Savo;11
74120;Iisalmi Keskus Pohjoinen;Iisalmi;140;Pohjois-Savo;11
74130;Kihmula;Iisalmi;140;Pohjois-Savo;11
74140;Ritoniemi;Iisalmi;140;Pohjois-Savo;11
74150;Laidunmäki;Iisalmi;140;Pohjois-Savo;11
74160;Koljonvirta;Iisalmi;140;Pohjois-Savo;11
74170;Soinlahti;Iisalmi;140;Pohjois-Savo;11
74200;Vieremä Keskus;Vieremä;925;Pohjois-Savo;11
74230;Salahmi;Vieremä;925;Pohjois-Savo;11
74240;Marttisenjärvi;Vieremä;925;Pohjois-Savo;11
74250;Nissilä;Vieremä;925;Pohjois-Savo;11
74270;Kauppilanmäki;Vieremä;925;Pohjois-Savo;11
74300;Sonkajärvi Keskus;Sonkajärvi;762;Pohjois-Savo;11
74340;Sukeva-Kainuunmäki;Sonkajärvi;762;Pohjois-Savo;11
74345;Kalliosuo;Sonkajärvi;762;Pohjois-Savo;11
74360;Sonkakoski;Sonkajärvi;762;Pohjois-Savo;11
74380;Jyrkkä;Sonkajärvi;762;Pohjois-Savo;11
74390;Laakajärvi;Sotkamo;765;Kainuu;18
74420;Hernejärvi;Sonkajärvi;762;Pohjois-Savo;11
74470;Paloinen;Lapinlahti;402;Pohjois-Savo;11
74490;Koirakoski;Sonkajärvi;762;Pohjois-Savo;11
74510;Peltosalmi-Sourunsalo;Iisalmi;140;Pohjois-Savo;11
74520;Kirmanranta;Iisalmi;140;Pohjois-Savo;11
74540;Kotikylä;Iisalmi;140;Pohjois-Savo;11
74550;Pörsänmäki;Iisalmi;140;Pohjois-Savo;11
74590;Kurenpolvi;Vieremä;925;Pohjois-Savo;11
74595;Runni;Iisalmi;140;Pohjois-Savo;11
74610;Honkaranta;Kiuruvesi;263;Pohjois-Savo;11
74630;Heinäkylä;Kiuruvesi;263;Pohjois-Savo;11
74640;Sulkavanjärvi;Kiuruvesi;263;Pohjois-Savo;11
74670;Rapakkojoki;Kiuruvesi;263;Pohjois-Savo;11
74680;Myllyniemi;Kiuruvesi;263;Pohjois-Savo;11
74700;Kiuruvesi Keskus;Kiuruvesi;263;Pohjois-Savo;11
74720;Niemiskylä;Kiuruvesi;263;Pohjois-Savo;11
74740;Aittojärvi;Kiuruvesi;263;Pohjois-Savo;11
74770;Kalliokylä;Kiuruvesi;263;Pohjois-Savo;11
74840;Koppeloharju;Kiuruvesi;263;Pohjois-Savo;11
74940;Remeskylä-Tihilänkangas;Kiuruvesi;263;Pohjois-Savo;11
74980;Tihilänkangas;Kiuruvesi;263;Pohjois-Savo;11
75500;Nurmes Keskus;Nurmes;541;Pohjois-Karjala;12
75530;Porokylä;Nurmes;541;Pohjois-Karjala;12
75650;Savikylä;Nurmes;541;Pohjois-Karjala;12
75680;Ylä-Luosta;Rautavaara;687;Pohjois-Savo;11
75700;Valtimo Keskus;Nurmes;541;Pohjois-Karjala;12
75710;Karhunpää;Nurmes;541;Pohjois-Karjala;12
75740;Pajukoski;Nurmes;541;Pohjois-Karjala;12
75770;Puukari;Nurmes;541;Pohjois-Karjala;12
75790;Rumo;Nurmes;541;Pohjois-Karjala;12
75840;Ylä-Valtimo;Nurmes;541;Pohjois-Karjala;12
75890;Saramo-Petäiskylä-Mujejärvi;Nurmes;541;Pohjois-Karjala;12
75930;Petäiskylä;Nurmes;541;Pohjois-Karjala;12
75940;Mujejärvi;Nurmes;541;Pohjois-Karjala;12
75970;Kohtavaara;Nurmes;541;Pohjois-Karjala;12
75990;Höljäkkä;Nurmes;541;Pohjois-Karjala;12
76100;Pieksämäki Keskus;Pieksämäki;593;Etelä-Savo;10
76120;Kontiopuisto;Pieksämäki;593;Etelä-Savo;10
76130;Pappilanmäki;Pieksämäki;593;Etelä-Savo;10
76150;Länsirinne;Pieksämäki;593;Etelä-Savo;10
76280;Partaharju;Pieksämäki;593;Etelä-Savo;10
76620;Pyhitty;Pieksämäki;593;Etelä-Savo;10
76780;Lamminmäki;Pieksämäki;593;Etelä-Savo;10
76850;Naarajärvi;Pieksämäki;593;Etelä-Savo;10
76940;Nenonpelto;Pieksämäki;593;Etelä-Savo;10
77110;Paltanen;Pieksämäki;593;Etelä-Savo;10
77120;Venetmäki;Pieksämäki;593;Etelä-Savo;10
77140;Huumala;Pieksämäki;593;Etelä-Savo;10
77220;Neuvola;Pieksämäki;593;Etelä-Savo;10
77240;Halkokumpu;Pieksämäki;593;Etelä-Savo;10
77320;Hurskaala;Pieksämäki;593;Etelä-Savo;10
77330;Virtasalmi Keskus;Pieksämäki;593;Etelä-Savo;10
77350;Montola;Pieksämäki;593;Etelä-Savo;10
77380;Kantala;Mikkeli;491;Etelä-Savo;10
77430;Siikamäki;Pieksämäki;593;Etelä-Savo;10
77460;Maavesi;Joroinen;171;Etelä-Savo;10
77480;Savuniemi;Joroinen;171;Etelä-Savo;10
77520;Haapakoski-Partaharju;Pieksämäki;593;Etelä-Savo;10
77570;Jäppilä Keskus;Pieksämäki;593;Etelä-Savo;10
77580;Tihusniemi;Pieksämäki;593;Etelä-Savo;10
77600;Suonenjoki Keskus;Suonenjoki;778;Pohjois-Savo;11
77630;Lempyy;Suonenjoki;778;Pohjois-Savo;11
77690;Suontee;Suonenjoki;778;Pohjois-Savo;11
77700;Rautalampi Keskus;Rautalampi;686;Pohjois-Savo;11
77770;Myhinpää;Rautalampi;686;Pohjois-Savo;11
77800;Iisvesi;Suonenjoki;778;Pohjois-Savo;11
77910;Vaajasalmi;Rautalampi;686;Pohjois-Savo;11
77930;Kerkonjoensuu;Rautalampi;686;Pohjois-Savo;11
77960;Pakarila;Rautalampi;686;Pohjois-Savo;11
78200;Varkaus Keskus;Varkaus;915;Pohjois-Savo;11
78210;Kuoppakangas;Varkaus;915;Pohjois-Savo;11
78250;Päiviönsaari;Varkaus;915;Pohjois-Savo;11
78300;Kommila;Varkaus;915;Pohjois-Savo;11
78310;Puurtila;Leppävirta;420;Pohjois-Savo;11
78400;Luttila;Varkaus;915;Pohjois-Savo;11
78480;Timola;Leppävirta;420;Pohjois-Savo;11
78500;Pitkälänniemi-Könönpelto;Varkaus;915;Pohjois-Savo;11
78610;Kurola;Varkaus;915;Pohjois-Savo;11
78710;Akonlahti;Varkaus;915;Pohjois-Savo;11
78850;Käpykangas;Joroinen;171;Etelä-Savo;10
78870;Kaura-Aho;Varkaus;915;Pohjois-Savo;11
78880;Kuvansi;Joroinen;171;Etelä-Savo;10
78900;Ruokokoski;Varkaus;915;Pohjois-Savo;11
79100;Leppävirta Keskus;Leppävirta;420;Pohjois-Savo;11
79130;Sorsakoski;Leppävirta;420;Pohjois-Savo;11
79140;Kotalahti;Leppävirta;420;Pohjois-Savo;11
79150;Konnuslahti-Valkeamäki;Leppävirta;420;Pohjois-Savo;11
79160;Saamaiskylä;Leppävirta;420;Pohjois-Savo;11
79180;Tuppurinmäki;Leppävirta;420;Pohjois-Savo;11
79190;Valkeamäki;Leppävirta;420;Pohjois-Savo;11
79230;Moninmäki;Leppävirta;420;Pohjois-Savo;11
79255;Kurjala-Moninmäki;Leppävirta;420;Pohjois-Savo;11
79265;Puponmäki;Leppävirta;420;Pohjois-Savo;11
79330;Näädänmaa;Leppävirta;420;Pohjois-Savo;11
79350;Itä-Soisalo;Leppävirta;420;Pohjois-Savo;11
79410;Niinimäki;Leppävirta;420;Pohjois-Savo;11
79480;Kangaslampi Keskus;Varkaus;915;Pohjois-Savo;11
79520;Viljolahti;Varkaus;915;Pohjois-Savo;11
79600;Joroinen Keskus;Joroinen;171;Etelä-Savo;10
79620;Huutokoski;Joroinen;171;Etelä-Savo;10
79630;Kolma;Joroinen;171;Etelä-Savo;10
79660;Kerisalo;Joroinen;171;Etelä-Savo;10
79680;Lahnalahti;Joroinen;171;Etelä-Savo;10
79690;Kaitainen;Joroinen;171;Etelä-Savo;10
79700;Heinävesi Keskus;Heinävesi;90;Etelä-Savo;10
79810;Karvion kanava;Heinävesi;90;Etelä-Savo;10
79820;Varistaipale;Heinävesi;90;Etelä-Savo;10
79830;Palokki;Heinävesi;90;Etelä-Savo;10
79850;Uusi-Valamo;Heinävesi;90;Etelä-Savo;10
79860;Suuraho - Uusi-Valamo;Heinävesi;90;Etelä-Savo;10
79885;Etelä-Petruma;Heinävesi;90;Etelä-Savo;10
79895;Sarvikumpu;Heinävesi;90;Etelä-Savo;10
79910;Kerma;Heinävesi;90;Etelä-Savo;10
79940;Vihtari-Poikiinaho;Heinävesi;90;Etelä-Savo;10
80100;Joensuu Keskus, Pohjoinen;Joensuu;167;Pohjois-Karjala;12
80110;Joensuu Keskus Eteläinen;Joensuu;167;Pohjois-Karjala;12
80130;Kanervala;Joensuu;167;Pohjois-Karjala;12
80140;Noljakka;Joensuu;167;Pohjois-Karjala;12
80160;Rantakylä-Latola;Joensuu;167;Pohjois-Karjala;12
80170;Utra;Joensuu;167;Pohjois-Karjala;12
80200;Niinivaara;Joensuu;167;Pohjois-Karjala;12
80210;Sairaala-alue;Joensuu;167;Pohjois-Karjala;12
80220;Penttilä;Joensuu;167;Pohjois-Karjala;12
80230;Hukanhauta;Joensuu;167;Pohjois-Karjala;12
80260;Kettuvaara;Joensuu;167;Pohjois-Karjala;12
80330;Reijola;Joensuu;167;Pohjois-Karjala;12
80400;Ylämylly;Liperi;426;Pohjois-Karjala;12
80510;Onttola-Kunnasniemi;Kontiolahti;276;Pohjois-Karjala;12
80710;Lehmo;Kontiolahti;276;Pohjois-Karjala;12
80770;Kontiolahti as;Kontiolahti;276;Pohjois-Karjala;12
80780;Kontioniemi;Kontiolahti;276;Pohjois-Karjala;12
80790;Kontioranta-Kontioniemi;Kontiolahti;276;Pohjois-Karjala;12
80850;Paihola;Kontiolahti;276;Pohjois-Karjala;12
80910;Kulho;Kontiolahti;276;Pohjois-Karjala;12
81100;Kontiolahti;Kontiolahti;276;Pohjois-Karjala;12
81120;Katajaranta;Kontiolahti;276;Pohjois-Karjala;12
81160;Romppala-Riihikangas;Kontiolahti;276;Pohjois-Karjala;12
81200;Eno Keskus;Joensuu;167;Pohjois-Karjala;12
81210;Louhioja;Joensuu;167;Pohjois-Karjala;12
81220;Jakokoski;Kontiolahti;276;Pohjois-Karjala;12
81230;Mönni;Kontiolahti;276;Pohjois-Karjala;12
81235;Lehtoi;Kontiolahti;276;Pohjois-Karjala;12
81260;Ahveninen;Joensuu;167;Pohjois-Karjala;12
81270;Paukkaja;Joensuu;167;Pohjois-Karjala;12
81280;Uimaharju;Joensuu;167;Pohjois-Karjala;12
81290;Ukkola;Joensuu;167;Pohjois-Karjala;12
81295;Haapalahti;Joensuu;167;Pohjois-Karjala;12
81320;Kuismavaara;Joensuu;167;Pohjois-Karjala;12
81330;Luhtapohja;Joensuu;167;Pohjois-Karjala;12
81350;Tokrajärvi;Ilomantsi;146;Pohjois-Karjala;12
81360;Sarvinki;Joensuu;167;Pohjois-Karjala;12
81390;Revonkylä;Joensuu;167;Pohjois-Karjala;12
81420;Tyrjänsaari;Ilomantsi;146;Pohjois-Karjala;12
81430;Kivilahti;Ilomantsi;146;Pohjois-Karjala;12
81450;Huhus-Käenkoski;Ilomantsi;146;Pohjois-Karjala;12
81460;Käenkoski;Ilomantsi;146;Pohjois-Karjala;12
81470;Naarva;Ilomantsi;146;Pohjois-Karjala;12
81560;Vuonisjärvi;Lieksa;422;Pohjois-Karjala;12
81570;Kelvä;Lieksa;422;Pohjois-Karjala;12
81590;Vuonislahti;Lieksa;422;Pohjois-Karjala;12
81650;Hattuvaara;Lieksa;422;Pohjois-Karjala;12
81660;Lehmikylä;Lieksa;422;Pohjois-Karjala;12
81700;Lieksa Keskus;Lieksa;422;Pohjois-Karjala;12
81720;Mähkö-Timitra;Lieksa;422;Pohjois-Karjala;12
81750;Pankakoski;Lieksa;422;Pohjois-Karjala;12
81810;Jamali;Lieksa;422;Pohjois-Karjala;12
81820;Kylänlahti;Lieksa;422;Pohjois-Karjala;12
81850;Mätäsvaara;Lieksa;422;Pohjois-Karjala;12
81860;Viekijärvi;Lieksa;422;Pohjois-Karjala;12
81950;Pankajärvi;Lieksa;422;Pohjois-Karjala;12
81970;Jongunjoki-Pankajärvi;Lieksa;422;Pohjois-Karjala;12
82110;Heinävaara;Joensuu;167;Pohjois-Karjala;12
82120;Keskijärvi;Joensuu;167;Pohjois-Karjala;12
82140;Kiihtelysvaara Keskus;Joensuu;167;Pohjois-Karjala;12
82160;Oskola;Joensuu;167;Pohjois-Karjala;12
82170;Uskali;Joensuu;167;Pohjois-Karjala;12
82180;Huhtilampi;Joensuu;167;Pohjois-Karjala;12
82200;Hammaslahti;Joensuu;167;Pohjois-Karjala;12
82210;Suhmura;Joensuu;167;Pohjois-Karjala;12
82220;Niittylahti;Joensuu;167;Pohjois-Karjala;12
82290;Nieminen;Rääkkylä;707;Pohjois-Karjala;12
82300;Rääkkylä Keskus;Rääkkylä;707;Pohjois-Karjala;12
82310;Oravisalo-Varpasalo;Rääkkylä;707;Pohjois-Karjala;12
82335;Rasivaara;Rääkkylä;707;Pohjois-Karjala;12
82350;Tikkala;Tohmajärvi;848;Pohjois-Karjala;12
82360;Onkamo;Tohmajärvi;848;Pohjois-Karjala;12
82380;Tolosenmäki;Kitee;260;Pohjois-Karjala;12
82395;Haarajärvi;Kitee;260;Pohjois-Karjala;12
82430;Puhos-Leinovaara;Kitee;260;Pohjois-Karjala;12
82460;Hummovaara;Kitee;260;Pohjois-Karjala;12
82490;Heinoniemi;Kitee;260;Pohjois-Karjala;12
82500;Kitee Keskus;Kitee;260;Pohjois-Karjala;12
82510;Kiteenlahti;Kitee;260;Pohjois-Karjala;12
82580;Juurikka;Kitee;260;Pohjois-Karjala;12
82590;Närsäkkälä;Kitee;260;Pohjois-Karjala;12
82600;Tohmajärvi Keskus;Tohmajärvi;848;Pohjois-Karjala;12
82655;Värtsilä Keskus;Tohmajärvi;848;Pohjois-Karjala;12
82660;Uusi-Värtsilä;Tohmajärvi;848;Pohjois-Karjala;12
82670;Kaurila;Tohmajärvi;848;Pohjois-Karjala;12
82675;Niirala-Jänisjoki;Tohmajärvi;848;Pohjois-Karjala;12
82685;Littilä;Tohmajärvi;848;Pohjois-Karjala;12
82710;Kovero;Joensuu;167;Pohjois-Karjala;12
82730;Tuupovaara Keskus-Pirttiaho;Joensuu;167;Pohjois-Karjala;12
82750;Öllölä;Joensuu;167;Pohjois-Karjala;12
82760;Hoilola;Joensuu;167;Pohjois-Karjala;12
82770;Kaustajärvi;Tohmajärvi;848;Pohjois-Karjala;12
82815;Marjovaara;Joensuu;167;Pohjois-Karjala;12
82820;Maukkula;Ilomantsi;146;Pohjois-Karjala;12
82830;Haukivaara;Ilomantsi;146;Pohjois-Karjala;12
82840;Pirttiaho;Joensuu;167;Pohjois-Karjala;12
82850;Kinnasniemi;Joensuu;167;Pohjois-Karjala;12
82865;Kokinvaara-Mannervaara;Joensuu;167;Pohjois-Karjala;12
82870;Luutalahti;Joensuu;167;Pohjois-Karjala;12
82880;Mannervaara;Joensuu;167;Pohjois-Karjala;12
82900;Ilomantsi Keskus;Ilomantsi;146;Pohjois-Karjala;12
82915;Sonkaja;Ilomantsi;146;Pohjois-Karjala;12
82960;Lehtovaara-Kuikkalampi;Ilomantsi;146;Pohjois-Karjala;12
82967;Hattu;Ilomantsi;146;Pohjois-Karjala;12
82980;Möhkö;Ilomantsi;146;Pohjois-Karjala;12
83100;Liperi Keskus;Liperi;426;Pohjois-Karjala;12
83130;Salokylä;Liperi;426;Pohjois-Karjala;12
83140;Puromäki;Liperi;426;Pohjois-Karjala;12
83150;Roukalahti;Liperi;426;Pohjois-Karjala;12
83160;Tutjunniemi;Liperi;426;Pohjois-Karjala;12
83320;Risti-Juojärvi;Liperi;426;Pohjois-Karjala;12
83330;Kaatamo;Liperi;426;Pohjois-Karjala;12
83340;Kaarnalampi;Liperi;426;Pohjois-Karjala;12
83400;Viinijärvi;Liperi;426;Pohjois-Karjala;12
83430;Käsämä;Liperi;426;Pohjois-Karjala;12
83450;Vaivio;Liperi;426;Pohjois-Karjala;12
83460;Harinjärvi;Liperi;426;Pohjois-Karjala;12
83480;Ahonkylä;Liperi;426;Pohjois-Karjala;12
83500;Outokumpu Keskus;Outokumpu;309;Pohjois-Karjala;12
83550;Kokonvaara;Outokumpu;309;Pohjois-Karjala;12
83630;Kuusjärvi;Outokumpu;309;Pohjois-Karjala;12
83660;Varislahti;Outokumpu;309;Pohjois-Karjala;12
83700;Polvijärvi Keskus;Polvijärvi;607;Pohjois-Karjala;12
83720;Kuorevaara;Polvijärvi;607;Pohjois-Karjala;12
83750;Sotkuma;Polvijärvi;607;Pohjois-Karjala;12
83760;Sola;Polvijärvi;607;Pohjois-Karjala;12
83780;Horsmanaho;Polvijärvi;607;Pohjois-Karjala;12
83825;Kinahmo;Polvijärvi;607;Pohjois-Karjala;12
83830;Hukkala;Polvijärvi;607;Pohjois-Karjala;12
83835;Ruvaslahti;Polvijärvi;607;Pohjois-Karjala;12
83840;Saarivaara;Polvijärvi;607;Pohjois-Karjala;12
83855;Martonvaara-Sammakkovaara;Polvijärvi;607;Pohjois-Karjala;12
83870;Polvela-Timovaara;Juuka;176;Pohjois-Karjala;12
83880;Kajoo;Juuka;176;Pohjois-Karjala;12
83900;Juuka Keskus;Juuka;176;Pohjois-Karjala;12
83910;Paalasmaa;Juuka;176;Pohjois-Karjala;12
83915;Vihtasuo;Juuka;176;Pohjois-Karjala;12
83940;Nunnanlahti;Juuka;176;Pohjois-Karjala;12
83950;Ahmovaara;Juuka;176;Pohjois-Karjala;12
83960;Koli;Lieksa;422;Pohjois-Karjala;12
83985;Tuopanjoki;Juuka;176;Pohjois-Karjala;12
84100;Ylivieska Keskus;Ylivieska;977;Pohjois-Pohjanmaa;17
84460;Tuomiperä;Ylivieska;977;Pohjois-Pohjanmaa;17
84540;Vähäkangas;Ylivieska;977;Pohjois-Pohjanmaa;17
84650;Kantokylä;Ylivieska;977;Pohjois-Pohjanmaa;17
84770;Isokoski;Ylivieska;977;Pohjois-Pohjanmaa;17
84880;Raudaskylä;Ylivieska;977;Pohjois-Pohjanmaa;17
85100;Kalajoki Keskus;Kalajoki;208;Pohjois-Pohjanmaa;17
85120;Metsä;Kalajoki;208;Pohjois-Pohjanmaa;17
85140;Tynkä;Kalajoki;208;Pohjois-Pohjanmaa;17
85150;Typpö;Kalajoki;208;Pohjois-Pohjanmaa;17
85160;Rautio;Kalajoki;208;Pohjois-Pohjanmaa;17
85180;Rahja;Kalajoki;208;Pohjois-Pohjanmaa;17
85200;Alavieska Keskus;Alavieska;9;Pohjois-Pohjanmaa;17
85210;Kähtävä;Alavieska;9;Pohjois-Pohjanmaa;17
85230;Talus;Alavieska;9;Pohjois-Pohjanmaa;17
85310;Sievi Asemanseutu;Sievi;746;Pohjois-Pohjanmaa;17
85320;Markkula;Sievi;746;Pohjois-Pohjanmaa;17
85340;Jyrinki;Sievi;746;Pohjois-Pohjanmaa;17
85410;Sievi Keskus;Sievi;746;Pohjois-Pohjanmaa;17
85430;Koivisto;Sievi;746;Pohjois-Pohjanmaa;17
85450;Joenkylä;Sievi;746;Pohjois-Pohjanmaa;17
85470;Kiiskilampi;Sievi;746;Pohjois-Pohjanmaa;17
85500;Nivala Keskus;Nivala;535;Pohjois-Pohjanmaa;17
85540;Mönkö;Nivala;535;Pohjois-Pohjanmaa;17
85560;Ainastalo;Nivala;535;Pohjois-Pohjanmaa;17
85580;Karvoskylä;Nivala;535;Pohjois-Pohjanmaa;17
85620;Sarja;Nivala;535;Pohjois-Pohjanmaa;17
85630;Sarjanahde;Nivala;535;Pohjois-Pohjanmaa;17
85640;Maliskylä;Nivala;535;Pohjois-Pohjanmaa;17
85660;Ruuskankylä;Nivala;535;Pohjois-Pohjanmaa;17
85710;Parkkila;Haapajärvi;69;Pohjois-Pohjanmaa;17
85730;Tulppo;Haapajärvi;69;Pohjois-Pohjanmaa;17
85800;Haapajärvi Keskus;Haapajärvi;69;Pohjois-Pohjanmaa;17
85820;Oksava;Haapajärvi;69;Pohjois-Pohjanmaa;17
85840;Kuona;Haapajärvi;69;Pohjois-Pohjanmaa;17
85900;Reisjärvi Keskus;Reisjärvi;691;Pohjois-Pohjanmaa;17
85930;Kangaskylä-Tolpankangas;Reisjärvi;691;Pohjois-Pohjanmaa;17
85940;Räisälänmäki;Reisjärvi;691;Pohjois-Pohjanmaa;17
85980;Köyhänperä;Reisjärvi;691;Pohjois-Pohjanmaa;17
86100;Pyhäjoki Keskus;Pyhäjoki;625;Pohjois-Pohjanmaa;17
86110;Parhalahti;Pyhäjoki;625;Pohjois-Pohjanmaa;17
86160;Pirttikoski;Pyhäjoki;625;Pohjois-Pohjanmaa;17
86170;Yppäri;Pyhäjoki;625;Pohjois-Pohjanmaa;17
86210;Petäjäskoski;Oulainen;563;Pohjois-Pohjanmaa;17
86220;Merijärvi Keskus;Merijärvi;483;Pohjois-Pohjanmaa;17
86230;Ylipää;Merijärvi;483;Pohjois-Pohjanmaa;17
86240;Pyhänkoski;Merijärvi;483;Pohjois-Pohjanmaa;17
86300;Oulainen Keskus;Oulainen;563;Pohjois-Pohjanmaa;17
86350;Kilpua;Oulainen;563;Pohjois-Pohjanmaa;17
86360;Ilveskorpi;Raahe;678;Pohjois-Pohjanmaa;17
86400;Vihanti Keskus;Raahe;678;Pohjois-Pohjanmaa;17
86440;Lampinsaari;Raahe;678;Pohjois-Pohjanmaa;17
86460;Alpua;Raahe;678;Pohjois-Pohjanmaa;17
86470;Lumimetsä;Raahe;678;Pohjois-Pohjanmaa;17
86480;Karhukangas;Haapavesi;71;Pohjois-Pohjanmaa;17
86510;Matkaniva;Oulainen;563;Pohjois-Pohjanmaa;17
86530;Annonen;Haapavesi;71;Pohjois-Pohjanmaa;17
86550;Mieluskylä;Haapavesi;71;Pohjois-Pohjanmaa;17
86600;Haapavesi Keskus;Haapavesi;71;Pohjois-Pohjanmaa;17
86650;Kytökylä-Joutenniva;Haapavesi;71;Pohjois-Pohjanmaa;17
86680;Vatjusjärvi;Haapavesi;71;Pohjois-Pohjanmaa;17
86690;Karsikas;Haapavesi;71;Pohjois-Pohjanmaa;17
86710;Kärsämäki Keskus;Kärsämäki;317;Pohjois-Pohjanmaa;17
86790;Venetpalo;Kärsämäki;317;Pohjois-Pohjanmaa;17
86800;Pyhäsalmi;Pyhäjärvi;626;Pohjois-Pohjanmaa;17
86810;Pellikkaperä;Pyhäjärvi;626;Pohjois-Pohjanmaa;17
86850;Hiidenniemi;Pyhäjärvi;626;Pohjois-Pohjanmaa;17
86870;Vesikoski;Pyhäjärvi;626;Pohjois-Pohjanmaa;17
86900;Pyhäkumpu;Pyhäjärvi;626;Pohjois-Pohjanmaa;17
86980;Väliaho;Pyhäjärvi;626;Pohjois-Pohjanmaa;17
87100;Kajaani Keskus;Kajaani;205;Kainuu;18
87150;Purola;Kajaani;205;Kainuu;18
87200;Teppana;Kajaani;205;Kainuu;18
87250;Kättö-Kätönlahti;Kajaani;205;Kainuu;18
87300;Palokangas;Kajaani;205;Kainuu;18
87400;Petäisenniska;Kajaani;205;Kainuu;18
87500;Lehtikangas;Kajaani;205;Kainuu;18
87700;Lohtaja-Kettu;Kajaani;205;Kainuu;18
87800;Vuoreslahti;Kajaani;205;Kainuu;18
87830;Nakertaja;Kajaani;205;Kainuu;18
87850;Paltaniemi;Kajaani;205;Kainuu;18
87900;Karankalahti;Kajaani;205;Kainuu;18
87910;Linnantaus;Kajaani;205;Kainuu;18
87930;Salmijärvi;Kajaani;205;Kainuu;18
87950;Kuluntalahti;Kajaani;205;Kainuu;18
87970;Jormua;Kajaani;205;Kainuu;18
88120;Tuhkakylä;Sotkamo;765;Kainuu;18
88200;Otanmäki-Kytökoski;Kajaani;205;Kainuu;18
88270;Vuolijoki Keskus;Kajaani;205;Kainuu;18
88300;Paltamo Keskus;Paltamo;578;Kainuu;18
88310;Melalahti;Paltamo;578;Kainuu;18
88340;Manamansalo;Vaala;785;Pohjois-Pohjanmaa;17
88350;Kivesjärvi;Paltamo;578;Kainuu;18
88380;Mieslahti;Paltamo;578;Kainuu;18
88400;Ristijärvi Keskus-Hiisijärvi;Ristijärvi;697;Kainuu;18
88440;Jokikylä;Ristijärvi;697;Kainuu;18
88460;Hiisijärvi;Ristijärvi;697;Kainuu;18
88470;Kontiomäki;Paltamo;578;Kainuu;18
88490;Pohjavaara;Sotkamo;765;Kainuu;18
88530;Paakki;Sotkamo;765;Kainuu;18
88600;Sotkamo Keskus;Sotkamo;765;Kainuu;18
88610;Vuokatti;Sotkamo;765;Kainuu;18
88615;Vuokatin Urheiluopisto;Sotkamo;765;Kainuu;18
88620;Korholanmäki;Sotkamo;765;Kainuu;18
88640;Ontojoki;Sotkamo;765;Kainuu;18
88670;Juurikkalahti-Maanselkä;Sotkamo;765;Kainuu;18
88690;Maanselkä;Sotkamo;765;Kainuu;18
88730;Ylä-Vieksi;Kuhmo;290;Kainuu;18
88740;Härmänkylä-Iivantiira;Kuhmo;290;Kainuu;18
88760;Iivantiira;Kuhmo;290;Kainuu;18
88820;Katerma;Kuhmo;290;Kainuu;18
88900;Kuhmo Keskus;Kuhmo;290;Kainuu;18
88930;Lentiira-Kuumu;Kuhmo;290;Kainuu;18
88940;Kuumu;Kuhmo;290;Kainuu;18
89110;Törmänmäki;Puolanka;620;Kainuu;18
89140;Kotila-Törmänmäki;Puolanka;620;Kainuu;18
89200;Puolanka Keskus;Puolanka;620;Kainuu;18
89210;Puokiovaara;Puolanka;620;Kainuu;18
89320;Joukokylä;Puolanka;620;Kainuu;18
89330;Suolijärvi;Puolanka;620;Kainuu;18
89400;Hyrynsalmi Keskus;Hyrynsalmi;105;Kainuu;18
89430;Hoikka;Hyrynsalmi;105;Kainuu;18
89440;Sakara;Suomussalmi;777;Kainuu;18
89540;Moisiovaara;Hyrynsalmi;105;Kainuu;18
89560;Karhuvaara;Hyrynsalmi;105;Kainuu;18
89600;Ämmänsaari;Suomussalmi;777;Kainuu;18
89610;Jumaliskylä;Suomussalmi;777;Kainuu;18
89640;Pesiökylä;Suomussalmi;777;Kainuu;18
89660;Takalo;Suomussalmi;777;Kainuu;18
89670;Näljänkä;Suomussalmi;777;Kainuu;18
89680;Vaaranniva;Suomussalmi;777;Kainuu;18
89730;Ahjola;Suomussalmi;777;Kainuu;18
89740;Kianta;Suomussalmi;777;Kainuu;18
89760;Piispajärvi-Peranka-Kaikkoinen;Suomussalmi;777;Kainuu;18
89770;Peranka;Suomussalmi;777;Kainuu;18
89780;Kaikkonen;Suomussalmi;777;Kainuu;18
89800;Suomussalmi Keskus;Suomussalmi;777;Kainuu;18
89830;Ala-Vuokki;Suomussalmi;777;Kainuu;18
89840;Ylä-Vuokki;Suomussalmi;777;Kainuu;18
89920;Ruhtinansalmi;Suomussalmi;777;Kainuu;18
90100;Oulu Keskus;Oulu;564;Pohjois-Pohjanmaa;17
90120;Heinäpää;Oulu;564;Pohjois-Pohjanmaa;17
90130;Raksila;Oulu;564;Pohjois-Pohjanmaa;17
90140;Karjasilta;Oulu;564;Pohjois-Pohjanmaa;17
90150;Höyhtyä;Oulu;564;Pohjois-Pohjanmaa;17
90220;Kontinkangas;Oulu;564;Pohjois-Pohjanmaa;17
90230;Värttö-Maikkula;Oulu;564;Pohjois-Pohjanmaa;17
90240;Iinatti;Oulu;564;Pohjois-Pohjanmaa;17
90250;Kaukovainio;Oulu;564;Pohjois-Pohjanmaa;17
90310;Madekoski;Oulu;564;Pohjois-Pohjanmaa;17
90400;Äimärautio;Oulu;564;Pohjois-Pohjanmaa;17
90410;Kaakkuri;Oulu;564;Pohjois-Pohjanmaa;17
90420;Metsokangas;Oulu;564;Pohjois-Pohjanmaa;17
90440;Kempele Keskus;Kempele;244;Pohjois-Pohjanmaa;17
90450;Honkanen;Kempele;244;Pohjois-Pohjanmaa;17
90460;Oulunsalo Keskus;Oulu;564;Pohjois-Pohjanmaa;17
90470;Varjakka;Oulu;564;Pohjois-Pohjanmaa;17
90480;Hailuoto;Hailuoto;72;Pohjois-Pohjanmaa;17
90500;Tuira;Oulu;564;Pohjois-Pohjanmaa;17
90510;Hietasaari;Oulu;564;Pohjois-Pohjanmaa;17
90520;Taskila-Toppila;Oulu;564;Pohjois-Pohjanmaa;17
90530;Välivainio;Oulu;564;Pohjois-Pohjanmaa;17
90540;Kuivasjärvi;Oulu;564;Pohjois-Pohjanmaa;17
90550;Pyykösjärvi-Puolivälikangas;Oulu;564;Pohjois-Pohjanmaa;17
90560;Koskela-Oulu;Oulu;564;Pohjois-Pohjanmaa;17
90570;Kaijonharju-Linnanmaa;Oulu;564;Pohjois-Pohjanmaa;17
90580;Rajakylä;Oulu;564;Pohjois-Pohjanmaa;17
90590;Teknologiakylä;Oulu;564;Pohjois-Pohjanmaa;17
90620;Rusko-Heikinharju;Oulu;564;Pohjois-Pohjanmaa;17
90630;Korvensuora;Oulu;564;Pohjois-Pohjanmaa;17
90650;Haapalehto;Oulu;564;Pohjois-Pohjanmaa;17
90660;Sanginsuu;Oulu;564;Pohjois-Pohjanmaa;17
90670;Hiukkavaara;Oulu;564;Pohjois-Pohjanmaa;17
90800;Pateniemi;Oulu;564;Pohjois-Pohjanmaa;17
90810;Kiviniemi;Oulu;564;Pohjois-Pohjanmaa;17
90820;Kello;Oulu;564;Pohjois-Pohjanmaa;17
90830;Haukipudas Keskus;Oulu;564;Pohjois-Pohjanmaa;17
90840;Haukipudas Asemanseutu;Oulu;564;Pohjois-Pohjanmaa;17
90850;Martinniemi;Oulu;564;Pohjois-Pohjanmaa;17
90860;Halosenniemi;Oulu;564;Pohjois-Pohjanmaa;17
90900;Kiiminki Keskus;Oulu;564;Pohjois-Pohjanmaa;17
90910;Kontio;Oulu;564;Pohjois-Pohjanmaa;17
90940;Jääli;Oulu;564;Pohjois-Pohjanmaa;17
91100;Ii Keskus;Ii;139;Pohjois-Pohjanmaa;17
91110;Ii Asemanseutu;Ii;139;Pohjois-Pohjanmaa;17
91140;Olhava;Ii;139;Pohjois-Pohjanmaa;17
91150;Yli-Olhava;Ii;139;Pohjois-Pohjanmaa;17
91200;Yli-Ii Keskus;Oulu;564;Pohjois-Pohjanmaa;17
91210;Jakkukylä;Ii;139;Pohjois-Pohjanmaa;17
91240;Tannila;Oulu;564;Pohjois-Pohjanmaa;17
91260;Pahkakoski-Räinä;Oulu;564;Pohjois-Pohjanmaa;17
91300;Ylikiiminki Keskus;Oulu;564;Pohjois-Pohjanmaa;17
91310;Arkala;Oulu;564;Pohjois-Pohjanmaa;17
91410;Jokirinne;Muhos;494;Pohjois-Pohjanmaa;17
91430;Leppiniemi;Muhos;494;Pohjois-Pohjanmaa;17
91500;Muhos Keskus;Muhos;494;Pohjois-Pohjanmaa;17
91510;Rova;Muhos;494;Pohjois-Pohjanmaa;17
91560;Kylmälänkylä;Muhos;494;Pohjois-Pohjanmaa;17
91600;Utajärvi Keskus;Utajärvi;889;Pohjois-Pohjanmaa;17
91620;Sanginkylä;Utajärvi;889;Pohjois-Pohjanmaa;17
91630;Juorkuna;Utajärvi;889;Pohjois-Pohjanmaa;17
91640;Särkijärvi;Utajärvi;889;Pohjois-Pohjanmaa;17
91660;Ahmas;Utajärvi;889;Pohjois-Pohjanmaa;17
91670;Rokua;Utajärvi;889;Pohjois-Pohjanmaa;17
91700;Vaala Keskus-Oterma;Vaala;785;Pohjois-Pohjanmaa;17
91710;Jylhämä;Vaala;785;Pohjois-Pohjanmaa;17
91720;Oterma;Vaala;785;Pohjois-Pohjanmaa;17
91730;Kankari;Vaala;785;Pohjois-Pohjanmaa;17
91740;Jaalanka-Liminpuro;Vaala;785;Pohjois-Pohjanmaa;17
91750;Liminpuro;Vaala;785;Pohjois-Pohjanmaa;17
91760;Säräisniemi;Vaala;785;Pohjois-Pohjanmaa;17
91780;Neittävä;Vaala;785;Pohjois-Pohjanmaa;17
91790;Nuojua;Vaala;785;Pohjois-Pohjanmaa;17
91800;Tyrnävä;Tyrnävä;859;Pohjois-Pohjanmaa;17
91900;Liminka Keskus;Liminka;425;Pohjois-Pohjanmaa;17
91910;Tupos;Liminka;425;Pohjois-Pohjanmaa;17
91930;Ala-Temmes;Liminka;425;Pohjois-Pohjanmaa;17
91950;Temmes;Liminka;425;Pohjois-Pohjanmaa;17
91980;Lumijoki;Lumijoki;436;Pohjois-Pohjanmaa;17
92100;Raahe Keskus;Raahe;678;Pohjois-Pohjanmaa;17
92120;Ollinsaari-Mestauskallio;Raahe;678;Pohjois-Pohjanmaa;17
92130;Isoholmi-Antinkangas;Raahe;678;Pohjois-Pohjanmaa;17
92140;Pattijoki Keskus;Raahe;678;Pohjois-Pohjanmaa;17
92150;Kummatti-Junnilanmäki;Raahe;678;Pohjois-Pohjanmaa;17
92160;Saloinen;Raahe;678;Pohjois-Pohjanmaa;17
92180;Lapaluoto;Raahe;678;Pohjois-Pohjanmaa;17
92210;Arkkukari;Raahe;678;Pohjois-Pohjanmaa;17
92220;Piehinki;Raahe;678;Pohjois-Pohjanmaa;17
92230;Mattilanperä;Raahe;678;Pohjois-Pohjanmaa;17
92240;Lasikangas;Raahe;678;Pohjois-Pohjanmaa;17
92260;Kopsa;Raahe;678;Pohjois-Pohjanmaa;17
92320;Siikajoki Keskus;Siikajoki;748;Pohjois-Pohjanmaa;17
92330;Karinkanta;Siikajoki;748;Pohjois-Pohjanmaa;17
92350;Revonlahti;Siikajoki;748;Pohjois-Pohjanmaa;17
92400;Ruukki Keskus;Siikajoki;748;Pohjois-Pohjanmaa;17
92430;Paavola-Huumola;Siikajoki;748;Pohjois-Pohjanmaa;17
92440;Saarikoski;Siikajoki;748;Pohjois-Pohjanmaa;17
92450;Luohua;Siikajoki;748;Pohjois-Pohjanmaa;17
92470;Tuomioja;Siikajoki;748;Pohjois-Pohjanmaa;17
92500;Rantsila Keskus;Siikalatva;791;Pohjois-Pohjanmaa;17
92520;Sipola;Siikalatva;791;Pohjois-Pohjanmaa;17
92530;Mankila;Siikalatva;791;Pohjois-Pohjanmaa;17
92600;Pulkkila Keskus;Siikalatva;791;Pohjois-Pohjanmaa;17
92610;Vorna;Siikalatva;791;Pohjois-Pohjanmaa;17
92620;Piippola Keskus;Siikalatva;791;Pohjois-Pohjanmaa;17
92640;Leskelä;Siikalatva;791;Pohjois-Pohjanmaa;17
92650;Laakkola;Siikalatva;791;Pohjois-Pohjanmaa;17
92700;Kestilä;Siikalatva;791;Pohjois-Pohjanmaa;17
92810;Pelsonsuo;Vaala;785;Pohjois-Pohjanmaa;17
92830;Veneheitto;Vaala;785;Pohjois-Pohjanmaa;17
92910;Tavastkenkä;Pyhäntä;630;Pohjois-Pohjanmaa;17
92920;Ahokylä;Pyhäntä;630;Pohjois-Pohjanmaa;17
92930;Pyhäntä;Pyhäntä;630;Pohjois-Pohjanmaa;17
93100;Pudasjärvi Keskus;Pudasjärvi;615;Pohjois-Pohjanmaa;17
93140;Kipinä;Pudasjärvi;615;Pohjois-Pohjanmaa;17
93160;Hetejärvi;Pudasjärvi;615;Pohjois-Pohjanmaa;17
93170;Yli-Kollaja;Pudasjärvi;615;Pohjois-Pohjanmaa;17
93180;Ikosenniemi;Pudasjärvi;615;Pohjois-Pohjanmaa;17
93187;Ala-Siurua;Pudasjärvi;615;Pohjois-Pohjanmaa;17
93190;Yli-Siurua-Ikosenniemi;Pudasjärvi;615;Pohjois-Pohjanmaa;17
93195;Kokkokylä;Pudasjärvi;615;Pohjois-Pohjanmaa;17
93220;Livo;Pudasjärvi;615;Pohjois-Pohjanmaa;17
93225;Pärjänsuo;Pudasjärvi;615;Pohjois-Pohjanmaa;17
93240;Rytinki;Pudasjärvi;615;Pohjois-Pohjanmaa;17
93250;Sarajärvi;Pudasjärvi;615;Pohjois-Pohjanmaa;17
93270;Sotkajärvi;Pudasjärvi;615;Pohjois-Pohjanmaa;17
93277;Iinattijärvi;Pudasjärvi;615;Pohjois-Pohjanmaa;17
93280;Syöte;Pudasjärvi;615;Pohjois-Pohjanmaa;17
93290;Pintamo;Pudasjärvi;615;Pohjois-Pohjanmaa;17
93350;Jaurakkajärvi;Pudasjärvi;615;Pohjois-Pohjanmaa;17
93390;Puhoskylä;Pudasjärvi;615;Pohjois-Pohjanmaa;17
93400;Taivalkoski Keskus;Taivalkoski;832;Pohjois-Pohjanmaa;17
93420;Jurmu;Taivalkoski;832;Pohjois-Pohjanmaa;17
93440;Loukusa;Taivalkoski;832;Pohjois-Pohjanmaa;17
93470;Inget;Taivalkoski;832;Pohjois-Pohjanmaa;17
93540;Tyrövaara;Taivalkoski;832;Pohjois-Pohjanmaa;17
93590;Vanhala;Taivalkoski;832;Pohjois-Pohjanmaa;17
93600;Kuusamo;Kuusamo;305;Pohjois-Pohjanmaa;17
93700;Kurkijärvi - Oijusluoma;Kuusamo;305;Pohjois-Pohjanmaa;17
93800;Muojärvi;Kuusamo;305;Pohjois-Pohjanmaa;17
93830;Rukatunturi;Kuusamo;305;Pohjois-Pohjanmaa;17
93900;Oulangan kansallispuisto;Kuusamo;305;Pohjois-Pohjanmaa;17
93999;Lososaari;Kuusamo;305;Pohjois-Pohjanmaa;17
94100;Kemi Keskus;Kemi;240;Lappi;19
94200;Torvinen-Vainio;Kemi;240;Lappi;19
94300;Pajusaari;Kemi;240;Lappi;19
94400;Keminmaa Keskus;Keminmaa;241;Lappi;19
94430;Kaakamo;Tornio;851;Lappi;19
94450;Lassila-Jokisuu;Keminmaa;241;Lappi;19
94460;Ruottala;Tornio;851;Lappi;19
94500;Lautiosaari;Keminmaa;241;Lappi;19
94600;Ristikangas-Kivikko;Kemi;240;Lappi;19
94700;Takajärvi-Haukkari;Kemi;240;Lappi;19
94720;Peurasaari;Kemi;240;Lappi;19
94800;Veitsiluoto;Kemi;240;Lappi;19
94830;Pikku Berliini-Hepola;Kemi;240;Lappi;19
94900;Ajos;Kemi;240;Lappi;19
95100;Kuivaniemi Keskus;Ii;139;Pohjois-Pohjanmaa;17
95110;Kuivaniemi kk;Ii;139;Pohjois-Pohjanmaa;17
95130;Hyryoja;Ii;139;Pohjois-Pohjanmaa;17
95160;Oijärvi-Lamminperä;Ii;139;Pohjois-Pohjanmaa;17
95200;Simo Keskus;Simo;751;Lappi;19
95210;Filpus;Simo;751;Lappi;19
95220;Simoniemi;Simo;751;Lappi;19
95225;Viantie;Simo;751;Lappi;19
95230;Maksniemi;Simo;751;Lappi;19
95255;Alaniemi;Simo;751;Lappi;19
95260;Tainionjoki;Simo;751;Lappi;19
95270;Yli-Kärppä-Tainionjoki;Simo;751;Lappi;19
95300;Tervola Keskus;Tervola;845;Lappi;19
95310;Liedakkala;Keminmaa;241;Lappi;19
95315;Törmä;Keminmaa;241;Lappi;19
95325;Paakkola;Tervola;845;Lappi;19
95330;Tervola;Tervola;845;Lappi;19
95340;Loue;Tervola;845;Lappi;19
95350;Peura;Tervola;845;Lappi;19
95355;Koivu-Peura;Tervola;845;Lappi;19
95365;Maula;Keminmaa;241;Lappi;19
95370;Itäkoski;Keminmaa;241;Lappi;19
95375;Yli-Paakkola;Tervola;845;Lappi;19
95400;Tornio Keskus;Tornio;851;Lappi;19
95410;Kiviranta;Tornio;851;Lappi;19
95420;Miukki-Palosaari-Luotomäki;Tornio;851;Lappi;19
95430;Suensaari;Tornio;851;Lappi;19
95440;Kyläjoki;Tornio;851;Lappi;19
95450;Kirkonmäki;Tornio;851;Lappi;19
95460;Kantojärvi;Tornio;851;Lappi;19
95470;Pirkkiö-Röyttä;Tornio;851;Lappi;19
95490;Terästehtaanalue;Tornio;851;Lappi;19
95500;Vojakkala-Yli-Liakka;Tornio;851;Lappi;19
95520;Kukkola;Tornio;851;Lappi;19
95530;Karunki;Tornio;851;Lappi;19
95540;Korpikylä;Tornio;851;Lappi;19
95560;Aapajoki;Tornio;851;Lappi;19
95590;Arpela;Tornio;851;Lappi;19
95600;Ylitornio Keskus;Ylitornio;976;Lappi;19
95610;Kainuunkylä;Ylitornio;976;Lappi;19
95615;Pekanpää;Ylitornio;976;Lappi;19
95620;Aavasaksa;Ylitornio;976;Lappi;19
95630;Kuivakangas;Ylitornio;976;Lappi;19
95635;Kaulinranta;Ylitornio;976;Lappi;19
95640;Juoksenki;Pello;854;Lappi;19
95645;Turtola;Pello;854;Lappi;19
95655;Etelä-Portimojärvi;Ylitornio;976;Lappi;19
95660;Kantomaanpää;Ylitornio;976;Lappi;19
95670;Pessalompolo;Ylitornio;976;Lappi;19
95675;Meltosjärvi;Ylitornio;976;Lappi;19
95680;Lohijärvi;Ylitornio;976;Lappi;19
95690;Mellakoski;Ylitornio;976;Lappi;19
95700;Pello Keskus;Pello;854;Lappi;19
95710;Naamijoki;Pello;854;Lappi;19
95720;Jarhoinen;Pello;854;Lappi;19
95750;Orajärvi;Pello;854;Lappi;19
95760;Konttajärvi;Pello;854;Lappi;19
95770;Lankojärvi;Pello;854;Lappi;19
95780;Sirkkakoski;Pello;854;Lappi;19
95790;Lampsijärvi;Pello;854;Lappi;19
95800;Sieppijärvi-Taapajärvi;Kolari;273;Lappi;19
95830;Vaattojärvi;Kolari;273;Lappi;19
95840;Venejärvenkylä;Kolari;273;Lappi;19
95850;Ruokojärvi;Kolari;273;Lappi;19
95860;Pasmajärvi;Kolari;273;Lappi;19
95900;Kolari Keskus;Kolari;273;Lappi;19
95920;Saaripudas;Kolari;273;Lappi;19
95930;Äkäsjoensuu;Kolari;273;Lappi;19
95940;Tapojärvi;Muonio;498;Lappi;19
95950;Kihlanki-Tapojärvi;Muonio;498;Lappi;19
95970;Äkäslompolo;Muonio;498;Lappi;19
95980;Ylläsjärvi;Kolari;273;Lappi;19
95990;Kurtakko;Kolari;273;Lappi;19
96100;Rovaniemi Keskus;Rovaniemi;698;Lappi;19
96190;Lapinrinne-Ahokangas;Rovaniemi;698;Lappi;19
96200;Sahanperä-Ratantaus;Rovaniemi;698;Lappi;19
96300;Niemelänkangas-Korvanniemi;Rovaniemi;698;Lappi;19
96320;Teollisuuskylä;Rovaniemi;698;Lappi;19
96400;Pullinranta-Kiiruna;Rovaniemi;698;Lappi;19
96440;Ounasrinne;Rovaniemi;698;Lappi;19
96460;Pöykkölä;Rovaniemi;698;Lappi;19
96500;Korkalovaara;Rovaniemi;698;Lappi;19
96600;Koskenkylä;Rovaniemi;698;Lappi;19
96700;Niskanperä;Rovaniemi;698;Lappi;19
96800;Ylikylä-Patosaari;Rovaniemi;698;Lappi;19
96900;Saarenkylä;Rovaniemi;698;Lappi;19
96910;Syväsenvaara;Rovaniemi;698;Lappi;19
96930;Napapiiri Rovaniemi;Rovaniemi;698;Lappi;19
96960;Someroharju;Rovaniemi;698;Lappi;19
97110;Rautionsaari;Rovaniemi;698;Lappi;19
97130;Hirvas;Rovaniemi;698;Lappi;19
97140;Muurola;Rovaniemi;698;Lappi;19
97145;Totonvaara;Rovaniemi;698;Lappi;19
97160;Petäjäinen;Rovaniemi;698;Lappi;19
97170;Jaatila;Rovaniemi;698;Lappi;19
97220;Sinettä;Rovaniemi;698;Lappi;19
97240;Sonka;Rovaniemi;698;Lappi;19
97250;Raanujärvi;Ylitornio;976;Lappi;19
97280;Tapio;Rovaniemi;698;Lappi;19
97290;Marraskoski;Rovaniemi;698;Lappi;19
97310;Patokoski;Rovaniemi;698;Lappi;19
97320;Marrasjärvi;Rovaniemi;698;Lappi;19
97330;Rattosjärvi;Pello;854;Lappi;19
97335;Ruuhivaara;Pello;854;Lappi;19
97340;Meltaus-Jääskö-Perttaus;Rovaniemi;698;Lappi;19
97370;Unarin-Luusua;Sodankylä;758;Lappi;19
97380;Kukasranta;Sodankylä;758;Lappi;19
97390;Kierinki;Sodankylä;758;Lappi;19
97420;Lohiniva;Kittilä;261;Lappi;19
97430;Taapajärvi;Kolari;273;Lappi;19
97470;Alakylä-Sailehto;Kittilä;261;Lappi;19
97510;Vikajärvi;Rovaniemi;698;Lappi;19
97520;Nampa;Rovaniemi;698;Lappi;19
97530;Nampa-Yli-Nampa;Rovaniemi;698;Lappi;19
97540;Tiainen;Rovaniemi;698;Lappi;19
97580;Misi;Rovaniemi;698;Lappi;19
97590;Raajärvi;Kemijärvi;320;Lappi;19
97610;Oikarainen;Rovaniemi;698;Lappi;19
97615;Tennirova;Rovaniemi;698;Lappi;19
97620;Viiri-Tennirova;Rovaniemi;698;Lappi;19
97625;Vanttauskoski;Rovaniemi;698;Lappi;19
97630;Pekkala;Rovaniemi;698;Lappi;19
97635;Juuniemi;Rovaniemi;698;Lappi;19
97645;Juujärvi;Kemijärvi;320;Lappi;19
97650;Juotas;Rovaniemi;698;Lappi;19
97655;Autti;Rovaniemi;698;Lappi;19
97665;Pohjasperä;Ranua;683;Lappi;19
97670;Kivitaipale;Rovaniemi;698;Lappi;19
97675;Narkaus-Kämät;Rovaniemi;698;Lappi;19
97680;Saari-Kämä;Rovaniemi;698;Lappi;19
97685;Siika-Kämä;Rovaniemi;698;Lappi;19
97690;Sulaoja;Rovaniemi;698;Lappi;19
97700;Ranua Keskus;Ranua;683;Lappi;19
97715;Raiskio;Ranua;683;Lappi;19
97720;Yli-Simo-Raiskio;Ranua;683;Lappi;19
97760;Saariharju;Ranua;683;Lappi;19
97765;Kuha-Impiö-Itäranua;Ranua;683;Lappi;19
97780;Kuukasjärvi-Petäjäjärvi;Ranua;683;Lappi;19
97785;Kelankylä;Ranua;683;Lappi;19
97810;Suorsa;Posio;614;Lappi;19
97815;Pernu-Suorsa;Posio;614;Lappi;19
97820;Perä-Posio;Posio;614;Lappi;19
97840;Lehtiniemi;Posio;614;Lappi;19
97850;Ristilä;Posio;614;Lappi;19
97870;Jumisko;Posio;614;Lappi;19
97880;Nolimo-Jumisko;Posio;614;Lappi;19
97890;Karjalaisenniemi;Posio;614;Lappi;19
97895;Mourujärvi;Posio;614;Lappi;19
97900;Posio Keskus;Posio;614;Lappi;19
97920;Suonnankylä;Posio;614;Lappi;19
97925;Tolva;Posio;614;Lappi;19
97940;Lohiranta;Posio;614;Lappi;19
97950;Säikkä;Posio;614;Lappi;19
97960;Kuloharju-Säikkä;Posio;614;Lappi;19
97965;Kynsilä;Posio;614;Lappi;19
97970;Sirniö;Posio;614;Lappi;19
97980;Anetjärvi;Posio;614;Lappi;19
97999;Köngäs;Kittilä;261;Lappi;19
98100;Kemijärvi Keskus;Kemijärvi;320;Lappi;19
98120;Särkikangas;Kemijärvi;320;Lappi;19
98230;Luusua-Karsimus;Kemijärvi;320;Lappi;19
98310;Karvakko;Kemijärvi;320;Lappi;19
98350;Tapionniemi;Kemijärvi;320;Lappi;19
98360;Vuostimo;Kemijärvi;320;Lappi;19
98400;Isokylä-Ryti-Lehtola;Kemijärvi;320;Lappi;19
98420;Ryti-Lehtola;Kemijärvi;320;Lappi;19
98440;Kallaanvaara;Kemijärvi;320;Lappi;19
98450;Kostamo;Kemijärvi;320;Lappi;19
98500;Pelkosenniemi Keskus;Pelkosenniemi;583;Lappi;19
98510;Saunavaara;Pelkosenniemi;583;Lappi;19
98530;Pyhätunturi;Pelkosenniemi;583;Lappi;19
98550;Suvanto;Pelkosenniemi;583;Lappi;19
98560;Kairala-Luiro;Pelkosenniemi;583;Lappi;19
98570;Aapajärvi;Pelkosenniemi;583;Lappi;19
98580;Luiro;Pelkosenniemi;583;Lappi;19
98600;Kursu;Salla;732;Lappi;19
98620;Pahkakumpu;Salla;732;Lappi;19
98630;Ahvenselkä;Pelkosenniemi;583;Lappi;19
98660;Salmivaara;Salla;732;Lappi;19
98710;Joutsijärvi;Kemijärvi;320;Lappi;19
98720;Suomutunturi;Kemijärvi;320;Lappi;19
98760;Hirvasvaara-Paloperä;Salla;732;Lappi;19
98770;Aholanvaara;Salla;732;Lappi;19
98780;Maaninkavaara;Posio;614;Lappi;19
98790;Paloperä;Salla;732;Lappi;19
98800;Savukoski Keskus-Värriö;Savukoski;742;Lappi;19
98810;Lunkkaus;Savukoski;742;Lappi;19
98820;Värriö;Savukoski;742;Lappi;19
98830;Martti-Ruuvaoja;Savukoski;742;Lappi;19
98840;Ruuvaoja;Savukoski;742;Lappi;19
98850;Kuosku;Savukoski;742;Lappi;19
98900;Salla Keskus;Salla;732;Lappi;19
98920;Kelloselkä;Salla;732;Lappi;19
98930;Kotalankylä;Salla;732;Lappi;19
98950;Saija;Salla;732;Lappi;19
98960;Naruska;Salla;732;Lappi;19
98970;Onkamojärvi;Salla;732;Lappi;19
98980;Kallunki-Niemelä;Salla;732;Lappi;19
98995;Hautajärvi;Salla;732;Lappi;19
99100;Kittilä Keskus;Kittilä;261;Lappi;19
99110;Kaukonen;Kittilä;261;Lappi;19
99120;Kallo;Kittilä;261;Lappi;19
99130;Sirkka-Rauhala;Kittilä;261;Lappi;19
99135;Rauhala;Kittilä;261;Lappi;19
99140;Köngäs-Hanhivaara;Kittilä;261;Lappi;19
99150;Tepasto;Kittilä;261;Lappi;19
99160;Lompolo-Pulju;Kittilä;261;Lappi;19
99170;Pulju;Kittilä;261;Lappi;19
99180;Rautusjärvi;Kittilä;261;Lappi;19
99190;Hanhimaa;Kittilä;261;Lappi;19
99195;Pokka;Kittilä;261;Lappi;19
99230;Jeesiöjärvi;Kittilä;261;Lappi;19
99240;Kuivasalmi;Kittilä;261;Lappi;19
99250;Kiistala-Jeesiöjärvi;Kittilä;261;Lappi;19
99270;Hormakumpu;Kittilä;261;Lappi;19
99280;Tepsa;Kittilä;261;Lappi;19
99290;Kelontekemä;Kittilä;261;Lappi;19
99300;Muonio Keskus;Muonio;498;Lappi;19
99310;Yli-Muonio;Muonio;498;Lappi;19
99320;Kätkäsuvanto;Muonio;498;Lappi;19
99330;Pallastunturi;Muonio;498;Lappi;19
99340;Raattama-Pallastunturi;Kittilä;261;Lappi;19
99360;Kangosjärvi;Muonio;498;Lappi;19
99400;Enontekiö Keskus;Enontekiö;47;Lappi;19
99410;Vuontisjärvi;Enontekiö;47;Lappi;19
99420;Peltovuoma;Enontekiö;47;Lappi;19
99430;Nunnanen;Enontekiö;47;Lappi;19
99440;Leppäjärvi;Enontekiö;47;Lappi;19
99450;Palojoensuu-Kuttanen;Enontekiö;47;Lappi;19
99460;Kuttanen;Enontekiö;47;Lappi;19
99470;Karesuvanto;Enontekiö;47;Lappi;19
99490;Kilpisjärvi;Enontekiö;47;Lappi;19
99510;Raudanjoki-Seipäjärvi;Sodankylä;758;Lappi;19
99520;Seipäjärvi;Sodankylä;758;Lappi;19
99530;Vuojärvi;Sodankylä;758;Lappi;19
99540;Torvinen;Sodankylä;758;Lappi;19
99550;Aska-Orakylä;Sodankylä;758;Lappi;19
99555;Luosto;Sodankylä;758;Lappi;19
99560;Orakylä;Sodankylä;758;Lappi;19
99600;Sodankylä Keskus;Sodankylä;758;Lappi;19
99610;Siurunmaa;Sodankylä;758;Lappi;19
99620;Kelujärvi;Sodankylä;758;Lappi;19
99640;Tanhua;Savukoski;742;Lappi;19
99645;Lokka;Sodankylä;758;Lappi;19
99650;Sattanen;Sodankylä;758;Lappi;19
99655;Sattasvaara;Sodankylä;758;Lappi;19
99660;Kersilö;Sodankylä;758;Lappi;19
99665;Moskuvaara;Sodankylä;758;Lappi;19
99670;Petkula;Sodankylä;758;Lappi;19
99690;Vuotso;Sodankylä;758;Lappi;19
99695;Tankavaara;Sodankylä;758;Lappi;19
99710;Vaalajärvi;Sodankylä;758;Lappi;19
99720;Riipi;Sodankylä;758;Lappi;19
99740;Syväjärvi;Sodankylä;758;Lappi;19
99750;Sassali;Sodankylä;758;Lappi;19
99760;Uimaniemi;Sodankylä;758;Lappi;19
99770;Jeesiö;Sodankylä;758;Lappi;19
99800;Ivalo;Inari;148;Lappi;19
99830;Saariselkä;Inari;148;Lappi;19
99860;Nellim;Inari;148;Lappi;19
99870;Inari Keskus-Lemmenjoki;Inari;148;Lappi;19
99885;Lemmenjoki;Inari;148;Lappi;19
99910;Kaamanen-Partakko;Inari;148;Lappi;19
99930;Sevettijärvi-Näätämö;Inari;148;Lappi;19
99940;Näätämö;Inari;148;Lappi;19
99950;Karigasniemi;Utsjoki;890;Lappi;19
99980;Utsjoki Keskus;Utsjoki;890;Lappi;19
99990;Nuorgam;Utsjoki;890;Lappi;19
